{"type":"FeatureCollection", "features": [
{"type":"Feature","geometry":{"type":"Polygon","coordinates":[[[-44.42860062599998,-14.286635501999942],[-44.34059577999997,-14.249400292999912],[-44.20912270999999,-14.246671852999935],[-44.170380265999945,-14.268695016999953],[-44.107285659999924,-14.25912038],[-44.05132932399997,-14.286118878999918],[-43.996590989,-14.265702127999944],[-43.961922912,-14.291006792999958],[-43.776243886999936,-14.331969809999965],[-43.697261954999895,-14.20973252299996],[-43.65308225099992,-14.002971106999915],[-43.62699513199992,-13.960133906999914],[-43.61429022999996,-13.837455394],[-43.59261288699995,-13.763275598999911],[-43.54835409099992,-13.712217604999974],[-43.556756795,-13.64450703699994],[-43.50949222099995,-13.575575355999945],[-43.46052325100002,-13.562178886999963],[-43.43132873599995,-13.446983181999936],[-43.4632987749999,-13.332477797],[-43.44043234299992,-13.25600317199994],[-43.62914803799997,-13.268223985],[-43.705012165999975,-13.289556632999986],[-43.70606799799994,-13.187841878999915],[-43.646516683999984,-13.18488303199997],[-43.59107629399991,-13.146649962999977],[-43.46310847099996,-13.133283949999939],[-43.454149253999944,-13.03983159399996],[-43.40614576099996,-12.997895195999973],[-43.39495201899998,-12.873149623],[-43.345659861999955,-12.854794410999979],[-43.332990851999945,-12.79325684],[-43.254017538,-12.703708932999955],[-43.201291699,-12.673927971999941],[-43.18758438099996,-12.620048748999988],[-43.206883433,-12.543331253999987],[-43.25799901399991,-12.430880306999956],[-43.25275006099993,-12.380087823999961],[-43.286478819,-12.331037056999925],[-43.26343028899996,-12.220902249999952],[-43.22630365399995,-12.192301823],[-43.28219382399993,-12.135685598999899],[-43.299022665999956,-12.0559409869999],[-43.34909802299995,-12.016361401999962],[-43.352720752999936,-11.904419658999963],[-43.315363214999905,-11.875152288999988],[-43.34919914999997,-11.798330150999945],[-43.34830685199994,-11.735095975],[-43.38220231499996,-11.689400274000015],[-43.353345423999926,-11.588991003999958],[-43.30408197599997,-11.581601788999905],[-43.22300150199993,-11.372224095000014],[-43.17257927799993,-11.316372769999958],[-43.19872531999992,-11.23814447699992],[-43.14901630499996,-11.163865327999964],[-43.09522857399994,-11.026165244999984],[-43.05131881800001,-11.005773028999908],[-42.98828414399997,-10.908378785],[-42.86264602399996,-10.81050934199995],[-42.780671152999986,-10.817462787999919],[-42.703069183,-10.714680265999963],[-42.66130917499994,-10.588018500999983],[-42.587197436999894,-10.545104190999908],[-42.56999934199996,-10.470351279999921],[-42.464486343999944,-10.382194428999956],[-42.45876694099994,-10.310797206999975],[-42.40464669599994,-10.253079334999935],[-42.40402192499994,-10.189997648],[-42.435469167999976,-10.130306048],[-42.39315871799995,-10.051761774999921],[-42.35502950999994,-10.032236684999916],[-42.242387423999986,-10.047460775999948],[-42.19947027999994,-9.972110269999988],[-42.119157934999954,-9.888093564],[-42.074686319,-9.803283463999932],[-42.08057545799992,-9.733599995],[-42.04113112399998,-9.670108505],[-41.99236500899996,-9.666457536999893],[-41.839568039,-9.73215911499997],[-41.684419041999924,-9.76842368099998],[-41.63715367,-9.715302715999972],[-41.513207949999945,-9.666174637999934],[-41.40021548899996,-9.695047882999983],[-41.24722215699991,-9.647091397999894],[-41.21268546299996,-9.62215314699991],[-41.143538405999905,-9.495927915999989],[-41.11742041500001,-9.403590815],[-41.01662834299999,-9.383941408999927],[-40.863115078,-9.394096582999953],[-40.76715928299991,-9.445411926999956],[-40.720088160999985,-9.30589669699998],[-40.68723398099998,-9.278333138999937],[-40.669873158999984,-9.186132510999965],[-40.709889301999986,-9.140880973999952],[-40.82100804100001,-9.079891425999929],[-40.85101160099997,-8.954244312999968],[-40.92133780299997,-8.8354305689999],[-41.03623450399995,-8.785875894999915],[-41.10335109099996,-8.780442951999898],[-41.131324976999935,-8.704252868999927],[-41.225265706,-8.704669785999961],[-41.27826483699996,-8.735313038999912],[-41.38125153499993,-8.707272368999917],[-41.424266706,-8.802555355999928],[-41.48784338199995,-8.843903399999906],[-41.54141013899989,-8.933556714999966],[-41.60579472899998,-8.957403876999912],[-41.730821757999976,-9.027957202999968],[-41.73265903099993,-9.087725361999919],[-41.800070338,-9.148026600999923],[-41.837965768999936,-9.242272042999975],[-41.92162935799992,-9.27876016999992],[-41.972266227,-9.24863813599993],[-42.072800510999926,-9.259832785999986],[-42.09504457500001,-9.27856111899997],[-42.31607656799998,-9.316612335999928],[-42.364668498999976,-9.382087498999923],[-42.418494286999945,-9.40936330399996],[-42.49309177599995,-9.494900445999974],[-42.590358743999985,-9.498351978999917],[-42.61959157999994,-9.539307892999958],[-42.71619247599993,-9.554370775999885],[-42.769957195,-9.619182113999933],[-42.82055280299996,-9.619230413999933],[-42.82819324099993,-9.560521153999932],[-42.876723492999886,-9.561623663999939],[-42.943798292999894,-9.520773283999926],[-42.95636538099991,-9.438639697999971],[-42.98786311499995,-9.4013385129999],[-43.16152399599994,-9.379250069999987],[-43.28511738699998,-9.420028022999958],[-43.376422207,-9.348904946999923],[-43.43812858699991,-9.266137780999948],[-43.497527093,-9.272525619999925],[-43.57902656599998,-9.320390239999963],[-43.68914379899992,-9.41968275199999],[-43.78424771699995,-9.454772890999905],[-43.85258131899993,-9.562138369999982],[-43.841952223999954,-9.637427578999933],[-43.794477365999924,-9.70504443199994],[-43.78492181599995,-9.762385011999939],[-43.664845737999975,-9.823654789999967],[-43.70903534299996,-9.91321951299998],[-43.66517311699997,-9.99102796999992],[-43.69095136299991,-10.072770946999974],[-43.75922851599993,-10.074605175999949],[-43.784816228999915,-10.19167804699995],[-43.837265067,-10.250068228999929],[-43.83692162499992,-10.302204972999949],[-43.895096093,-10.354490734999953],[-43.93673482099995,-10.436130285999976],[-44.027765271,-10.412474040999928],[-44.025843686,-10.475470726999934],[-44.076947296999975,-10.586003529999974],[-44.13926402399994,-10.639884323999969],[-44.218377019999906,-10.615180453999926],[-44.26665544199999,-10.62315303499993],[-44.31454715499996,-10.557362990999906],[-44.392256356999944,-10.600704261999958],[-44.45175172499997,-10.60663700899994],[-44.50050515299992,-10.649701880999949],[-44.57777943099998,-10.62676877099996],[-44.66879740099998,-10.687087217999967],[-44.662782848999974,-10.750561773999987],[-44.714574257999935,-10.76172511699994],[-44.78806191699995,-10.808521575999972],[-44.808329149999985,-10.86614948299994],[-44.931217944999986,-10.928756348999933],[-45.082113256999904,-10.839502941999921],[-45.24596740999993,-10.8224831069999],[-45.268466031999935,-10.776229769999954],[-45.35821896699998,-10.732207538999958],[-45.38521597099995,-10.651632599],[-45.43732817399999,-10.615566336999969],[-45.44741116199999,-10.509355226999926],[-45.40026885799994,-10.463074348999921],[-45.43032251899996,-10.359463019999957],[-45.514360556000014,-10.289836598999944],[-45.56731091599994,-10.201484457999985],[-45.567456406,-10.139522508999974],[-45.60317609399995,-10.107982174999961],[-45.69017594699993,-10.155400438999926],[-45.699264709,-10.258567320999887],[-45.72688958699997,-10.312535662999931],[-45.798184587000016,-10.323247328],[-45.82021125599997,-10.456053996000012],[-45.870897331999956,-10.503278893999966],[-45.92922292299992,-10.521600660999972],[-46.06076518799995,-10.600178508999889],[-46.127612926,-10.620600656999954],[-46.15034625999989,-10.691553989999889],[-46.260537040999964,-10.812037365],[-46.26726626499995,-10.934802322999957],[-46.34155793099996,-10.93901231999995],[-46.552202936999905,-11.262798985999964],[-46.57646460599995,-11.342020650999949],[-46.53698293899994,-11.37181565299997],[-46.5236662739999,-11.463630652999921],[-46.43931794299993,-11.521045654999948],[-46.35037294399994,-11.506228990999965],[-46.2504812779999,-11.536688991999942],[-46.209512946,-11.585268993999929],[-46.104147946999966,-11.608017329999907],[-46.155074106,-11.650200508999973],[-46.22651653199991,-11.636259754999987],[-46.24397942699991,-11.605365326999948],[-46.341127871,-11.610199378999972],[-46.30775084099998,-11.686566745999958],[-46.37363699799996,-11.768152905],[-46.33755158799994,-11.794021229999938],[-46.38048123399995,-11.86700420499994],[-46.30678354199997,-11.913747122999983],[-46.38951850699994,-12.047485826999935],[-46.37022096299994,-12.102400121],[-46.39245620199991,-12.170621059999984],[-46.34914631499997,-12.29912325399992],[-46.370316817999964,-12.347538087],[-46.32263776699991,-12.406201226999922],[-46.27046857499996,-12.431619425999916],[-46.27578463,-12.594430558999967],[-46.30705575300002,-12.63669918899991],[-46.268080457999986,-12.716156811999966],[-46.310505451,-12.79554189199997],[-46.30789314099994,-12.941713740999958],[-46.22148156699996,-12.950219135999905],[-46.12664753599997,-12.912386658999928],[-46.12466355999995,-12.95982038499993],[-46.27553375900001,-13.020213308999882],[-46.328975127999975,-13.09977245299999],[-46.299610135,-13.128128629999889],[-46.3055418119999,-13.251663855999904],[-46.292486944999936,-13.316930098999933],[-46.10321942899997,-13.25751018999993],[-46.07333963399995,-13.311368946999966],[-46.13547311999994,-13.375524241999912],[-46.23196484699996,-13.418584944999932],[-46.21016477599992,-13.461886511999985],[-46.24725712099995,-13.521688686999909],[-46.21639791799998,-13.63598573599992],[-46.25619784899994,-13.684162425999933],[-46.277495100999936,-13.790881452999901],[-46.23247472399996,-13.848607374999986],[-46.264190331999906,-13.947435088999924],[-46.220066010999986,-13.97542279999989],[-46.22153010199998,-14.1067597979999],[-46.18692453700001,-14.15309204199998],[-46.11629598499995,-14.161603279999966],[-46.029590910999936,-14.25952949299992],[-45.96440328799993,-14.284311275999926],[-45.93166528399994,-14.408977130999965],[-46.000073395999955,-14.446622188999978],[-45.981449088999966,-14.53189786299994],[-46.010516442,-14.662189969999915],[-46.00258411699995,-14.79583901699991],[-46.03948581299992,-14.871976923],[-45.966080910999914,-14.965645483999932],[-45.97500556499991,-15.036877792999945],[-46.04372018999989,-15.118129571999948],[-46.04777556699997,-15.163729624999931],[-46.116507078,-15.204820933999983],[-46.05811297599997,-15.262741800999944],[-46.02952368399997,-15.201808335999942],[-45.98450530299997,-15.195961037999925],[-45.96061184599993,-15.143930083999955],[-45.87215889399997,-15.158803129999985],[-45.81166548999997,-15.112837832999979],[-45.75110945999993,-15.12258217099994],[-45.673189464999915,-15.077834548999967],[-45.64997242599997,-15.023802517999982],[-45.536103434000026,-14.938126235],[-45.49005153199996,-14.96076267799996],[-45.410296384999974,-14.923438812999965],[-45.318043151,-14.852569457999962],[-45.20557367699995,-14.744738943999955],[-45.09584943699993,-14.752998941999937],[-45.04769383399997,-14.690536972999944],[-44.869194746999966,-14.593384683999986],[-44.810766094,-14.50310117699992],[-44.72565783899995,-14.457649223999933],[-44.65887835899995,-14.395757313999944],[-44.56612389499998,-14.341375145999944],[-44.48825887299998,-14.328626748999937],[-44.42860062599998,-14.286635501999942]]]},"properties":{"CD_MUN":"2901403","NM_MUN":"Angical","SIGLA":"BA","AREA_KM2":1530.05,"auxiliary_":null,"auxiliar_1":null,"REGIAO_MAR":"BA","BASE_RC":null,"ALLCON_TOT":0}}
]}