{"type":"FeatureCollection", "features": [
{"type":"Feature","geometry":{"type":"Polygon","coordinates":[[[-62.11970908300002,-13.153532827999967],[-62.11568434799999,-13.258465213],[-61.88742596999994,-13.440774471999948],[-61.86885265,-13.528222080999939],[-61.58562098299997,-13.50062565599993],[-61.46992394099995,-13.555250237999914],[-61.24834405399994,-13.496274093999947],[-60.933890874,-13.540709474999932],[-60.87984062099993,-13.617527911999936],[-60.62351617499992,-13.719535107999956],[-60.417152393,-13.94055063299989],[-60.48254204799994,-14.134869911999957],[-60.324099183,-14.602103316],[-60.272147966999974,-14.620292180000014],[-60.244321350999925,-15.096806048999909],[-60.56501893499997,-15.108683604999982],[-60.23860482699998,-15.473851596999975],[-60.171717137,-16.266106137999934],[-59.53681486899997,-16.27740106099994],[-58.43047135399992,-16.321294987999977],[-58.343858240999964,-16.51772665599994],[-58.46310909299996,-16.65221948999994],[-58.47450728299998,-16.914486826999973],[-58.39700151299995,-17.181551090999978],[-58.12073004800002,-17.44763943599997],[-57.996366996999896,-17.51560331],[-57.883442069,-17.44954203],[-57.752294742999965,-17.56446311399996],[-57.68461313099992,-17.716481508],[-57.48527439599995,-17.862228093999963],[-57.101495464,-17.772186335999915],[-56.87596746299992,-17.53297218699995],[-56.73385418,-17.30986017100001],[-56.450877607999956,-17.326391599999944],[-56.25134481799991,-17.219023089999972],[-56.044119322999926,-17.171395114999974],[-56.012037712999984,-17.23668179],[-55.583837990999925,-17.38279765999998],[-55.48304353899997,-17.478685726999963],[-55.127255961999936,-17.652722300999955],[-54.86086381199995,-17.623853496],[-54.7469130329999,-17.519942236],[-54.50230488599993,-17.48071082099992],[-54.302420401999925,-17.661660208999894],[-54.084692451999956,-17.619034804],[-53.762826769999904,-17.246601313999985],[-53.680074905999945,-17.253569711999948],[-53.70388530399996,-17.661344519999975],[-53.8559091,-17.702717167999946],[-53.941165075999926,-17.840204346999897],[-53.774217178999905,-18.000770134999975],[-53.46785015999995,-18.034893136999894],[-53.29190582499994,-17.995865883999915],[-53.073509091999966,-18.03451059999995],[-53.15999249299993,-17.774894871999933],[-53.24845381799996,-17.62729167299991],[-53.20915849499991,-17.316011992],[-53.05496085399996,-17.06442086299994],[-53.014627035999965,-16.862248131999955],[-52.837244176999945,-16.77189689299997],[-52.606078286999946,-16.486024152],[-52.692723488999974,-16.366421352999936],[-52.54916590899994,-16.16499546899993],[-52.32849834899993,-16.070403395999975],[-52.254139708999965,-15.893266615999977],[-52.009533213999966,-15.88581152499998],[-51.882670109999935,-15.828485287999925],[-51.767858906999926,-15.653591377999962],[-51.75561339999996,-15.557415435999964],[-51.606134474,-15.162296974999965],[-51.534108063,-15.065202161999967],[-51.08710983500002,-14.921348693999956],[-51.089637502999906,-14.840180531999945],[-50.964229223999986,-14.528297723999959],[-50.997867071,-14.41381035099992],[-50.89873133899998,-14.114935503000012],[-50.831266216,-14.082830547999912],[-50.855269196999956,-13.757350512999942],[-50.758999752999955,-13.520315307999962],[-50.60927995099995,-13.318780879999945],[-50.57084893599992,-13.03420158399998],[-50.499574287999955,-12.87950994399992],[-50.625359464999974,-12.8000194859999],[-50.70648878499996,-12.609701005000016],[-50.623573665,-12.455283798000014],[-50.681377293999944,-12.216949710999945],[-50.686304518999954,-11.85899541799996],[-50.721591475,-11.731712636999934],[-50.65692589400001,-11.600858319999894],[-50.738935239999904,-11.544511594999971],[-50.728511103999914,-11.382565940999942],[-50.60945742599998,-11.067445653999961],[-50.63261929199997,-10.931861499],[-50.57058773299998,-10.752504128999938],[-50.60289775,-10.658233979999974],[-50.482620474999976,-10.490038607999939],[-50.224806381999905,-9.841153477],[-51.72426733199995,-9.744563376999924],[-52.92128604199996,-9.660874159999953],[-53.58844280299994,-9.6110503049999],[-54.613454077,-9.53582622599992],[-55.89221360799998,-9.432214658999936],[-56.67188268199992,-9.367396943999982],[-56.77232361899993,-9.390959299999988],[-56.820108799999964,-9.246340380999971],[-56.995549344999944,-9.233842562999914],[-57.039241594,-9.098290013999897],[-57.20377417500002,-8.920819818999934],[-57.416215742999924,-8.858995121],[-57.592938920999984,-8.75647697199998],[-57.68655768999997,-8.407007846999957],[-57.64166889599995,-8.21988153299996],[-57.83186459899998,-7.961515910999903],[-57.896749021999945,-7.677884549999945],[-58.06136156699992,-7.395191152999967],[-58.213059953999945,-7.458534734999986],[-58.20217060600001,-7.620854258999952],[-58.375135512999975,-7.899001267],[-58.29016729299995,-8.135600014],[-58.35457748999994,-8.392754145999923],[-58.41780718899996,-8.489519648999941],[-58.38951831499994,-8.594792454999975],[-58.442867869999944,-8.799399102999903],[-59.48136305799993,-8.803320905999943],[-60.420180817999935,-8.796622586999945],[-61.58313478499997,-8.79868905399995],[-61.74185400599994,-8.69519285999992],[-61.841249934,-8.739410640999932],[-61.859748620999895,-8.852973303999931],[-61.97913997899997,-8.873244617999951],[-62.124971742999975,-8.801671148999954],[-62.183700535999904,-8.598966511999926],[-62.366051171,-8.493561708999984],[-62.360803499999946,-8.398549285999977],[-62.65500162299997,-8.229056372999963],[-62.69228013499994,-8.092908286999965],[-62.86661657199996,-7.975868297000019],[-63.62124913599995,-7.976531747999935],[-63.72276144799997,-8.249498971999945],[-63.79123129199995,-8.333215251999935],[-63.9441225209999,-8.33118768499995],[-63.92456870099991,-8.575525415999916],[-64.14306706899994,-8.743031521999942],[-64.14176693799993,-8.945050737999924],[-64.32339962999995,-8.928860604999986],[-64.58796100999999,-9.009509904999966],[-64.80782419299997,-8.985551790999988],[-64.93992979499998,-9.124565832999973],[-64.91968281999993,-9.22028029599998],[-65.05354596899997,-9.402142251999965],[-65.14288058199995,-9.44681233899992],[-65.24666142999999,-9.257663551999915],[-65.44021839999996,-9.311745279999926],[-65.50316325099993,-9.469975436999931],[-65.67943521399997,-9.45139289299993],[-65.72996717899998,-9.563072677999926],[-65.97030062399993,-9.413160123999962],[-66.37477644899994,-9.426366145],[-66.50061335999997,-9.633564154999927],[-66.77536361699998,-9.753091303999959],[-66.8102531119999,-9.818045874999957],[-66.6267196909999,-9.898101245],[-66.35839264099997,-9.864045276999942],[-66.15202413,-9.785617808999945],[-65.68496939100001,-9.749008087999886],[-65.62369480799994,-9.835979800999937],[-65.39160148399993,-9.68763016399988],[-65.288659195,-9.865726729999977],[-65.33182927199992,-9.930014664999884],[-65.28882913699994,-10.219870802999917],[-65.429747332,-10.480948481999928],[-65.34816982799995,-10.778442546999898],[-65.25085903699994,-10.984545507999908],[-65.35147072199996,-11.121723844999973],[-65.359855871,-11.25780439599989],[-65.30491927199995,-11.501599987999942],[-65.22897009400002,-11.515630149999954],[-65.18297333199997,-11.721703504999912],[-65.090525597,-11.707777411999896],[-65.02891222299995,-11.997637135999959],[-64.839586819,-12.010679252999932],[-64.71294475099995,-12.173579896000017],[-64.49289191099992,-12.291194948999937],[-64.40616761,-12.447048136],[-63.96336189999998,-12.529698247999885],[-63.78630346699998,-12.427945031],[-63.550490896,-12.508436993999936],[-63.295544450999955,-12.68185672399996],[-63.16447898799994,-12.615720567999986],[-63.00709821999996,-12.83959599299994],[-62.92135429299998,-12.84086147999993],[-62.734020566999966,-13.02186675799991],[-62.44290890699997,-13.079911379999896],[-62.299349729999975,-13.150552810999958],[-62.11970908300002,-13.153532827999967]]]},"properties":{"CD_MUN":"1100015","NM_MUN":"Alta Floresta D'Oeste","SIGLA":"RO","AREA_KM2":7067.127,"auxiliary_":null,"auxiliar_1":null,"REGIAO_MAR":"MT OESTE_RO","BASE_RC":null,"ALLCON_TOT":4}}
]}