{"type":"FeatureCollection", "features": [
{"type":"Feature","geometry":{"type":"MultiPolygon","coordinates":[[[[-49.80759589999997,-19.93182810999997],[-49.63440530099998,-19.93193211399996],[-49.514004928,-19.91431150599997],[-49.453809955999986,-19.978059750999897],[-49.35648649,-19.986717257999906],[-49.297537781999985,-19.960545406999906],[-49.299246428999965,-20.167076078999955],[-49.225294014999946,-20.305343064999946],[-49.12241114899995,-20.273545039999927],[-49.06747975499998,-20.154743511999982],[-48.97202319799991,-20.207790346999985],[-48.96303031699995,-20.40312151599993],[-48.86703918599997,-20.39834930499996],[-48.88707533899998,-20.275275438999927],[-48.822126733999944,-20.1615471449999],[-48.63771183599994,-20.165347437000012],[-48.593247428999945,-20.135811745999952],[-48.49111613199996,-20.13812321599998],[-48.315412862,-20.113801091],[-48.20777146499992,-20.03937002199999],[-48.105487412999906,-20.146355956000015],[-47.875077302,-20.09837268999993],[-47.859750731999924,-19.99293974799997],[-47.733681691999955,-19.987928204999914],[-47.639656072999976,-20.047219412999926],[-47.583824617999966,-19.99666463199997],[-47.46332203999996,-19.965789005999977],[-47.408133496999945,-20.08019628199996],[-47.26178041999997,-20.159924877999966],[-47.239102029,-20.24356809399995],[-47.29820813599998,-20.348435714999944],[-47.291011293999944,-20.450549889999934],[-47.154517380999934,-20.519553191999904],[-47.09745644999998,-20.64387682699996],[-47.16924077100001,-20.703430845999957],[-47.24004425699999,-20.885281697],[-47.14373893599994,-20.982385671999957],[-47.15702985099998,-21.018824736999928],[-47.123647821,-21.16790940699996],[-47.05228174399993,-21.246518713999905],[-47.012970414999984,-21.41910701699997],[-46.893305569999924,-21.41561413299998],[-46.81730936400001,-21.36643857199992],[-46.64873033699994,-21.391721343],[-46.60188993,-21.44396078099989],[-46.519052712,-21.44895315599996],[-46.50077666699996,-21.549761130999965],[-46.56463134,-21.678679389999953],[-46.621594723999955,-21.675542992999972],[-46.62603031199996,-21.766226462],[-46.69097054699993,-21.83696384900001],[-46.642825449999954,-21.976620813],[-46.68538901999996,-22.037422128999893],[-46.613041482999954,-22.150252526999967],[-46.67080084899997,-22.184260558999966],[-46.71453687,-22.315584169999934],[-46.631607354,-22.43583570399995],[-46.554813950000025,-22.446649974999975],[-46.54214693599991,-22.494356001999947],[-46.45331815399995,-22.522497117999905],[-46.39305887099995,-22.66297405899996],[-46.45272307799992,-22.727581895999958],[-46.334541461999926,-22.760300075],[-46.37681108099995,-22.827819462000022],[-46.345224236,-22.90467920399989],[-46.279025716000014,-22.878347613],[-46.14125198799998,-22.868146002999943],[-46.008524,-22.889497998999943],[-45.909035,-22.82960499899996],[-45.76695935699996,-22.840812269],[-45.71181884799992,-22.771515890999936],[-45.74280673799997,-22.65916686199999],[-45.68107834399992,-22.636335684],[-45.56596527699998,-22.656522749999972],[-45.48880049099992,-22.628785222999923],[-45.41052109199992,-22.651671024999906],[-45.16451526799995,-22.537928714999964],[-45.054928890999975,-22.470503961999952],[-44.96984841099991,-22.47194463899996],[-44.794710802999944,-22.408864795999914],[-44.74144567699991,-22.424827631999964],[-44.71169879399996,-22.51404984499997],[-44.64363892799998,-22.599606352999988],[-44.405825757999935,-22.599098332999965],[-44.38239777799994,-22.573494187999952],[-44.18427629299996,-22.637299137999953],[-44.173860836999985,-22.70210796699997],[-44.25758099099994,-22.76695888499992],[-44.26760000599998,-22.829018784999953],[-44.381195878999975,-22.858351334],[-44.48437474999995,-22.84635699399994],[-44.555174010000016,-22.888050342999975],[-44.74350208199997,-22.947003652],[-44.791898181999926,-22.981875897999927],[-44.824416157,-23.162687259999934],[-44.88932055099994,-23.22659492],[-44.78742138499997,-23.29910688499993],[-44.73575535199991,-23.365637163],[-44.639451701,-23.33110587699997],[-44.59086898499997,-23.362232949999985],[-44.527194374,-23.272754486999915],[-44.58735453399997,-23.23218129699992],[-44.694845772999976,-23.232637194999896],[-44.68450437,-23.07167732299998],[-44.578205129999944,-23.054162402999943],[-44.43955277099995,-23.002792330999945],[-44.423001164999945,-22.95063097099993],[-44.320657332999964,-22.93603870499995],[-44.30323154999993,-23.002415332999924],[-44.20137814500002,-23.03831269899993],[-44.113345686999956,-23.02320343199998],[-44.07427169899993,-22.952049184999943],[-43.87094103599997,-22.90532392699994],[-43.745253065,-22.946500504999946],[-43.54893181099994,-23.060707564999973],[-43.419801890999935,-23.01764458599994],[-43.302847837999906,-23.01633792999992],[-43.15020581799997,-22.950701065999958],[-43.27354177300002,-22.810152167999984],[-43.257879351999954,-22.75641365299995],[-43.0809479609999,-22.679710281999963],[-43.02940225500002,-22.747618228999986],[-43.13421830100001,-22.88129779099993],[-43.110429696000026,-22.953649567999932],[-42.921108040999925,-22.97491948299998],[-42.578771529999955,-22.932789584999966],[-42.32605049599993,-22.936797860999967],[-42.07391170999994,-22.955523521],[-41.92242774399998,-22.771215221999928],[-41.98759803199998,-22.711152812999966],[-41.99969443399995,-22.63255669799996],[-41.932735055999984,-22.537515423999963],[-41.7734981479999,-22.36405351],[-41.68296012199992,-22.296113749999922],[-41.518775551,-22.224437496999947],[-41.26455649599993,-22.153707288],[-41.16741523,-22.115829250999983],[-41.00403174699993,-22.021093151999924],[-40.975188822,-21.941034099999932],[-41.03992039599992,-21.62083004899996],[-41.07264670699992,-21.525609751999983],[-40.961425390999935,-21.36051919199998],[-40.96203215099995,-21.26544029599998],[-40.916779677999955,-21.175547936999948],[-40.85842351899995,-21.127630170999954],[-40.80487675999997,-21.00459805],[-40.79499047399999,-20.925195692999985],[-40.73953901599997,-20.845565923999985],[-40.58285032199997,-20.80085381299993],[-40.464134308,-20.623753606999937],[-40.43084538399999,-20.637216831999936],[-40.36006388099997,-20.516830961],[-40.30236005699994,-20.371229903999986],[-40.1985406759999,-20.216072888999967],[-40.15944373599993,-20.020666467999924],[-40.058311585999924,-19.839662924],[-39.96807371899999,-19.725844404999968],[-39.810802381,-19.64961285799994],[-39.730463221000015,-19.468370996000015],[-39.68905729399996,-19.304929623999953],[-39.74279411599994,-18.936083529999923],[-39.746007821999925,-18.696259730999962],[-39.728222386999974,-18.518274011999978],[-39.63541740999991,-18.232301118999903],[-39.49769121499999,-18.00647869899997],[-39.407100519,-17.922262354999905],[-39.279524823999985,-17.872715873999976],[-39.25308410399994,-17.820403919999936],[-39.138043703999976,-17.6932884889999],[-39.18429858499996,-17.614592237999958],[-39.19243654099997,-17.440828093999947],[-39.217629654,-17.33462205699997],[-39.21206189,-17.16126084],[-39.18201600399993,-17.11235530099998],[-39.14185416499995,-16.86872028199998],[-39.13970526699996,-16.753428089999964],[-39.10383847699991,-16.69809441099993],[-39.06211533299999,-16.435783023999893],[-39.006060750999985,-16.332755250999984],[-39.01106381399996,-16.24578577599994],[-38.94810669399995,-16.155666524999965],[-38.95204948999994,-16.09695268999994],[-38.85283929399998,-15.849354111],[-38.93485546199999,-15.665390301999924],[-38.951676628,-15.469114447999974],[-38.990751641999935,-15.288160685],[-38.99759045299992,-14.986716321999936],[-39.02423059499995,-14.805007885999952],[-39.06218714399998,-14.746953112000014],[-39.06162642499994,-14.62498538099993],[-39.00131745100001,-14.345939916999981],[-38.990680376999904,-14.208417558999962],[-38.95456833999999,-14.076946766999985],[-38.92878591699997,-13.906834149999945],[-39.00033676399996,-13.775714225999955],[-38.98176466399993,-13.705254791999941],[-38.901387676999924,-13.60175156199995],[-38.932943556999895,-13.54596745899995],[-38.8923542859999,-13.460608897999968],[-38.94624036999998,-13.398923296999907],[-38.96471666099998,-13.294884033999974],[-38.92918643899998,-13.218358031],[-38.76227688599993,-13.11893430499996],[-38.643338710999956,-13.01531312199998],[-38.468747039999954,-13.014881674999987],[-38.35353771299996,-12.957058847999967],[-38.243694004,-12.852476757999973],[-38.001464042999906,-12.578011154999977],[-37.97301261699994,-12.521079405999966],[-37.769353530999986,-12.238366511999974],[-37.61010408899993,-11.955666267999963],[-37.52470612699998,-11.7662419779999],[-37.40632842799993,-11.536589824],[-37.312217897999936,-11.422991140999947],[-37.25530926999998,-11.282484532999923],[-37.16610915099993,-11.18249836799988],[-37.035830484,-10.960212303999981],[-36.86750496399995,-10.758052227999979],[-36.78442589699992,-10.688229441999972],[-36.61270091699997,-10.588404721999964],[-36.38771116299992,-10.498630691999953],[-36.29402529299998,-10.352781466999925],[-36.276098793,-10.28027650199995],[-36.026847383999986,-10.045564067999955],[-35.937930243,-9.902433881999926],[-35.81372607299997,-9.730833902000011],[-35.70834451099991,-9.665080730999929],[-35.650797115999936,-9.56854149599998],[-35.5014365399999,-9.422663423999964],[-35.45973085699991,-9.344075436999919],[-35.35411293399992,-9.255211802999916],[-35.29482196199993,-9.171333219999909],[-35.21671858599992,-9.008213369999982],[-35.1520192199999,-8.915696097999923],[-35.535177908999955,-8.819454778999933],[-35.632127759999946,-8.881278329999951],[-35.74839899199997,-8.917151743999927],[-35.825748200999925,-8.870343746999918],[-35.911417498999946,-8.86128908099991],[-36.128249,-8.957717180999989],[-36.127278573,-9.033669513999918],[-36.19850573199994,-9.046676743999935],[-36.26471955899994,-9.165862559999969],[-36.36570395699998,-9.22262731999993],[-36.43182995199991,-9.212130488999968],[-36.57183956399994,-9.292582841999906],[-36.606553083999955,-9.340716084999965],[-36.76177253599999,-9.271456992999969],[-36.913692246999936,-9.296055646999921],[-36.95546464699994,-9.381251129],[-37.003364640999976,-9.352613538],[-37.090672548999954,-9.246362098],[-37.15986390399994,-9.238248608999964],[-37.247081593,-9.179018423999938],[-37.35863908399992,-9.053889107999922],[-37.49875699299993,-8.969272874999987],[-37.65777777799998,-8.992666667],[-37.75536188999997,-8.84636368499999],[-37.825640161,-8.888567338999973],[-37.85309327199997,-9.000139771999969],[-37.99365838899995,-9.155333098999971],[-38.09228733099996,-9.172724977999955],[-38.15737778999992,-9.262619211999965],[-38.23759004599997,-9.329794523999944],[-38.31865874899993,-9.141001717999906],[-38.289675765999945,-9.036334421999968],[-38.32354002499995,-8.990009184999934],[-38.40351580599998,-9.037233121999986],[-38.449099650999955,-9.02635884699988],[-38.51981109499995,-8.947582784],[-38.469797516,-8.864239752999978],[-38.57042863099995,-8.830369085999976],[-38.635376998999966,-8.98672925099989],[-38.68923262399992,-8.94739558599996],[-38.70654349799995,-8.862260616999915],[-38.79698945699996,-8.79346442199994],[-38.95193320899992,-8.804668246999956],[-39.03354835199996,-8.736313340999988],[-39.20078102799992,-8.71098763],[-39.245492562999935,-8.684105867999978],[-39.28642128999994,-8.563759797999957],[-39.416040799999955,-8.542127927999985],[-39.59522629299991,-8.651205884],[-39.68883592199994,-8.660850399999962],[-39.673300375999894,-8.784903966999966],[-39.892957721999984,-8.828793991999948],[-39.874428620999964,-8.936738523999974],[-39.968091037,-9.053197058999949],[-40.06556305499995,-9.06306519299994],[-40.129894919999934,-9.11030460599994],[-40.23898352799994,-9.05436534799998],[-40.273192198999936,-9.08242157999993],[-40.30953537099997,-9.27550666499993],[-40.35639711299998,-9.376994262999947],[-40.41814529099998,-9.352053270999914],[-40.467755118,-9.420568129999971],[-40.62316567199994,-9.482897442999914],[-40.74983543599996,-9.443847168999984],[-40.74647893799998,-9.371052247],[-40.68723398099998,-9.278333138999937],[-40.669873158999984,-9.186132510999965],[-40.709889301999986,-9.140880973999952],[-40.82100804100001,-9.079891425999929],[-40.85101160099997,-8.954244312999968],[-40.92133780299997,-8.8354305689999],[-41.03623450399995,-8.785875894999915],[-41.10335109099996,-8.780442951999898],[-41.131324976999935,-8.704252868999927],[-41.225265706,-8.704669785999961],[-41.16673938099994,-8.580682250999914],[-40.97854500999995,-8.398650711999931],[-40.92685114999998,-8.44634441799995],[-40.872523037999926,-8.357410126999962],[-40.78050655899991,-8.302837182999987],[-40.78112664699997,-8.252590439999938],[-40.71106109799995,-8.225061465999914],[-40.632840367,-8.13930128299992],[-40.54422205699996,-7.964597073999933],[-40.55486007199997,-7.818430509999938],[-40.67356947599993,-7.761671945999957],[-40.62183032299995,-7.658323847999924],[-40.71529397799997,-7.487954017999918],[-40.70120142699995,-7.456356332999956],[-40.54846371299991,-7.392691466],[-40.511631334999905,-7.299430611999966],[-40.48973931,-7.118690142999959],[-40.42771767100001,-7.033881107999971],[-40.432166581999965,-6.812977596999886],[-40.476926287999966,-6.7328316749999],[-40.60220707,-6.716011771],[-40.71018275999993,-6.67612954799997],[-40.722002576999934,-6.617682813999934],[-40.78766837999998,-6.523780277999919],[-40.80515470199996,-6.393131590999928],[-40.78656215399993,-6.305364692],[-40.85222415899993,-6.224220460999916],[-40.845947278,-6.138364351999975],[-40.90394741199994,-6.020876970999964],[-40.873591271999935,-5.973053628999963],[-40.90564554099993,-5.849276610999929],[-40.90325396099993,-5.632552380999961],[-40.93238226199995,-5.548896957999943],[-40.943803417999916,-5.423586335999936],[-40.91171306799996,-5.266653468999976],[-40.92898770899993,-5.171671562],[-41.08192174899995,-5.087632798999984],[-41.12433247199993,-5.006084336999947],[-41.24957382699998,-4.869690196999926],[-41.181134412999945,-4.67319285399995],[-41.229330701999984,-4.620094987999984],[-41.158020247999985,-4.378679437999949],[-41.11912406600002,-4.306525743999906],[-41.14211316099993,-4.125648525999956],[-41.11316689399997,-4.049789875999963],[-41.249239967999976,-3.989869696999953],[-41.220239522999975,-3.941505519999971],[-41.2879359199999,-3.822487019999926],[-41.255432220999936,-3.70326016099996],[-41.34174775599996,-3.680772601999891],[-41.32404927600001,-3.385924076999963],[-41.375424569999915,-3.399070435999946],[-41.412317736999974,-3.34069730199996],[-41.32248513,-3.179792786999919],[-41.255765734,-3.087583798999965],[-41.25795293999996,-3.002774483999957],[-41.340349561,-2.927439201999924],[-41.47836130400002,-2.896020037999989],[-41.61253788399996,-2.896496769999906],[-41.77121083500001,-2.779648299],[-41.8072475019999,-2.730040288999952],[-41.910277920999945,-2.718943810999939],[-42.04296240199998,-2.729584243999966],[-42.071260001,-2.687043231999958],[-42.25504007699989,-2.675810873999978],[-42.26355578799998,-2.757903819999946],[-42.364784351999965,-2.715445723999963],[-42.562675645,-2.678419985999945],[-42.69643319899991,-2.573755481999967],[-42.82871578399991,-2.543357216999951],[-42.965328819,-2.474669327999962],[-43.237413116999974,-2.358689583999904],[-43.405420533,-2.335500313999944],[-43.483324227999915,-2.385338736999962],[-43.456617512999976,-2.482622896999906],[-43.55808848399995,-2.479887391999966],[-43.624254384999986,-2.510489014999933],[-43.76009399199995,-2.465873208999945],[-43.686224152999934,-2.397309760999953],[-43.64459941299998,-2.401268144],[-43.62721047399997,-2.251233663999891],[-43.72035889799994,-2.291390078999953],[-43.726800321,-2.386468365999988],[-43.85015019599995,-2.510036980999928],[-43.93121952599996,-2.561622268999969],[-44.077571174,-2.742621221999961],[-44.256660504999985,-2.77834354999996],[-44.25136297399998,-2.732112438999899],[-44.13802114599996,-2.681825699999912],[-44.08053256699997,-2.563581218999964],[-44.02392162699994,-2.511968795999984],[-44.031771361,-2.406280088],[-44.09460291699993,-2.406604514999927],[-44.17666203499994,-2.459186928999962],[-44.30456901699992,-2.487506015],[-44.377739941999934,-2.565760437999884],[-44.354251442,-2.602627475],[-44.41044798599993,-2.811412163999947],[-44.424817548999954,-2.943933926999925],[-44.49611750699997,-3.026581452999949],[-44.57387049799994,-3.044391396999977],[-44.66251057800001,-3.012940532],[-44.677205957,-2.912241764999962],[-44.649782947999945,-2.811905315999979],[-44.53702373399999,-2.544728711999916],[-44.48749440799997,-2.51701278699997],[-44.387976322000014,-2.408886809999942],[-44.35790504699996,-2.336858048999929],[-44.39832881599994,-2.215032332999961],[-44.46205566699996,-2.145624444],[-44.63412365499996,-2.228541186999919],[-44.58861144499996,-2.136844577],[-44.49795367900002,-2.049344753999947],[-44.48208324099998,-1.988316841999946],[-44.512705369999956,-1.889080222999922],[-44.61677680899989,-1.758909431999953],[-44.752359533999915,-1.789139545999916],[-44.738501085999985,-1.650661033999917],[-44.63633149999994,-1.616559400999989],[-44.70511103199996,-1.553800960999979],[-44.75820527399998,-1.592084637999989],[-44.903308425,-1.606299083999971],[-44.916104098999924,-1.546846611999939],[-44.843487984,-1.47846107],[-44.884769587999976,-1.419367199999982],[-44.989956047999975,-1.512607886999945],[-45.10319298999993,-1.473129226999923],[-45.19802367499992,-1.488425009999936],[-45.26820333399996,-1.598592442999944],[-45.34346912599993,-1.586794076999936],[-45.29906052999994,-1.432782582999934],[-45.37170380099999,-1.397113469999987],[-45.4887991959999,-1.469384576999971],[-45.47592140399993,-1.324838209999918],[-45.587360344999986,-1.270025115999971],[-45.689899302999955,-1.273601417999934],[-45.73613807999994,-1.207175379999953],[-45.74242866099995,-1.140604551999985],[-45.86407470699997,-1.211843817999956],[-45.894856657999945,-1.112637063999919],[-45.946521791999935,-1.195588226999931],[-45.97632320199995,-1.066504252999906],[-46.06340914299995,-1.10618872],[-46.21544544499995,-1.026318214999975],[-46.175744434,-0.942806930999978],[-46.20072300099995,-0.886860012999918],[-46.32396790300001,-1.02515697],[-46.42837650899995,-1.024125535999914],[-46.464831448,-0.99805312499997],[-46.49584713699994,-0.87219597199995],[-46.55680034499998,-0.918634839999882],[-46.59612619499997,-0.84194233399991],[-46.6652931909999,-0.791213813999967],[-46.71596016999999,-0.843842700999936],[-46.809443305999935,-0.860981345999932],[-46.83602071300001,-0.746712526999943],[-46.942247187,-0.807470853999931],[-46.97029140699993,-0.767479489999943],[-47.06337802799993,-0.792287366999972],[-47.2047653299999,-0.649972684],[-47.31637774099992,-0.592182532999935],[-47.40335684999996,-0.655292112999959],[-47.42131559199995,-0.584760518999921],[-47.586579414,-0.638250782999933],[-47.70387838599996,-0.534575982999961],[-47.75425445599996,-0.543170029999956],[-47.83057987199994,-0.609563583999915],[-47.86994319300001,-0.561225574999966],[-47.98334693299992,-0.692604004999936],[-48.05138842699998,-0.659469944999955],[-48.22949170000001,-0.827816064999936],[-48.268463390999926,-0.902927530999925],[-48.36580127599996,-0.918925488999953],[-48.47471612899998,-0.873902095999895],[-48.506061894999974,-0.810437957999937],[-48.470594454,-0.614052335999965],[-48.473725543999905,-0.526713985999955],[-48.441105869999944,-0.412209474999919],[-48.3746329319999,-0.303069959999966],[-48.428806725999976,-0.227166937999939],[-48.503671020999946,-0.242507272999909],[-48.63845825699997,-0.232276582999944],[-48.743727378999964,-0.249922361999971],[-48.810078419999954,-0.214765693999972],[-48.939565375000015,-0.225761857999949],[-49.01688844999994,-0.160232962999949],[-49.13673838799994,-0.168240781999934],[-49.196167599,-0.131353089999969],[-49.25594635499994,-0.159823897999942],[-49.422189244999984,-0.168446939999939],[-49.43165642099993,-0.088199850999935],[-49.35893682799996,-0.025911793999938],[-49.39700901999997,0.062159081000104],[-49.58258282400003,0.089664762000069],[-49.63222757399991,0.074893383000102],[-49.69957838499994,0.1505051],[-49.63328995399998,0.241352277999987],[-49.533978526999896,0.289204672000082],[-49.50317513600002,0.371678658000043],[-49.58192337,0.418674009000014],[-49.724753709,0.377647306000064],[-49.80778668199994,0.332050425999988],[-49.889214800999966,0.322500864000069],[-49.921892663999955,0.357559093],[-49.99290893399994,0.338415402000031],[-50.16781888499999,0.340290841000041],[-50.17273763299991,0.397642979000103],[-50.077434392,0.463443329],[-50.036412975999966,0.534178401],[-50.072639937999966,0.635791997000048],[-50.133489809999986,0.619619570000069],[-50.22608573899998,0.696237153000062],[-50.328587699999986,0.674348542000075],[-50.436546896999985,0.600107025000035],[-50.55295259499994,0.312495482],[-50.66819749599995,0.185034472000062],[-50.78479694299995,0.112112046000092],[-50.92109325099996,0.076133569000042],[-50.97483257399997,0.041793231000078],[-51.06892589599995,-0.079125743],[-51.216362859,-0.118612786000014],[-51.34778282599994,-0.299613339999958],[-51.36250528899994,-0.368107913999935],[-51.45778850199997,-0.513234042],[-51.59553615799999,-0.650437826999948],[-51.68344859699998,-0.794029418999962],[-51.700426963999945,-1.063210867999906],[-51.778399377999946,-1.140412274999974],[-51.88201264599998,-1.166347013999896],[-52.055064267999924,-1.176949976999936],[-52.120262265,-1.146197957999959],[-52.33298792299996,-1.115891486999985],[-52.416791242999956,-1.025611804999969],[-52.43867906499997,-0.943611565999944],[-52.401206351,-0.881911644999938],[-52.44432213199996,-0.834168954999953],[-52.511074623999946,-0.856659085999972],[-52.49740759099996,-0.711283057999928],[-52.53517981299993,-0.574087620999961],[-52.64000900999994,-0.584906082999979],[-52.69543632999991,-0.496401734999949],[-52.68417162,-0.314313678],[-52.85154313299991,-0.150160790999948],[-52.932743659000025,-0.142307300999938],[-52.98338313899997,0.033381189000039],[-53.09412684899996,0.258957700000053],[-53.17531054200002,0.381717180000102],[-53.147322053999986,0.60033457200003],[-53.10574358899995,0.679461516000082],[-53.190272645999954,0.768383531000033],[-53.411494202999975,0.929344151000095],[-53.42232938699995,1.03373743600001],[-53.45915764299997,1.133680416000033],[-53.402072182999945,1.153977414000046],[-53.426073298999924,1.225909517000048],[-53.52332751399997,1.261338928000058],[-53.59521809999991,1.358154077],[-53.78372215199995,1.402853872000023],[-53.88775118800002,1.40778730000001],[-53.89599808899989,1.455125780000039],[-54.02027406099991,1.515763146000054],[-54.069159992999985,1.500969424000104],[-54.14366370299996,1.640612046000051],[-54.200883417999904,1.645579256000076],[-54.351691834999926,1.754072683000047],[-54.495944360999914,1.746942630000028],[-54.60191710299995,1.78457343300002],[-54.744779071999986,1.775800778000075],[-54.77019830899998,1.925695657000084],[-54.755999689999975,1.974206881000065],[-54.803804886999984,2.025822781000066],[-54.80625429199996,2.13892772300003],[-54.76311087599994,2.202319066],[-54.811420255,2.266377951000059],[-54.79616637399991,2.31796514100008],[-54.87469640399995,2.415325410000015],[-54.95430669599994,2.583692423000045],[-55.00380588899995,2.591027046000022],[-55.103086404999964,2.525735947000065],[-55.17286581699993,2.559438748000034],[-55.23480613999993,2.503475258000023],[-55.320255599999975,2.515463302000093],[-55.38539872699994,2.418454303],[-55.499784518999924,2.443330757000112],[-55.570675222,2.423609593000045],[-55.74703661099997,2.410537626000092],[-55.76670449599989,2.455329631],[-55.83889506699997,2.462268569000017],[-55.934678164999966,2.533540095000077],[-55.978313874999955,2.527421939000035],[-55.98992197999994,2.417345502],[-56.13253912999998,2.263749738000023],[-56.04295807799994,2.227871797000027],[-55.90212193199992,2.029403770000066],[-55.93520599499995,1.996590044000115],[-55.90392998599995,1.888112847000073],[-55.99903856799992,1.831363713999984],[-56.09873138999994,1.846612046000068],[-56.152701361999945,1.890786157000015],[-56.43709692599998,1.951786728000066],[-56.57984313599995,1.90596065900003],[-56.62153642899998,1.945958301000097],[-56.716428794,1.926072101000059],[-56.80151756999996,1.87415509],[-56.919795062999974,1.930438006999985],[-57.00079115899996,1.907369782],[-57.064019234999925,1.95604233600001],[-57.08676531499998,2.026519274000051],[-57.25295792399996,1.948516133000084],[-57.34570927399993,1.980344837000061],[-57.36498866099994,1.926147687],[-57.433520764,1.90604825],[-57.45098813000002,1.806435274],[-57.53427051599991,1.708255218000012],[-57.65051503599993,1.68243600200006],[-57.71973910099996,1.722938567000071],[-57.792353517999935,1.726710251000036],[-57.81959831899998,1.683909392000018],[-57.98112795399996,1.65941024900004],[-58.00560026799994,1.516835488000048],[-58.12952470399992,1.498953837000045],[-58.16074335599996,1.560173809000034],[-58.23327324699996,1.547470669000042],[-58.33247670399999,1.590733379],[-58.38963973999995,1.535434098000046],[-58.38568980399998,1.470043879000066],[-58.50522200099989,1.464901510000018],[-58.47163611299992,1.374209752000105],[-58.49632722599998,1.268015326000111],[-58.710496902999964,1.289948661000068],[-58.71632971599993,1.241020834999986],[-58.82133228099999,1.171048779000067],[-58.89882922299991,1.227967051000029],[-58.91854937199998,1.316578461000034],[-59.04855476699994,1.322686028],[-59.253279998,1.388247822000061],[-59.33966768799996,1.518248711000098],[-59.37300356899995,1.506296172000035],[-59.483004771999965,1.626577625000039],[-59.533554109,1.716296464000017],[-59.69022250299993,1.75629858300001],[-59.691891968999954,1.853525195999985],[-59.746056598999985,1.851855499000038],[-59.74032505999995,2.180028612000079],[-59.72075417999997,2.236553330000071],[-59.89890416299996,2.362882339000052],[-59.897612227999915,2.482251680000083],[-59.988375613999985,2.679823455000054],[-59.98440123299994,2.928834412000064],[-59.94689745799999,3.001738090000075],[-59.956058197999894,3.081062279000015],[-59.907898456999945,3.113274954000062],[-59.91227293699996,3.195519859000079],[-59.806428546999975,3.353944894000044],[-59.841364383,3.425226690000066],[-59.805160991,3.50980284900006],[-59.86887866699996,3.558992054],[-59.668307076999945,3.70361204400011],[-59.664584191999936,3.782284108000091],[-59.595646681,3.795503190000055],[-59.56544766699993,3.916313089],[-59.51615887400001,3.946170905000059],[-59.65405059199995,4.069243693],[-59.623092798999906,4.129417195],[-59.73115278799998,4.181063328000029],[-59.73189602900001,4.286468797000026],[-59.676159864999896,4.346928120000051],[-59.73587526099992,4.423748827000068],[-59.975096115,4.488564007000079],[-60.16149611499994,4.517764007000075],[-60.12289611499996,4.604964007],[-60.025859752,4.705652471000072],[-60.017796114999925,4.83656400700005],[-59.971977738,5.074879048000049],[-60.09578260599994,5.140726822000055],[-60.132730069999965,5.224893784000031],[-60.212453524,5.271841077000019],[-60.32828613799996,5.20545399700007],[-60.449675508999974,5.200177465000024],[-60.69717718699998,5.228783738000104],[-60.642649309,5.117198312],[-60.64495963399993,5.058512740000012],[-60.58412419999996,4.955732021000117],[-60.72087944399993,4.777383889],[-60.89940416699992,4.718194167000028],[-60.947579,4.655541],[-60.933704,4.584959],[-60.997879721999944,4.515604722000027],[-61.12564055599991,4.505666944000048],[-61.26704204,4.537648757000085],[-61.278844897999925,4.477950401000044],[-61.35162296499993,4.418786706000013],[-61.44828950599994,4.439065902000067],[-61.521067497999944,4.38406749300006],[-61.51912764299993,4.300453057000055],[-61.56190137100001,4.251015007000042],[-61.75050987199999,4.255179362999989],[-61.81885057599993,4.167672820000092],[-61.92302114199998,4.155720464000048],[-61.99329432899995,4.174899417000105],[-62.14802148899993,4.079066973000103],[-62.35357519599997,4.165176467000045],[-62.43774064099991,4.182951960000061],[-62.542466683,4.109339416000104],[-62.53301784599998,4.047397558000071],[-62.736074256999984,4.039896672000012],[-62.786630762999906,3.929344587000067],[-62.753855763999965,3.849632322000076],[-62.73134946599994,3.709899807000063],[-62.81023829699991,3.732676090000048],[-62.986071951,3.609900091000057],[-63.07302308899995,3.685455863000037],[-63.06857181599998,3.75239452400006],[-63.123300161999936,3.8046204],[-63.20441491999997,3.811561087000065],[-63.233579095000024,3.881561515000023],[-63.20524784899996,3.948790240000072],[-63.33857438699992,3.956841394],[-63.39329716699994,3.980449490000062],[-63.450800548999915,3.858510829000075],[-63.51108074499996,3.847122149000043],[-63.68552272299992,4.009062848000013],[-63.700527616999935,3.944340563000054],[-63.85024750799994,3.949901168000061],[-63.92608041699994,3.9260097700001],[-63.96858367799993,3.878505126000093],[-64.03569645199998,3.93426118],[-64.10886425699991,4.085456561000051],[-64.17191393399995,4.128788995000079],[-64.27635602199999,4.143787489000012],[-64.43163723299998,4.134623827000041],[-64.56050439599991,4.10156680300004],[-64.62358436799997,4.134895417000045],[-64.68469858799992,4.239341280000048],[-64.78053028399995,4.28656454100004],[-64.82163809699995,4.258508710000037],[-64.81052731599989,4.174616635000064],[-64.732192202,4.120175665],[-64.67386670799995,4.004621635000078],[-64.58025139099989,3.928294858000072],[-64.56836145399996,3.881755394000081],[-64.47858257299998,3.783229975000019],[-64.44386352099995,3.783784749000091],[-64.28914039899995,3.699621976000103],[-64.19625088899991,3.578896074000099],[-64.18440015000002,3.489314514000021],[-64.14860179099995,3.439913292000035],[-64.12171692600002,3.278652452000088],[-64.21387659199998,3.090481691],[-64.14457777799997,3.025730278000033],[-64.01469323999997,2.812169947000015],[-63.986153590999905,2.648668703000062],[-64.0425881689999,2.580113370000028],[-64.04770295499998,2.518392080000034],[-63.93437361099991,2.45726055600008],[-63.83424120599994,2.492280879],[-63.75044896699997,2.441799225000047],[-63.60358152399989,2.457165076],[-63.52002568199994,2.421866601000069],[-63.43582511999994,2.441938915000058],[-63.371911778999944,2.426379648],[-63.359791172,2.197101555000053],[-63.2763514279999,2.154389691000027],[-63.14633944199991,2.173258556000093],[-63.119832302999974,2.096452488000047],[-63.02377614999994,2.014679362999985],[-62.9484826629999,2.031041373000022],[-62.838571475999956,2.016386356000091],[-62.72958383499996,1.960549351000068],[-62.70417908499992,1.873946797],[-62.731073292,1.818232345000084],[-62.72860678899994,1.69999999900007],[-62.80528233300002,1.591345664000116],[-62.730800502,1.499632021000025],[-62.63996476799997,1.438238306000045],[-62.521087891999926,1.083815878000074],[-62.44273541599991,0.958533913000039],[-62.484685620999976,0.87602027300008],[-62.46302607899993,0.77686878300009],[-62.53829053099997,0.675195542000075],[-62.51884920899997,0.593771913000069],[-62.53300861699992,0.508808359000085],[-62.446371344999925,0.379113798000077],[-62.466889137999914,0.332967783000043],[-62.45274362599994,0.207414178],[-62.40926436399994,0.075072759000022],[-62.325902798999984,-0.002913771999907],[-62.31979482899989,-0.096341225999957],[-62.241563958,-0.170467334999955],[-62.253388986999894,-0.270002055999946],[-62.18862313399997,-0.322319165999971],[-62.232795967999905,-0.42449109399994],[-62.28041369699994,-0.450705732999928],[-62.31232172899992,-0.57593848499998],[-62.286717121999956,-0.632372981999971],[-62.37542926799995,-0.708326483999905],[-62.486627284999955,-0.681467307999966],[-62.501073155,-0.781466097],[-62.37606719099997,-0.836469324999953],[-62.31274227199998,-0.9303550079999],[-62.17190746299998,-1.005912381000016],[-62.099681538,-1.096743305999986],[-62.017460275,-1.141743980999941],[-61.8966239069999,-1.395355256999906],[-61.79800942799993,-1.380629962999933],[-61.604954677999956,-1.448131455999899],[-61.58217522499997,-1.353407253999933],[-61.62690314000001,-1.293970042999923],[-61.542864184999964,-1.062203851999897],[-61.58078245800002,-0.977976097999949],[-61.53563234899997,-0.754401249999908],[-61.45813443399996,-0.654726739999987],[-61.359527376999985,-0.596924368999971],[-61.23404525499991,-0.561939709999898],[-61.22309977399995,-0.499885408999972],[-61.079049426,-0.506139727999916],[-60.927669513999945,-0.605523915999889],[-60.806194219999924,-0.740085386999972],[-60.76090973499994,-0.863515336999981],[-60.663499839999986,-0.881201965999928],[-60.58800533899992,-0.843287985999957],[-60.53620975899997,-0.86947603299997],[-60.49782727999997,-0.780650945999959],[-60.346691686999975,-0.739609006],[-60.30535295099996,-0.666465475999942],[-60.379821312999944,-0.588874495999967],[-60.40009977100002,-0.517487881999976],[-60.346496231999964,-0.437940460999947],[-60.30496204099995,-0.260324081999968],[-60.20421719399992,-0.02992015699995],[-60.14001022099997,0.027103842000059],[-60.13360906899996,0.103477835000056],[-60.05908292,0.162996894000095],[-60.037968645999946,0.263545517000047],[-59.43355367199993,0.263540311000057],[-58.89546481899998,0.263510276000062],[-58.895500267999985,0.000920342000072],[-58.86388394599999,-0.07802978499992],[-58.88103801399993,-0.196579359999888],[-58.86947930499994,-0.347483569999923],[-58.72528236499994,-0.438319143999927],[-58.70901073399992,-0.545864285999947],[-58.7363255729999,-0.619351567999935],[-58.706518682999956,-0.679645564999959],[-58.43418876199992,-0.892182778999967],[-58.42837397499993,-1.024609427999984],[-58.363727228,-1.071119941999896],[-58.316720295999964,-1.147675086999961],[-58.257595152999926,-1.130771569999972],[-58.16304378799997,-1.230139340999919],[-58.05867080799995,-1.106539767],[-57.968810362999896,-1.16257550299995],[-57.99871498100002,-1.331286457999923],[-57.95650891299992,-1.378304672999917],[-57.824723366999926,-1.437753903999948],[-57.79533181799998,-1.487236760999942],[-57.717687311999924,-1.503283038999967],[-57.68880883299998,-1.587005053999988],[-57.544074392,-1.611134347999915],[-57.4434639209999,-1.66461829699994],[-57.35338358899995,-1.736807107999958],[-57.29225503199997,-1.708283569999978],[-57.0792823579999,-1.802570767999931],[-57.02841518899994,-1.918023782999931],[-56.859044530999924,-2.015925977999942],[-56.74788357499995,-2.011502268999941],[-56.72138219799996,-2.059174440999954],[-56.76095896699992,-2.174058191000015],[-56.67907275899992,-2.212564246999946],[-56.612913187999965,-2.210171271000014],[-56.527065318,-2.139195178999969],[-56.41388279499992,-2.175949603999925],[-56.36778501199997,-2.137076696999927],[-56.18670342199998,-2.042821329999938],[-56.09755803799993,-2.03713324499995],[-56.20376967799993,-2.183080194999981],[-56.38431574000002,-2.270475354999988],[-56.46448629,-2.431594809999957],[-56.40210718599994,-2.456516762999925],[-56.60976442099994,-2.896340701999961],[-56.88723901199994,-3.499046654999965],[-57.000489119999926,-3.759129586],[-57.35020081499995,-4.501781466999915],[-57.585573257999926,-5.000743090999968],[-57.77181454899997,-5.407094069999957],[-58.033639006999955,-5.9781378019999],[-58.26672285899994,-6.475560521999988],[-58.32705618299993,-6.500374037999954],[-58.34988662099995,-6.562401062999932],[-58.42730575499992,-6.616167480999962],[-58.478471186999954,-6.6996136409999],[-58.48175560999992,-6.781421650999917],[-58.434555931999924,-6.908806512999952],[-58.33542211699998,-6.986372607999911],[-58.18099582400002,-7.181736708999917],[-58.170009915,-7.313223229999952],[-58.06136156699992,-7.395191152999967],[-57.896749021999945,-7.677884549999945],[-57.87964228999993,-7.781907446999945],[-57.83502345699995,-7.881408336999893],[-57.83186459899998,-7.961515910999903],[-57.73252898499994,-8.0891632949999],[-57.71874956199998,-8.15122530599993],[-57.64166889599995,-8.21988153299996],[-57.68655768999997,-8.407007846999957],[-57.63342204099999,-8.526810894999901],[-57.592938920999984,-8.75647697199998],[-57.523002482,-8.749733697999904],[-57.417504258999955,-8.792608507],[-57.416215742999924,-8.858995121],[-57.289478916999954,-8.915827554999964],[-57.20377417500002,-8.920819818999934],[-57.09460518599993,-9.017111416],[-57.039241594,-9.098290013999897],[-57.06013231099993,-9.181967294999946],[-56.995549344999944,-9.233842562999914],[-56.820108799999964,-9.246340380999971],[-56.77232361899993,-9.390959299999988],[-56.67188268199992,-9.367396943999982],[-55.89221360799998,-9.432214658999936],[-55.37789562999997,-9.474291551],[-54.613454077,-9.53582622599992],[-54.10661549299995,-9.57192072199998],[-53.58844280299994,-9.6110503049999],[-52.92128604199996,-9.660874159999953],[-52.35955310199991,-9.700387593999924],[-51.72426733199995,-9.744563376999924],[-50.84598729499998,-9.800636807999972],[-50.224806381999905,-9.841153477],[-50.3026455039999,-10.035411317999952],[-50.39825808599991,-10.155469745999977],[-50.38195272199994,-10.212114993999908],[-50.423066561,-10.327441657999934],[-50.47372544499994,-10.404905493999959],[-50.482620474999976,-10.490038607999939],[-50.60289775,-10.658233979999974],[-50.57058773299998,-10.752504128999938],[-50.61219838499993,-10.810321464999948],[-50.60078912299996,-10.900683776999962],[-50.63261929199997,-10.931861499],[-50.60945742599998,-11.067445653999961],[-50.664481443999975,-11.151598890999956],[-50.67132656299995,-11.286741354999972],[-50.728511103999914,-11.382565940999942],[-50.738935239999904,-11.544511594999971],[-50.65692589400001,-11.600858319999894],[-50.66370211999997,-11.677527273999964],[-50.721591475,-11.731712636999934],[-50.686304518999954,-11.85899541799996],[-50.63928820799994,-11.884566500999902],[-50.68223801600002,-11.990887565999984],[-50.667622741999914,-12.06456020999994],[-50.681377293999944,-12.216949710999945],[-50.648915456999895,-12.29908963499998],[-50.623573665,-12.455283798000014],[-50.70648878499996,-12.609701005000016],[-50.622961849,-12.734638545999886],[-50.625359464999974,-12.8000194859999],[-50.499574287999955,-12.87950994399992],[-50.523727790999935,-12.971183151999952],[-50.57084893599992,-13.03420158399998],[-50.60469998499998,-13.191486928999971],[-50.60927995099995,-13.318780879999945],[-50.66394564699996,-13.43495651699996],[-50.758999752999955,-13.520315307999962],[-50.80877453099994,-13.697351153999957],[-50.855269196999956,-13.757350512999942],[-50.84023360499998,-13.923681881999936],[-50.86578530099992,-13.959844535999952],[-50.831266216,-14.082830547999912],[-50.89873133899998,-14.114935503000012],[-50.97695321799993,-14.293537026999967],[-50.997867071,-14.41381035099992],[-50.964229223999986,-14.528297723999959],[-51.089637502999906,-14.840180531999945],[-51.08710983500002,-14.921348693999956],[-51.15704998799997,-14.985611018999965],[-51.27591131899989,-15.043755055],[-51.30705065899994,-14.980970683999981],[-51.430481168,-15.009834677999976],[-51.534108063,-15.065202161999967],[-51.606134474,-15.162296974999965],[-51.647427087,-15.173462062999974],[-51.65069931699995,-15.273093512999978],[-51.69146770099992,-15.324914946000021],[-51.696001833999915,-15.405949139999962],[-51.75561339999996,-15.557415435999964],[-51.767858906999926,-15.653591377999962],[-51.882670109999935,-15.828485287999925],[-51.94845492199997,-15.81009842099995],[-52.009533213999966,-15.88581152499998],[-52.19486847499992,-15.880935506999947],[-52.254139708999965,-15.893266615999977],[-52.32849834899993,-16.070403395999975],[-52.54916590899994,-16.16499546899993],[-52.54595398,-16.259667239999906],[-52.65923885499994,-16.280652045999986],[-52.692723488999974,-16.366421352999936],[-52.606078286999946,-16.486024152],[-52.625726190999984,-16.53220907299989],[-52.72602161599995,-16.614496631999973],[-52.837244176999945,-16.77189689299997],[-52.88506480999999,-16.777026377999924],[-52.95602055399995,-16.861503249999963],[-53.014627035999965,-16.862248131999955],[-53.054516867,-16.968441280999933],[-53.05496085399996,-17.06442086299994],[-53.11074498499997,-17.108140308000017],[-53.20915849499991,-17.316011992],[-53.197229143999905,-17.378302346999916],[-53.23139341899996,-17.440433035999945],[-53.24845381799996,-17.62729167299991],[-53.233789234999946,-17.71303738499995],[-53.15999249299993,-17.774894871999933],[-53.125050242,-17.917530118999956],[-53.07131502999997,-17.965913215999905],[-53.07571136199993,-18.050795389],[-53.14315259999997,-18.084077648999894],[-53.09965570899992,-18.313619138999968],[-53.071739586999925,-18.341542537999942],[-52.935230137999966,-18.296554322999956],[-52.814258969,-18.311297801999924],[-52.75887324900001,-18.36314039499994],[-52.798512562,-18.414861300999927],[-52.962351359999914,-18.540819703999976],[-52.91276745899991,-18.64197975799989],[-52.74810400199989,-18.692055733999933],[-52.588721485999926,-18.686835366],[-52.53154927099992,-18.657480693],[-52.44802564199997,-18.691966545999925],[-52.40754572699997,-18.757154477999958],[-52.30514071199998,-18.84043983399991],[-52.18735376899996,-18.845875431999968],[-52.07935886599994,-18.951088548999948],[-51.897086577999936,-18.99448504899995],[-51.815705294999965,-19.055094743999987],[-51.651604002999925,-19.135999142999935],[-51.592211967999916,-19.12678742699999],[-51.418069494999955,-19.172878767999944],[-51.08744001399998,-19.31243253899991],[-50.93499777799997,-19.467477484999982],[-50.96294621699997,-19.50057879599992],[-51.046081810999965,-19.73558291899998],[-50.99947130299995,-19.90637549999997],[-51.02091117699993,-19.959087422999975],[-50.96912936399997,-20.036445197999928],[-50.78360150399989,-19.93722948599995],[-50.658104733999934,-19.90714730099997],[-50.577948759,-19.816374352],[-50.46932357799997,-19.779888807],[-50.35275894099993,-19.864602431],[-50.09724333899996,-19.875478953999934],[-50.047239195,-19.91538963599991],[-49.888336930999984,-19.945304915999937],[-49.80759589999997,-19.93182810999997]]],[[[-44.872629290999924,-1.292817208000017],[-44.98656610499997,-1.266146483999947],[-45.028776040999944,-1.318026463999949],[-45.005335639999906,-1.400820382999918],[-44.90142766,-1.337174479999931],[-44.872629290999924,-1.292817208000017]]],[[[-44.47829580499995,-2.74481188099994],[-44.505957075,-2.728933449999943],[-44.586182809000015,-2.814651101999971],[-44.5803773009999,-2.855655088999903],[-44.63108765299994,-2.98794118999993],[-44.56091826699994,-3.022531249999943],[-44.479020433999956,-2.957860328999971],[-44.47829580499995,-2.74481188099994]]],[[[-44.23002172599998,-23.075788013999933],[-44.33947124500001,-23.190281162],[-44.246842856999905,-23.201086196999974],[-44.15913370199995,-23.171953573999957],[-44.23002172599998,-23.075788013999933]]]]},"properties":{"CD_MUN":"1400027","NM_MUN":"Amajari","SIGLA":"RR","AREA_KM2":28473.45,"auxiliary_":null,"auxiliar_1":null,"REGIAO_MAR":"RR","BASE_RC":null,"ALLCON_TOT":0}}
]}