{"type":"FeatureCollection", "features": [
{"type":"Feature","geometry":{"type":"MultiPolygon","coordinates":[[[[-44.522178208999925,-23.02728390499992],[-44.502514249999976,-23.027048919000016],[-44.48412971299992,-23.00852500999998],[-44.43955277099995,-23.002792330999945],[-44.434367055999964,-22.962973412999922],[-44.423001164999945,-22.95063097099993],[-44.38928014099998,-22.95159937799994],[-44.36640135099996,-22.960014523999973],[-44.33811797699995,-22.923318511999966],[-44.320657332999964,-22.93603870499995],[-44.31894427099998,-22.956469168999902],[-44.30156238499993,-22.95729437199997],[-44.31181752899997,-22.97892035999999],[-44.33299294999992,-22.995677992999987],[-44.34542263999994,-22.991492079999944],[-44.36301220899993,-23.015605174999955],[-44.34600109300001,-23.02684885299989],[-44.30323154999993,-23.002415332999924],[-44.289701614,-23.023704743999893],[-44.27287480799997,-23.003743778999976],[-44.25094734799996,-22.99775756199992],[-44.23054986999998,-23.01422249299995],[-44.24752705699994,-23.04850559399997],[-44.237644422,-23.056534559999932],[-44.20137814500002,-23.03831269899993],[-44.185785882,-23.049768185999895],[-44.17603704499992,-23.036378943999978],[-44.153648447999956,-23.037971360999933],[-44.113345686999956,-23.02320343199998],[-44.085205722999916,-22.99229954499996],[-44.07427169899993,-22.952049184999943],[-44.047314546999964,-22.94198231499994],[-44.03052447699995,-22.9642688609999],[-44.00585694399998,-22.94213602499996],[-43.9496328069999,-22.926886963],[-43.91048056899997,-22.931043091999967],[-43.88195942700001,-22.92090635599996],[-43.87094103599997,-22.90532392699994],[-43.845657087999896,-22.90170651699995],[-43.852037442999965,-22.924199096999907],[-43.83203527999992,-22.93119059299992],[-43.81022244699999,-22.917569003999958],[-43.745253065,-22.946500504999946],[-43.69104121299998,-22.989280210999894],[-43.67446822699998,-22.98029044000002],[-43.654227314999986,-23.00004139699997],[-43.627781786,-23.00659816299998],[-43.59956404599991,-23.022883565999983],[-43.59425733599995,-23.032394862999936],[-43.54893181099994,-23.060707564999973],[-43.532187117999946,-23.049706809999968],[-43.50797514399993,-23.04731525499998],[-43.492800936999934,-23.03531814599996],[-43.419801890999935,-23.01764458599994],[-43.387902066000024,-23.013112697999958],[-43.335942479,-23.011363031999963],[-43.302847837999906,-23.01633792999992],[-43.27472691299993,-23.002276971999933],[-43.24565063099996,-23.00104105],[-43.21761317899996,-22.987012084999904],[-43.18815768199997,-22.98578691799996],[-43.18529590299997,-22.97422487099997],[-43.15020581799997,-22.950701065999958],[-43.171269154999976,-22.932407589999983],[-43.16261080799998,-22.917248823999934],[-43.18112029899998,-22.89542562399994],[-43.21084373899994,-22.897606423999903],[-43.27354177300002,-22.810152167999984],[-43.27738084099996,-22.77998333599994],[-43.257879351999954,-22.75641365299995],[-43.225492785,-22.741168668999965],[-43.207658344,-22.727283827999898],[-43.16102655299991,-22.709866072],[-43.134725365999955,-22.714540402999948],[-43.11573959599998,-22.696376492999946],[-43.0809479609999,-22.679710281999963],[-43.05134964499999,-22.692736968],[-43.03584012799996,-22.69234955799991],[-43.02860946999997,-22.721289323999958],[-43.02940225500002,-22.747618228999986],[-43.06430020499993,-22.765138596999943],[-43.081400952999985,-22.789796193999976],[-43.06507927699991,-22.802931880999964],[-43.09692609899997,-22.827869626999906],[-43.10054975799994,-22.85114187099998],[-43.13421830100001,-22.88129779099993],[-43.115889905999985,-22.904791393000025],[-43.09479291599995,-22.92064225799996],[-43.11190722599997,-22.935342252999966],[-43.110429696000026,-22.953649567999932],[-43.07248531600003,-22.95682730799996],[-43.03976963499993,-22.974513083999923],[-43.01429524,-22.977156025999932],[-43.001507456999924,-22.96957371699998],[-42.921108040999925,-22.97491948299998],[-42.881222935999936,-22.967040062999956],[-42.72745387699992,-22.956181240999975],[-42.68387154299999,-22.959167119999933],[-42.68181576999998,-22.947158712999958],[-42.63581757099992,-22.936585270999963],[-42.578771529999955,-22.932789584999966],[-42.51853217499992,-22.933373304999947],[-42.47460559999993,-22.93781883399989],[-42.45576548799993,-22.934877118999943],[-42.32605049599993,-22.936797860999967],[-42.20039417199992,-22.943535787999956],[-42.07391170999994,-22.955523521],[-42.037884307999924,-22.967178205000017],[-42.02933516799991,-22.982765145999963],[-42.007143548999984,-22.962231683999924],[-42.026843706,-22.956326178999973],[-42.037611287999894,-22.92773761899994],[-42.028686205999946,-22.89842459999992],[-42.009748113999926,-22.88275578099995],[-41.98976096399997,-22.88273789599998],[-41.98183020799996,-22.866981288999945],[-41.98233756499993,-22.84098794199997],[-41.965835182,-22.820071956999985],[-41.933181373999965,-22.80983903099992],[-41.92182502199994,-22.78711678699997],[-41.907989111999925,-22.778245706999964],[-41.88368186299993,-22.781789562],[-41.866225806999964,-22.76188828699995],[-41.88589438599994,-22.754422925],[-41.905318824999966,-22.75699212099994],[-41.92242774399998,-22.771215221999928],[-41.945647804,-22.75428177999995],[-41.95940741600001,-22.73245408099994],[-41.976417152,-22.728067180999965],[-41.98759803199998,-22.711152812999966],[-41.99753913299997,-22.667798777999923],[-41.99969443399995,-22.63255669799996],[-41.97874793299993,-22.56139352099998],[-41.96608695199996,-22.539014599999927],[-41.94671210499995,-22.52838113099994],[-41.932735055999984,-22.537515423999963],[-41.889587011999936,-22.486116191999947],[-41.864356606999934,-22.476966640999905],[-41.854739754999954,-22.44984986599997],[-41.839133827999945,-22.432588360999937],[-41.77444037699997,-22.39106347499998],[-41.766452401999935,-22.378204126999943],[-41.7734981479999,-22.36405351],[-41.68296012199992,-22.296113749999922],[-41.60950431199996,-22.261792919999976],[-41.518775551,-22.224437496999947],[-41.45134314699989,-22.202380917999918],[-41.26455649599993,-22.153707288],[-41.21580466599994,-22.137429974999954],[-41.16741523,-22.115829250999983],[-41.13415870099992,-22.096715708999923],[-41.131099312999915,-22.08933808499994],[-41.076854316999984,-22.05781533399996],[-41.00403174699993,-22.021093151999924],[-40.98041495599995,-21.99059083299991],[-40.975188822,-21.941034099999932],[-41.018329230999946,-21.761365673999897],[-41.024764626999946,-21.718639156999906],[-41.02232703499997,-21.68279816899995],[-41.01309165399993,-21.623519680999923],[-41.03992039599992,-21.62083004899996],[-41.06531240299997,-21.55400655999996],[-41.07264670699992,-21.525609751999983],[-41.068889229999975,-21.49757935899995],[-41.05733069599992,-21.47889306499998],[-41.02063330799998,-21.44177033599993],[-41.000827401,-21.404094478999944],[-40.98262748099996,-21.39161088199991],[-40.961425390999935,-21.36051919199998],[-40.96310767499995,-21.327766202],[-40.95794091600002,-21.311386043999967],[-40.96203215099995,-21.26544029599998],[-40.94996552699996,-21.229611628999976],[-40.916779677999955,-21.175547936999948],[-40.876409891,-21.138939848999936],[-40.85842351899995,-21.127630170999954],[-40.83217097699993,-21.053537409999965],[-40.81252465299993,-21.031884687999955],[-40.80487675999997,-21.00459805],[-40.81106889999992,-20.986236210999962],[-40.808670151999955,-20.959251715999958],[-40.79499047399999,-20.925195692999985],[-40.75847246699997,-20.878465087999896],[-40.754653818999934,-20.858697910999933],[-40.73953901599997,-20.845565923999985],[-40.716157755999944,-20.84282629999997],[-40.67237745799998,-20.821299358999976],[-40.65331854899991,-20.805872743999974],[-40.62829231599993,-20.820308030999932],[-40.61027072299998,-20.808484498999977],[-40.58285032199997,-20.80085381299993],[-40.57375753,-20.769301164999963],[-40.54742149899992,-20.739579309999954],[-40.53316858299995,-20.7367941369999],[-40.51557349199994,-20.708080320999986],[-40.49532334099998,-20.66222806699992],[-40.48056121799989,-20.652362877],[-40.464134308,-20.623753606999937],[-40.43084538399999,-20.637216831999936],[-40.40457051099999,-20.59930434099991],[-40.391024567999985,-20.555664719999953],[-40.36006388099997,-20.516830961],[-40.34656003099998,-20.476280205],[-40.321923149999975,-20.427891245999916],[-40.319550997,-20.405703025],[-40.30236005699994,-20.371229903999986],[-40.28364365999996,-20.353639981999958],[-40.27139586099999,-20.32320536199995],[-40.28931567799995,-20.308568638999933],[-40.28912350999995,-20.283779883999973],[-40.25880089299997,-20.265789242],[-40.23439247899995,-20.276302379999986],[-40.1985406759999,-20.216072888999967],[-40.18382384399992,-20.167288160999917],[-40.18437376399994,-20.148526838999956],[-40.17199492199996,-20.108167422999976],[-40.173311396,-20.07713858399992],[-40.19123916699991,-20.054604896999937],[-40.183630880999935,-20.039707514999936],[-40.15891452299993,-20.03588224699998],[-40.15944373599993,-20.020666467999924],[-40.13260817,-19.966217280999974],[-40.14961948900002,-19.945959306],[-40.10199730499996,-19.921165110999937],[-40.08298377999992,-19.875964294999946],[-40.058311585999924,-19.839662924],[-40.054781732999984,-19.814831265999953],[-40.01532220499994,-19.768137197999955],[-39.96807371899999,-19.725844404999968],[-39.904331064,-19.682879059999934],[-39.84969638799997,-19.660167708999907],[-39.810802381,-19.64961285799994],[-39.80900392999997,-19.634159970999985],[-39.778482192999945,-19.5763782399999],[-39.730463221000015,-19.468370996000015],[-39.70608633499994,-19.40159892],[-39.69645552199996,-19.366904678999983],[-39.68905729399996,-19.304929623999953],[-39.69145328799996,-19.273226545999886],[-39.70394989399992,-19.20911725999993],[-39.735635072999926,-18.977590516],[-39.74279411599994,-18.936083529999923],[-39.749752377999954,-18.838072849],[-39.746007821999925,-18.696259730999962],[-39.74068037199993,-18.650479192999967],[-39.72838710199992,-18.61108424199994],[-39.73058060099996,-18.58689768199998],[-39.728222386999974,-18.518274011999978],[-39.71475281699998,-18.46194534399995],[-39.69093756099992,-18.395344608],[-39.666014639999965,-18.33321826599997],[-39.68894738300001,-18.320831529999957],[-39.91113754399997,-18.179440202999917],[-40.220381547999935,-17.981638011999976],[-40.25535480899995,-17.971799425999944],[-40.345521799999965,-17.923782027999966],[-40.3864516749999,-17.928438060999916],[-40.41741867899999,-17.92703427599994],[-40.44505467899999,-17.918825516999934],[-40.462737992000015,-17.928212363999894],[-40.4841294899999,-17.90864473499992],[-40.500596777999945,-17.911667059999967],[-40.51682186499993,-17.894423307999983],[-40.56793015499995,-17.916029285999944],[-40.58471193,-17.918166563999947],[-40.587161347999974,-17.939020840999973],[-40.60953292999995,-17.937658793999987],[-40.62188399899995,-17.960566040999968],[-40.62615190499994,-17.991053926999943],[-40.6460307629999,-17.993561218],[-40.659435694999964,-18.010929186999967],[-40.69052413599998,-18.01271268399992],[-40.70368342799996,-18.02372703299998],[-40.72576895199999,-18.00121722099993],[-40.75276978899993,-18.009623582999943],[-40.771768454999986,-18.003388074999958],[-40.77093056899994,-17.986422017999946],[-40.808161608999974,-17.95204716899997],[-40.830552881999985,-17.954180001999962],[-40.86278286699995,-17.988145145999965],[-40.87705268499999,-17.98228509899996],[-40.88698941999997,-18.00064101099995],[-40.77330334599997,-18.107562650999984],[-40.771496051,-18.155940009999902],[-40.794743904999926,-18.160049735999948],[-40.80521693799996,-18.152970290999946],[-40.84507582699992,-18.149813018000014],[-40.87849644899998,-18.11996978699991],[-40.90928330699992,-18.114830156],[-40.932209591999964,-18.136483473999885],[-40.951613756,-18.134092053999904],[-40.95453736399996,-18.15449439699993],[-40.97419259999999,-18.142105047999966],[-40.987034374,-18.146773957999915],[-40.99321693999995,-18.166234741000018],[-41.014589473999955,-18.157579416999923],[-41.051931168999914,-18.165112451999974],[-41.05645428599997,-18.17884076499997],[-41.092734478999944,-18.195401325],[-41.103864567999985,-18.212498222999915],[-41.09135100899996,-18.23025591299997],[-41.102744244999926,-18.236966132999974],[-41.09647353499996,-18.255577661999975],[-41.15892065399997,-18.30824345099998],[-41.14749781099995,-18.353381220999907],[-41.14810219199995,-18.379150740999926],[-41.15959887899995,-18.38145861600001],[-41.16044800899996,-18.402798292999965],[-41.18079806,-18.432682552],[-41.17308308299991,-18.442796894999933],[-41.023028707999934,-18.457260877999957],[-41.01634094799992,-18.46746074299995],[-41.020300665,-18.500965901],[-41.04198853699998,-18.60540308],[-41.039395754999944,-18.619923716999907],[-41.050892271999935,-18.634153994999956],[-41.00522688499996,-18.667277022999915],[-40.953834292999964,-18.681607605999915],[-40.94149757799991,-18.68929467499992],[-40.94000421899999,-18.77028615999997],[-40.916772629,-18.815543415999922],[-40.93666185300002,-18.83104825],[-40.963913459,-18.841170075999933],[-41.019130686,-18.837301985999897],[-41.08370744199991,-18.83658363699997],[-41.11050653899994,-18.83893736199994],[-41.133473688,-18.796808262999907],[-41.232544391999966,-18.797278794999936],[-41.24513717799997,-18.820541782999953],[-41.23782203499992,-18.834765040999955],[-41.24358240599994,-18.852749066999905],[-41.21478437999998,-18.877639800999955],[-41.20055413799994,-18.862733501000015],[-41.16636073299997,-18.858231667999945],[-41.15295833399994,-18.88660909],[-41.12684712599998,-18.894506468],[-41.10367392499993,-18.934060694999975],[-41.06465414099995,-18.945265371999973],[-41.06064514199998,-18.968284637999897],[-41.03222026199999,-18.99084744899998],[-41.06177010699998,-19.00631746199993],[-41.07157566699994,-19.025649332999937],[-41.06555655499992,-19.051332136999974],[-41.053852152999966,-19.068864254999927],[-41.012604387999936,-19.0758016579999],[-41.00705572299994,-19.10053436699993],[-40.989274924999926,-19.10206688899999],[-40.956115752,-19.129113047999944],[-40.94055673799996,-19.163304430999926],[-40.94108612699998,-19.180573773999985],[-40.927582123999976,-19.208875487999908],[-40.94155072699996,-19.230131118999925],[-40.92185419099998,-19.27189207099996],[-40.94449867599998,-19.27954647999993],[-40.924549780999904,-19.30245596699992],[-40.92274763999992,-19.322387099999947],[-40.93846789899997,-19.346065520999964],[-40.930448401,-19.384151604999964],[-40.950713073,-19.392999877999948],[-40.967920004999954,-19.43043727799992],[-40.944693410999925,-19.460960355999966],[-40.9711933959999,-19.494601861999925],[-40.988278196999964,-19.5079402609999],[-41.019073727,-19.504881512999948],[-41.046692703,-19.487399738999986],[-41.04090192699996,-19.515921423999902],[-41.04468615499998,-19.535524003999925],[-41.03686019999994,-19.570456971999892],[-41.071917737,-19.584408164999942],[-41.07519411699993,-19.598848899999908],[-41.09931020299992,-19.604205426],[-41.10860136599996,-19.639466760999955],[-41.129495164999966,-19.642740544999935],[-41.13731777299991,-19.65757331199992],[-41.15749889999993,-19.66108245600001],[-41.16847282399993,-19.672222653999913],[-41.176888257999984,-19.69869787199997],[-41.174305679,-19.715637146999896],[-41.19107158099997,-19.745867347999955],[-41.17464137399997,-19.767238454999934],[-41.17394342599995,-19.786051411999903],[-41.16410505199994,-19.806386814999897],[-41.18400423099999,-19.848824408999963],[-41.186127712,-19.891316106999977],[-41.205053027999945,-19.90310980199995],[-41.229613650999944,-19.907002793999915],[-41.24447019699994,-19.93734184999992],[-41.272660140999946,-19.94243859099992],[-41.300858113,-19.936525381999957],[-41.311799041999926,-19.972419490999958],[-41.309106679999914,-20.016370639999934],[-41.31852965499993,-20.041513185999946],[-41.33268777899996,-20.057663148999936],[-41.33819398699991,-20.088117572999984],[-41.35581302899995,-20.139098310999923],[-41.361891603999915,-20.142078058],[-41.38243531599991,-20.18907867999996],[-41.409091775999954,-20.19769944799995],[-41.411140353999905,-20.207369558999986],[-41.75675368599993,-20.206865962999885],[-41.767108650999965,-20.229258661999925],[-41.782140380999984,-20.29447584699998],[-41.80308644999997,-20.299204252999967],[-41.825093597,-20.312387539999985],[-41.853251412,-20.350582517999936],[-41.859511631999986,-20.372842558999924],[-41.845058063999936,-20.377363005999936],[-41.83269058799991,-20.41249393299994],[-41.803677138,-20.421980556999895],[-41.801750968999954,-20.476565642999986],[-41.825422756999956,-20.483258849],[-41.80429885199992,-20.538402828999978],[-41.828391197999984,-20.557296181999938],[-41.841299187999965,-20.600442038999986],[-41.85639511299996,-20.617189301999925],[-41.82050190399995,-20.627785308999922],[-41.813231797999975,-20.653264726999918],[-41.84794904599995,-20.686684463999914],[-41.86025639799997,-20.73902727999993],[-41.876407947,-20.747082042999985],[-41.8733570109999,-20.770655410999925],[-41.905047700999916,-20.797372422999914],[-41.928666069999935,-20.795478264999954],[-41.93247689199994,-20.825712187999965],[-41.926707009000026,-20.838789835999947],[-41.96024582999993,-20.88302182799998],[-41.966689267999975,-20.91695150599998],[-41.97855420799989,-20.93486709299995],[-42.00032235399995,-20.927209242999965],[-42.03853799599992,-20.92745882],[-42.04778408099995,-20.93472766199996],[-42.08632742099995,-20.93966839599993],[-42.13803669399995,-20.960048924000017],[-42.15094997700001,-20.974028954999966],[-42.140984290999945,-20.99296375599989],[-42.120087782999974,-21.00012130599996],[-42.114023103,-21.012150214999945],[-42.08480936799994,-21.022989921999944],[-42.104578634999896,-21.05470944899995],[-42.12047702699994,-21.06915569799993],[-42.13970068199996,-21.102894403999937],[-42.16368883099994,-21.100683052999933],[-42.18182697899994,-21.14340094200001],[-42.20833276599995,-21.17901606699993],[-42.194722271999936,-21.202741888999963],[-42.202431823000026,-21.22170186499993],[-42.18972487499998,-21.25050595599994],[-42.22871210399994,-21.28246166799995],[-42.229151572999974,-21.306971513999926],[-42.237787883999914,-21.31797278299997],[-42.224234322,-21.337813086999944],[-42.236848569,-21.345726451999933],[-42.23002423399997,-21.366494530999933],[-42.25197536699998,-21.387197054999927],[-42.23832941799996,-21.403505066999937],[-42.278222173999964,-21.414014592999973],[-42.275375943,-21.42747220399995],[-42.292124921,-21.459238114999977],[-42.26807836499999,-21.468874911999922],[-42.2574404389999,-21.482346574],[-42.28560106699996,-21.52812015899995],[-42.29688436199998,-21.52361476899994],[-42.32485147499993,-21.569540684999975],[-42.34350722699995,-21.580771130999974],[-42.368683243999975,-21.618419548],[-42.358648509999966,-21.630753218999885],[-42.36515220099994,-21.64645848399994],[-42.33966575399998,-21.660282688999963],[-42.30170916299995,-21.654963900999977],[-42.27325660199998,-21.677904523999967],[-42.265271303,-21.693504281999907],[-42.26942901099992,-21.716983066999926],[-42.30658549099992,-21.728447367999912],[-42.33346206199997,-21.745848808999977],[-42.35772689899992,-21.74105050599998],[-42.39562742000002,-21.761640691],[-42.438295874999916,-21.776126707999897],[-42.60082367399997,-21.845022142999913],[-42.614320849999935,-21.855887211999967],[-42.684964373999904,-21.879198142999954],[-42.73997831899995,-21.908664312999946],[-42.78779031099999,-21.929569796999946],[-42.81550482599991,-21.936359852999896],[-42.881427470999895,-21.95926618599998],[-42.90910617799996,-21.990506673999963],[-42.96898545899996,-22.014895038999924],[-42.99326256399995,-22.03561156199992],[-43.00787740299993,-22.031507905999934],[-43.039152142,-22.044594498999945],[-43.033161161,-22.06590485899996],[-43.075528434999924,-22.09285963],[-43.10618211499994,-22.08265652499991],[-43.14225799099997,-22.10444690699994],[-43.153242289999945,-22.07444477400001],[-43.13318458600001,-22.057873823999916],[-43.128352766,-22.029730071999918],[-43.153638971,-22.032979476999923],[-43.16957435899999,-22.021810477999946],[-43.20202947399993,-22.03746088],[-43.22151162799994,-22.03376091499992],[-43.254796364999955,-22.01199594899995],[-43.28052137099993,-22.01104548099991],[-43.30224330599998,-22.02100843599993],[-43.316235570999964,-22.007669655999926],[-43.365014274999965,-22.01046666099998],[-43.36783121399998,-22.019807037999914],[-43.44871210199994,-22.06721958199994],[-43.464519181999975,-22.072761462],[-43.525678975999966,-22.072706150999952],[-43.5660539529999,-22.087484497999963],[-43.59231427999994,-22.05625749599994],[-43.61192662999997,-22.08149973799994],[-43.62121784,-22.083275275999945],[-43.645664557,-22.06489663499994],[-43.66386095099994,-22.07353577299994],[-43.682068406,-22.071577863999945],[-43.71485509999992,-22.082440391999967],[-43.73144755600002,-22.09622319199994],[-43.7523429889999,-22.087661483999952],[-43.77650160499994,-22.066035982999974],[-43.84158369100001,-22.09914741799995],[-43.858435153999956,-22.09523870599993],[-43.880613736999955,-22.10142216499996],[-43.89224096500001,-22.113608423999906],[-43.95348780499992,-22.14232809699995],[-43.964881291,-22.139352515999953],[-43.99802195699991,-22.155933910999934],[-44.03354087499995,-22.152283569999973],[-44.048562578999935,-22.162161612999984],[-44.07198006499994,-22.164573049999934],[-44.08706813899991,-22.182326977999942],[-44.101293405,-22.173721022999935],[-44.154428486999926,-22.227190203999978],[-44.174439878999934,-22.230384160999925],[-44.23675262599993,-22.26578097],[-44.25993337799998,-22.268084561999988],[-44.262737693999924,-22.244084003999962],[-44.29150962199994,-22.24306137],[-44.31715762699994,-22.25951161499996],[-44.35986373099993,-22.252414621999925],[-44.38996273699997,-22.27050879599993],[-44.394796667999984,-22.258906944999932],[-44.433209464999926,-22.251408332999976],[-44.45710734899998,-22.257587108999886],[-44.45873857799995,-22.27046656599999],[-44.49685575099995,-22.303741240999972],[-44.53022930799994,-22.323188910999967],[-44.563463058,-22.33158808799992],[-44.592552092999966,-22.322912621999933],[-44.62607294199998,-22.335343319999943],[-44.62766631299992,-22.344683357999937],[-44.658214004999955,-22.3734557089999],[-44.707953093999926,-22.368828085],[-44.72963861799998,-22.360751104999963],[-44.74111164499989,-22.373110611999945],[-44.79292502099998,-22.38685085599995],[-44.794710802999944,-22.408864795999914],[-44.75533366499997,-22.41526920099993],[-44.74144567699991,-22.424827631999964],[-44.71924544999998,-22.463421080999932],[-44.72371954099998,-22.475870165999954],[-44.71295988299994,-22.49324621099996],[-44.71169879399996,-22.51404984499997],[-44.68136803499993,-22.525305888999956],[-44.667873631999925,-22.554073763],[-44.644427612999955,-22.555598615999948],[-44.64363892799998,-22.599606352999988],[-44.622708494999955,-22.60530999099993],[-44.61278495899991,-22.61734482999996],[-44.59682890999998,-22.610206805],[-44.58401707599997,-22.624199909999962],[-44.54602941199994,-22.606961681],[-44.531004624999966,-22.630205944999968],[-44.51072493499996,-22.640135787],[-44.480239376,-22.611356225999977],[-44.46487673699996,-22.615969572999948],[-44.429793143999966,-22.59870420399995],[-44.405825757999935,-22.599098332999965],[-44.400247786,-22.582190752],[-44.38239777799994,-22.573494187999952],[-44.32009373299996,-22.595469971999957],[-44.28287141199993,-22.60413062799996],[-44.245606151,-22.606419656999908],[-44.18427629299996,-22.637299137999953],[-44.18959782599991,-22.649106991999943],[-44.171449752999976,-22.65942844699996],[-44.161365163999925,-22.67825844899992],[-44.173860836999985,-22.70210796699997],[-44.20407264899994,-22.71965448499996],[-44.19896030799998,-22.735287340999975],[-44.22704652199993,-22.73373898999994],[-44.25758099099994,-22.76695888499992],[-44.240181268999926,-22.791384071],[-44.26131145999996,-22.806259212999933],[-44.26760000599998,-22.829018784999953],[-44.28336478899998,-22.836156704],[-44.29608555199992,-22.827836438999917],[-44.31742049300002,-22.839951794999948],[-44.381195878999975,-22.858351334],[-44.42305917399995,-22.85049648599996],[-44.43329248099996,-22.86883759199997],[-44.46692067799997,-22.88496746099998],[-44.47989293299994,-22.866826885999956],[-44.48437474999995,-22.84635699399994],[-44.50527847899998,-22.85154934199994],[-44.555174010000016,-22.888050342999975],[-44.570193773999925,-22.88383015499994],[-44.60714297499992,-22.885341414000017],[-44.639246463999896,-22.915125238],[-44.662602983999925,-22.927197353999915],[-44.68722370699993,-22.932519675999927],[-44.713612691999955,-22.92996964499997],[-44.74350208199997,-22.947003652],[-44.74922334199995,-22.969461801999955],[-44.7648404559999,-22.983313810999974],[-44.791898181999926,-22.981875897999927],[-44.79281715699994,-23.00983856999995],[-44.802208353,-23.048780075999943],[-44.818843719,-23.091458393999943],[-44.81061617899994,-23.114846242999896],[-44.82548147599996,-23.143740971999947],[-44.824416157,-23.162687259999934],[-44.84290353899995,-23.166686303999974],[-44.874748381999936,-23.184698388999934],[-44.88011470499995,-23.213309707999898],[-44.88932055099994,-23.22659492],[-44.86946413399996,-23.249834006],[-44.85628350899999,-23.248467672999915],[-44.82803303199995,-23.270588152999906],[-44.824696214,-23.291621355],[-44.805364407,-23.29004908699993],[-44.78742138499997,-23.29910688499993],[-44.77876809799996,-23.314472934999984],[-44.777749588999974,-23.33774950299997],[-44.73575535199991,-23.365637163],[-44.715363061999916,-23.34492560299998],[-44.70117740399992,-23.340241205999988],[-44.671291227,-23.34563443199992],[-44.639451701,-23.33110587699997],[-44.60874077199996,-23.35622728100001],[-44.59086898499997,-23.362232949999985],[-44.572615959999965,-23.34613803499993],[-44.56622879699996,-23.32273471499994],[-44.53581184999999,-23.29207709399995],[-44.527194374,-23.272754486999915],[-44.580140814999965,-23.2708276],[-44.57708639799993,-23.244619924999967],[-44.58735453399997,-23.23218129699992],[-44.61397075099997,-23.25218863999995],[-44.61909394299994,-23.241718225999954],[-44.65146013499998,-23.23498238099996],[-44.65712668199996,-23.214688155],[-44.62359234999999,-23.207396759999952],[-44.626644174,-23.196281411999976],[-44.654430637999916,-23.19066621099998],[-44.657139587999964,-23.20506958499996],[-44.694845772999976,-23.232637194999896],[-44.72115709799997,-23.201826154999914],[-44.69831114999991,-23.174498736999958],[-44.70750768799993,-23.163486581],[-44.69564447999998,-23.14828048199994],[-44.69890069099993,-23.121176373999987],[-44.68450437,-23.07167732299998],[-44.66855264599997,-23.054168567000012],[-44.645286976,-23.046804033999955],[-44.59292437599995,-23.046517730999895],[-44.578205129999944,-23.054162402999943],[-44.555205932,-23.036340953999947],[-44.522178208999925,-23.02728390499992]]],[[[-44.230010848999974,-23.075618321000015],[-44.24947951900002,-23.10941615899994],[-44.27262132499995,-23.117432888999957],[-44.28202779699994,-23.13476026999993],[-44.306161719999984,-23.121184837999976],[-44.325148009,-23.154084458999925],[-44.34417644199994,-23.15598012899992],[-44.37757268399995,-23.17240648999995],[-44.37350088599993,-23.183102856999902],[-44.33947124500001,-23.190281162],[-44.351202685999986,-23.21419592699995],[-44.33339387299996,-23.223617008999987],[-44.311327615000025,-23.18046929899996],[-44.27167684399997,-23.179824216999968],[-44.246842856999905,-23.201086196999974],[-44.20670927399996,-23.192633013],[-44.188185602999944,-23.182465303999912],[-44.17018100699998,-23.184543939999948],[-44.15913370199995,-23.171953573999957],[-44.131312177999966,-23.169218065999928],[-44.11847540799993,-23.18609931599994],[-44.094502928999916,-23.174753448999986],[-44.120594815999965,-23.153023953999927],[-44.13769764700001,-23.15966979799994],[-44.148042625999935,-23.124913385999925],[-44.16400158799993,-23.142039035],[-44.176360588999955,-23.11710747899994],[-44.20170039599995,-23.119692414999946],[-44.20747557699995,-23.097718331999907],[-44.230010848999974,-23.075618321000015]]],[[[-43.761120728,-23.0600679639999],[-43.80634134199994,-23.061330939999948],[-43.828389648,-23.058151780999893],[-43.88101839399995,-23.042102751],[-43.878361977999894,-23.062616576],[-43.89946680999996,-23.068795595999937],[-43.94747778899994,-23.050441479],[-43.97327254999991,-23.045257446999976],[-44.01099947199995,-23.07839593399997],[-44.00798088999995,-23.093982974999925],[-43.98799746699994,-23.102400380999967],[-43.95429654799995,-23.08695580699999],[-43.88209624799996,-23.074743242],[-43.78366414899998,-23.062687314],[-43.636752577999985,-23.05055434099993],[-43.586820448999944,-23.053335662999928],[-43.614008145999975,-23.030981853],[-43.656574577999955,-23.039136686999896],[-43.70596600199993,-23.05289464399994],[-43.761120728,-23.0600679639999]]],[[[-43.883358119,-22.948745981999927],[-43.88154476499999,-22.92455170699995],[-43.910926366,-22.941368744999977],[-43.90191927699993,-22.959096209999927],[-43.883358119,-22.948745981999927]]],[[[-43.17206750099995,-22.77581619799994],[-43.19039096399992,-22.795515832],[-43.220700222999945,-22.78457808799997],[-43.256436149,-22.797214650999962],[-43.265687301999925,-22.811196044999935],[-43.239202089999935,-22.833807845999985],[-43.21690958799992,-22.817230068999947],[-43.172646153999956,-22.825297029999945],[-43.178399841999955,-22.802655284],[-43.15738895099994,-22.787339758999945],[-43.17206750099995,-22.77581619799994]]],[[[-41.97804695699993,-22.97918911399993],[-42.0032910209999,-22.993354721999957],[-41.98838619,-23.004857453999925],[-41.974574656999955,-22.992163854999923],[-41.97804695699993,-22.97918911399993]]],[[[-41.018689892999944,-21.607653855],[-41.04835139999993,-21.589077151999945],[-41.04591101199998,-21.616217951999914],[-41.018689892999944,-21.607653855]]],[[[-29.335158286999985,-20.489026105999972],[-29.344161063999962,-20.510251475999972],[-29.32947249099992,-20.524507275999913],[-29.299036951999923,-20.520218757999906],[-29.335158286999985,-20.489026105999972]]]]},"properties":{"CD_MUN":"3200102","NM_MUN":"Afonso Cláudio","SIGLA":"ES","AREA_KM2":941.188,"auxiliary_":null,"auxiliar_1":null,"REGIAO_MAR":"ES","BASE_RC":null,"ALLCON_TOT":0}}
]}