{"type":"FeatureCollection", "features": [
{"type":"Feature","geometry":{"type":"Polygon","coordinates":[[[-49.79320068199995,-19.92826328299998],[-49.63440530099998,-19.93193211399996],[-49.551485234999966,-19.905841004999978],[-49.514004928,-19.91431150599997],[-49.453809955999986,-19.978059750999897],[-49.35648649,-19.986717257999906],[-49.297537781999985,-19.960545406999906],[-49.30853803899994,-20.103892933999887],[-49.299246428999965,-20.167076078999955],[-49.25915600599994,-20.26020422199993],[-49.225294014999946,-20.305343064999946],[-49.18356251999995,-20.314659810999967],[-49.12241114899995,-20.273545039999927],[-49.06747975499998,-20.154743511999982],[-48.98604519099996,-20.170765326999938],[-48.97202319799991,-20.207790346999985],[-48.96303031699995,-20.40312151599993],[-48.89986253699991,-20.441336232999916],[-48.86703918599997,-20.39834930499996],[-48.88707533899998,-20.275275438999927],[-48.822126733999944,-20.1615471449999],[-48.73134107099999,-20.149381771],[-48.63771183599994,-20.165347437000012],[-48.593247428999945,-20.135811745999952],[-48.49111613199996,-20.13812321599998],[-48.40577677599997,-20.113511040999974],[-48.315412862,-20.113801091],[-48.265100096,-20.143796442999893],[-48.21863549699998,-20.127883959999924],[-48.253425136,-20.07792066499997],[-48.20777146499992,-20.03937002199999],[-48.17860597699994,-20.09618021599989],[-48.105487412999906,-20.146355956000015],[-48.020163,-20.124029000999908],[-47.97596931699994,-20.035372666999915],[-47.931524817,-20.110434848999912],[-47.875077302,-20.09837268999993],[-47.859750731999924,-19.99293974799997],[-47.733681691999955,-19.987928204999914],[-47.67614993899995,-20.00191558999994],[-47.639656072999976,-20.047219412999926],[-47.583824617999966,-19.99666463199997],[-47.46332203999996,-19.965789005999977],[-47.424428037,-20.01531955299992],[-47.408133496999945,-20.08019628199996],[-47.30967337499995,-20.124498408999933],[-47.26178041999997,-20.159924877999966],[-47.239102029,-20.24356809399995],[-47.29820813599998,-20.348435714999944],[-47.291011293999944,-20.450549889999934],[-47.211901342999965,-20.49984053000001],[-47.154517380999934,-20.519553191999904],[-47.12332258399991,-20.61272249699991],[-47.09745644999998,-20.64387682699996],[-47.12667536299994,-20.70931854399994],[-47.16924077100001,-20.703430845999957],[-47.188818291999915,-20.77062470799996],[-47.24004425699999,-20.885281697],[-47.14373893599994,-20.982385671999957],[-47.15702985099998,-21.018824736999928],[-47.123647821,-21.16790940699996],[-47.07607571899992,-21.24117561499995],[-47.05228174399993,-21.246518713999905],[-47.016526994999914,-21.342362938],[-47.012970414999984,-21.41910701699997],[-46.893305569999924,-21.41561413299998],[-46.81730936400001,-21.36643857199992],[-46.71472165099992,-21.392662071999933],[-46.64873033699994,-21.391721343],[-46.60188993,-21.44396078099989],[-46.57651366299992,-21.42695718099997],[-46.519052712,-21.44895315599996],[-46.50077666699996,-21.549761130999965],[-46.51822801699998,-21.61282186499994],[-46.56463134,-21.678679389999953],[-46.621594723999955,-21.675542992999972],[-46.62603031199996,-21.766226462],[-46.69097054699993,-21.83696384900001],[-46.64753646099992,-21.88046083399998],[-46.673778464999955,-21.91105268899994],[-46.642825449999954,-21.976620813],[-46.68538901999996,-22.037422128999893],[-46.62417001799996,-22.108516923999986],[-46.613041482999954,-22.150252526999967],[-46.67080084899997,-22.184260558999966],[-46.70694302999998,-22.25787233599995],[-46.71453687,-22.315584169999934],[-46.631607354,-22.43583570399995],[-46.554813950000025,-22.446649974999975],[-46.54214693599991,-22.494356001999947],[-46.45331815399995,-22.522497117999905],[-46.39305887099995,-22.66297405899996],[-46.48056527599992,-22.67986530099991],[-46.45272307799992,-22.727581895999958],[-46.334541461999926,-22.760300075],[-46.37681108099995,-22.827819462000022],[-46.376289403999955,-22.87707907399993],[-46.345224236,-22.90467920399989],[-46.279025716000014,-22.878347613],[-46.14125198799998,-22.868146002999943],[-46.095218325,-22.894429009],[-46.008524,-22.889497998999943],[-45.909035,-22.82960499899996],[-45.76695935699996,-22.840812269],[-45.770945137999966,-22.80592676199996],[-45.71181884799992,-22.771515890999936],[-45.73255709499994,-22.722002682],[-45.795633911,-22.739021393999934],[-45.819927818999965,-22.722718610999912],[-45.74280673799997,-22.65916686199999],[-45.72679369099994,-22.58702300799996],[-45.66289446099995,-22.576813875],[-45.68107834399992,-22.636335684],[-45.56596527699998,-22.656522749999972],[-45.48880049099992,-22.628785222999923],[-45.47385657699998,-22.588894224999887],[-45.41052109199992,-22.651671024999906],[-45.332961985999916,-22.617639216999983],[-45.27586522900002,-22.616958399999962],[-45.25454068099998,-22.58162425799993],[-45.16451526799995,-22.537928714999964],[-45.128459400999894,-22.49711026399993],[-45.054928890999975,-22.470503961999952],[-44.96984841099991,-22.47194463899996],[-44.83023135599994,-22.428143396999953],[-44.79292502099998,-22.38685085599995],[-44.707953093999926,-22.368828085],[-44.658214004999955,-22.3734557089999],[-44.62607294199998,-22.335343319999943],[-44.563463058,-22.33158808799992],[-44.49685575099995,-22.303741240999972],[-44.433209464999926,-22.251408332999976],[-44.31715762699994,-22.25951161499996],[-44.262737693999924,-22.244084003999962],[-44.23675262599993,-22.26578097],[-44.154428486999926,-22.227190203999978],[-44.101293405,-22.173721022999935],[-43.99802195699991,-22.155933910999934],[-43.84158369100001,-22.09914741799995],[-43.77650160499994,-22.066035982999974],[-43.73144755600002,-22.09622319199994],[-43.59231427999994,-22.05625749599994],[-43.5660539529999,-22.087484497999963],[-43.464519181999975,-22.072761462],[-43.36783121399998,-22.019807037999914],[-43.254796364999955,-22.01199594899995],[-43.153242289999945,-22.07444477400001],[-43.075528434999924,-22.09285963],[-42.881427470999895,-21.95926618599998],[-42.78779031099999,-21.929569796999946],[-42.684964373999904,-21.879198142999954],[-42.35772689899992,-21.74105050599998],[-42.26942901099992,-21.716983066999926],[-42.27325660199998,-21.677904523999967],[-42.33966575399998,-21.660282688999963],[-42.368683243999975,-21.618419548],[-42.28560106699996,-21.52812015899995],[-42.2574404389999,-21.482346574],[-42.292124921,-21.459238114999977],[-42.278222173999964,-21.414014592999973],[-42.23002423399997,-21.366494530999933],[-42.22871210399994,-21.28246166799995],[-42.18972487499998,-21.25050595599994],[-42.20833276599995,-21.17901606699993],[-42.16368883099994,-21.100683052999933],[-42.13970068199996,-21.102894403999937],[-42.08480936799994,-21.022989921999944],[-42.140984290999945,-20.99296375599989],[-42.13803669399995,-20.960048924000017],[-42.03853799599992,-20.92745882],[-41.97855420799989,-20.93486709299995],[-41.96024582999993,-20.88302182799998],[-41.905047700999916,-20.797372422999914],[-41.8733570109999,-20.770655410999925],[-41.85087101699995,-20.691122159999917],[-41.91114,-20.66118099599988],[-41.952007,-20.68181499599998],[-41.967419,-20.755055995999925],[-42.020419,-20.774346995999924],[-42.085838,-20.730686995999967],[-42.205856,-20.76328299599993],[-42.251968,-20.73047199599994],[-42.222018,-20.68317399599989],[-42.296623,-20.585365995999947],[-42.487144,-20.577696995999926],[-42.608773,-20.60593099599993],[-42.679923,-20.53131399599991],[-42.779324,-20.561654995999987],[-42.797948,-20.605911995999957],[-42.89335,-20.565266995999973],[-43.005451,-20.476796995999944],[-43.079449,-20.364534996],[-43.130900999999895,-20.3473949959999],[-43.168372,-20.40005499599996],[-43.122926,-20.43006099599994],[-43.155348,-20.459950996],[-43.26863415399995,-20.45111973199992],[-43.367252,-20.549369995999953],[-43.416901999999894,-20.543589996],[-43.427561,-20.489455995999926],[-43.495875,-20.4442289959999],[-43.472561,-20.4044489959999],[-43.452693,-20.303670995999976],[-43.468921,-20.227736995999965],[-43.497288,-20.173032995999982],[-43.583248,-20.217534995999884],[-43.619888,-20.19231599599994],[-43.66417067299999,-20.117857475999887],[-43.69553676599997,-20.14914481199993],[-43.7898107629999,-20.154017199999927],[-43.907602,-20.21519899599996],[-43.976084,-20.222689995999907],[-43.982894532999964,-20.093783709999933],[-44.040384114999945,-20.01339103399996],[-44.06890667499994,-19.948790742999964],[-44.150750412999976,-19.920913434999896],[-44.14966695399995,-19.855893974999947],[-44.22655023199999,-19.84108383399997],[-44.23630349499998,-19.87902879099993],[-44.291780562999975,-19.89433312499994],[-44.336797999999895,-19.93979599599994],[-44.379321,-19.849243995999952],[-44.454069,-19.733025995999984],[-44.499182,-19.690772996],[-44.497529,-19.642094996],[-44.565105,-19.604333995999976],[-44.618961,-19.683536995999926],[-44.725159,-19.61378899599998],[-44.749955,-19.665647995999933],[-44.814558,-19.664307995999906],[-44.829282,-19.72749799599992],[-44.89173099999989,-19.719853995999923],[-44.971655999999896,-19.675079995999987],[-44.983024,-19.608507995999922],[-45.028383,-19.532639995999954],[-45.098403,-19.578024995999908],[-45.116049,-19.534386],[-45.197205,-19.548979995999947],[-45.282863,-19.527358995999986],[-45.372177,-19.524494995999895],[-45.404904,-19.491608996],[-45.363921,-19.398889995999955],[-45.331612,-19.355666996],[-45.466095,-19.322164995999955],[-45.501793,-19.35616199599993],[-45.623554,-19.355670995999983],[-45.661302,-19.309847995999938],[-45.735047,-19.306359996],[-45.751598,-19.270631995999974],[-45.838898,-19.34619499599993],[-45.845802,-19.304559995999924],[-45.809719,-19.241859995999953],[-45.804316,-19.195889995999913],[-45.875854,-19.15448499599993],[-45.932803,-19.15658099599998],[-45.983684,-19.188990996],[-46.051515,-19.097859995999986],[-46.13238,-19.106402995999936],[-46.196419,-19.081020995999918],[-46.220107,-19.04762699599992],[-46.263779,-19.064304996],[-46.284131,-19.102291995999963],[-46.372437,-19.116932995999978],[-46.406738,-19.09120199599995],[-46.441177,-19.005109996999945],[-46.503971,-18.934457996999985],[-46.59343063599996,-19.005671022999913],[-46.62871,-18.911792996999974],[-46.624299,-18.855423996999985],[-46.667418,-18.811080997],[-46.739639,-18.776295996999934],[-46.780277,-18.693435996999916],[-46.849535,-18.66926999699997],[-46.887319,-18.7184729969999],[-46.960765,-18.748898997],[-47.006187,-18.696999997000017],[-47.074455,-18.69697699699998],[-47.115265,-18.744973996999956],[-47.203784,-18.761106996999963],[-47.269756,-18.744023996999957],[-47.339242,-18.679222996999965],[-47.331138,-18.584927996999987],[-47.372137,-18.536201997],[-47.450275,-18.512077996999974],[-47.511602,-18.397569996999916],[-47.57819,-18.4080219969999],[-47.647123,-18.35242399699993],[-47.63276753499996,-18.29162005499999],[-47.640371614999935,-18.184603630999927],[-47.690543358,-18.131793660999982],[-47.7586559609999,-18.117584309999888],[-47.835689564999946,-18.150178803999903],[-47.878705595,-18.246069630999937],[-47.878510985999974,-18.29668662099989],[-47.91013164699997,-18.32672614099989],[-47.852090984999954,-18.36102097],[-47.86324330999997,-18.46974373999993],[-47.91427399499996,-18.466577836999907],[-47.96219782500002,-18.496071372999943],[-48.02450345199995,-18.423197360999986],[-47.976719706999944,-18.38358477199998],[-47.93759527600001,-18.378366518999965],[-47.93841158799996,-18.32854706800001],[-47.96596909499995,-18.293410567999988],[-48.05474157099995,-18.29919960099998],[-48.04515685699997,-18.223347096999962],[-48.00906953199997,-18.179365429999947],[-48.03315837500001,-18.06308479599995],[-48.07440442,-18.045032388000024],[-48.129147307,-17.975735417999914],[-48.18976034099995,-17.974307828999923],[-48.24803670700001,-17.997226399999953],[-48.31426687199995,-17.94297634999996],[-48.38823382000001,-17.93847797599991],[-48.412021767999946,-17.856067669999973],[-48.451887542999934,-17.838722149],[-48.50835225399994,-17.8760082969999],[-48.52349727699991,-17.95598839599993],[-48.56229328399994,-18.053447788999986],[-48.61587248399994,-18.066699186999955],[-48.6433803049999,-17.931608692999887],[-48.73280517699989,-17.832212942999934],[-48.738470037,-17.750885233999956],[-48.77910486199994,-17.715456527999915],[-48.838431063,-17.721270840999956],[-48.84902729199993,-17.681498846],[-48.929051669999986,-17.597666153999967],[-49.059529901,-17.539572302],[-49.154080269999966,-17.544418907],[-49.23141060899995,-17.509267828999917],[-49.29085516599996,-17.506995996999972],[-49.27836739599993,-17.46588690199996],[-49.301150793999966,-17.413671495],[-49.29289976499993,-17.291728037999974],[-49.25715599700002,-17.20024458300001],[-49.276393567999946,-17.15908087199992],[-49.327644703999965,-17.12907624499996],[-49.407254346999906,-17.161016327],[-49.47994688099995,-17.143816597999937],[-49.473308366999916,-17.09462174399997],[-49.52758627199991,-17.02657000099995],[-49.60284995199997,-17.065512737999953],[-49.632576703000026,-17.010734216999932],[-49.59374180899998,-16.95226646399993],[-49.73884850399994,-16.953627108999978],[-49.80165002799996,-16.902705378999947],[-49.880402902999975,-16.974206614],[-49.927474884999974,-16.960550486999946],[-49.94961042499996,-17.030309321],[-50.05470450999995,-17.08458666300002],[-50.08145199199998,-17.04850718599996],[-50.03926267099993,-16.965391026999974],[-50.28093549999994,-16.89950043299998],[-50.30287662399992,-16.858070946999923],[-50.284586529999956,-16.76836418299997],[-50.376316897,-16.723757978999974],[-50.429327437999945,-16.753821689999935],[-50.44909860699997,-16.79718181199995],[-50.52779515799994,-16.812827082999924],[-50.576176625999935,-16.84793969000001],[-50.641020516999916,-16.835019611999922],[-50.58383318699999,-16.701994349999936],[-50.60617994399996,-16.635933365999964],[-50.71200106999997,-16.612919378999944],[-50.727508180999976,-16.588735244999917],[-50.792253211999956,-16.58181559],[-50.817400480999915,-16.5103955779999],[-50.918586933999975,-16.52670225399989],[-50.96988082799997,-16.501589497999944],[-50.97605194899997,-16.416981684999907],[-51.034623758999956,-16.399567879999974],[-51.028972388999904,-16.36488169499991],[-51.117988978999946,-16.306561436999942],[-51.36887743699995,-16.284682922999902],[-51.45520621099992,-16.32761444699998],[-51.522083766999955,-16.287181840999985],[-51.55427711399991,-16.227730476999955],[-51.59737102299992,-16.230371039999945],[-51.616088281999964,-16.184454349999964],[-51.71790038099992,-16.094388916],[-51.75722214399993,-16.088717696999897],[-51.836175147999896,-15.982388897999975],[-51.85146207499997,-15.884356184999913],[-51.87785674499993,-15.838814256999942],[-51.94845492199997,-15.81009842099995],[-52.009533213999966,-15.88581152499998],[-52.19486847499992,-15.880935506999947],[-52.254139708999965,-15.893266615999977],[-52.32849834899993,-16.070403395999975],[-52.39887931000002,-16.093342441999923],[-52.54916590899994,-16.16499546899993],[-52.54595398,-16.259667239999906],[-52.65923885499994,-16.280652045999986],[-52.682141263999966,-16.301492138],[-52.692723488999974,-16.366421352999936],[-52.64101418799997,-16.41572806599992],[-52.606078286999946,-16.486024152],[-52.625726190999984,-16.53220907299989],[-52.67561951899992,-16.585451858999942],[-52.72602161599995,-16.614496631999973],[-52.785658541999965,-16.7144470449999],[-52.837244176999945,-16.77189689299997],[-52.88506480999999,-16.777026377999924],[-52.95602055399995,-16.861503249999963],[-53.014627035999965,-16.862248131999955],[-53.054516867,-16.968441280999933],[-53.05496085399996,-17.06442086299994],[-53.11074498499997,-17.108140308000017],[-53.15513997599999,-17.186581445999902],[-53.20915849499991,-17.316011992],[-53.197229143999905,-17.378302346999916],[-53.23139341899996,-17.440433035999945],[-53.24845381799996,-17.62729167299991],[-53.233789234999946,-17.71303738499995],[-53.15999249299993,-17.774894871999933],[-53.131730900999955,-17.84227449099994],[-53.125050242,-17.917530118999956],[-53.07131502999997,-17.965913215999905],[-53.07571136199993,-18.050795389],[-53.14315259999997,-18.084077648999894],[-53.11018760799995,-18.21956326599997],[-53.09965570899992,-18.313619138999968],[-53.071739586999925,-18.341542537999942],[-52.935230137999966,-18.296554322999956],[-52.87320670499993,-18.314833543],[-52.814258969,-18.311297801999924],[-52.75887324900001,-18.36314039499994],[-52.798512562,-18.414861300999927],[-52.87118256799996,-18.425814275999972],[-52.880957286999944,-18.465492743],[-52.962351359999914,-18.540819703999976],[-52.91276745899991,-18.64197975799989],[-52.74810400199989,-18.692055733999933],[-52.68730979199995,-18.678342516999944],[-52.588721485999926,-18.686835366],[-52.53154927099992,-18.657480693],[-52.44802564199997,-18.691966545999925],[-52.40754572699997,-18.757154477999958],[-52.30514071199998,-18.84043983399991],[-52.18735376899996,-18.845875431999968],[-52.15057477299993,-18.893345881999988],[-52.11080637899991,-18.89870181999994],[-52.07935886599994,-18.951088548999948],[-52.014533678,-18.976070966999945],[-51.897086577999936,-18.99448504899995],[-51.852220610999936,-19.052489213999966],[-51.815705294999965,-19.055094743999987],[-51.72754136099995,-19.107760202999966],[-51.651604002999925,-19.135999142999935],[-51.592211967999916,-19.12678742699999],[-51.498668173999924,-19.161000300999973],[-51.418069494999955,-19.172878767999944],[-51.36396052699992,-19.22250598399998],[-51.308768835,-19.217800414999928],[-51.276608720999945,-19.26050426199991],[-51.225499866999975,-19.258979436999955],[-51.08744001399998,-19.31243253899991],[-50.93499777799997,-19.467477484999982],[-50.96294621699997,-19.50057879599992],[-50.924394628999906,-19.580884597],[-50.987554582000016,-19.589507554999983],[-51.038180814000015,-19.691767492999954],[-51.046081810999965,-19.73558291899998],[-50.99947130299995,-19.90637549999997],[-51.02091117699993,-19.959087422999975],[-50.96912936399997,-20.036445197999928],[-50.89719944199997,-19.990155184999967],[-50.78360150399989,-19.93722948599995],[-50.658104733999934,-19.90714730099997],[-50.577948759,-19.816374352],[-50.46932357799997,-19.779888807],[-50.417132774,-19.801136460999977],[-50.35275894099993,-19.864602431],[-50.245155945,-19.876757703999957],[-50.09724333899996,-19.875478953999934],[-50.047239195,-19.91538963599991],[-49.946052062999975,-19.92391104699994],[-49.888336930999984,-19.945304915999937],[-49.79320068199995,-19.92826328299998]]]},"properties":{"CD_MUN":"3100401","NM_MUN":"Acaiaca","SIGLA":"MG","AREA_KM2":101.886,"auxiliary_":null,"auxiliar_1":null,"REGIAO_MAR":"GO_MG SUL","BASE_RC":null,"ALLCON_TOT":0}}
]}