{"type":"FeatureCollection", "features": [
{"type":"Feature","geometry":{"type":"Polygon","coordinates":[[[-49.48106089899993,-16.98123892899993],[-49.49392106899994,-17.059590565999958],[-49.473308366999916,-17.09462174399997],[-49.47994688099995,-17.143816597999937],[-49.44092204999998,-17.139937207999942],[-49.407254346999906,-17.161016327],[-49.327644703999965,-17.12907624499996],[-49.276393567999946,-17.15908087199992],[-49.25715599700002,-17.20024458300001],[-49.29289976499993,-17.291728037999974],[-49.291061113999945,-17.360750799999956],[-49.301150793999966,-17.413671495],[-49.27836739599993,-17.46588690199996],[-49.29085516599996,-17.506995996999972],[-49.23141060899995,-17.509267828999917],[-49.154080269999966,-17.544418907],[-49.12537966899998,-17.530148030999957],[-49.059529901,-17.539572302],[-48.929051669999986,-17.597666153999967],[-48.89101014399994,-17.65031104999993],[-48.84902729199993,-17.681498846],[-48.838431063,-17.721270840999956],[-48.77910486199994,-17.715456527999915],[-48.738470037,-17.750885233999956],[-48.74822650399999,-17.795163840999937],[-48.73280517699989,-17.832212942999934],[-48.673827659999986,-17.90718541199997],[-48.6433803049999,-17.931608692999887],[-48.619456329999906,-18.00731466499995],[-48.63479540699995,-18.047877484999972],[-48.61587248399994,-18.066699186999955],[-48.56229328399994,-18.053447788999986],[-48.53906832399996,-18.030318087999984],[-48.54380303600003,-17.992722426999972],[-48.52349727699991,-17.95598839599993],[-48.50835225399994,-17.8760082969999],[-48.451887542999934,-17.838722149],[-48.412021767999946,-17.856067669999973],[-48.38823382000001,-17.93847797599991],[-48.31426687199995,-17.94297634999996],[-48.24803670700001,-17.997226399999953],[-48.18976034099995,-17.974307828999923],[-48.129147307,-17.975735417999914],[-48.096069125000014,-17.99971033899995],[-48.07440442,-18.045032388000024],[-48.03315837500001,-18.06308479599995],[-48.02315628699995,-18.12597263999992],[-48.04245477599995,-18.15735993599997],[-48.00906953199997,-18.179365429999947],[-48.04515685699997,-18.223347096999962],[-48.05474157099995,-18.29919960099998],[-47.96596909499995,-18.293410567999988],[-47.93841158799996,-18.32854706800001],[-47.93759527600001,-18.378366518999965],[-47.976719706999944,-18.38358477199998],[-48.02450345199995,-18.423197360999986],[-47.96219782500002,-18.496071372999943],[-47.91427399499996,-18.466577836999907],[-47.86324330999997,-18.46974373999993],[-47.852090984999954,-18.36102097],[-47.91013164699997,-18.32672614099989],[-47.878510985999974,-18.29668662099989],[-47.878705595,-18.246069630999937],[-47.835689564999946,-18.150178803999903],[-47.7586559609999,-18.117584309999888],[-47.690543358,-18.131793660999982],[-47.640371614999935,-18.184603630999927],[-47.63544640299992,-18.240951392999936],[-47.601823552,-18.257724690999986],[-47.63276753499996,-18.29162005499999],[-47.610581985999914,-18.316480684999945],[-47.647123,-18.35242399699993],[-47.57819,-18.4080219969999],[-47.511602,-18.397569996999916],[-47.481241,-18.45577799699992],[-47.453026,-18.463616996999974],[-47.450275,-18.512077996999974],[-47.372137,-18.536201997],[-47.331138,-18.584927996999987],[-47.348451,-18.643631996999908],[-47.339242,-18.679222996999965],[-47.30471,-18.698787996999986],[-47.269756,-18.744023996999957],[-47.203784,-18.761106996999963],[-47.115265,-18.744973996999956],[-47.074455,-18.69697699699998],[-47.006187,-18.696999997000017],[-46.97122,-18.718437996999935],[-46.960765,-18.748898997],[-46.887319,-18.7184729969999],[-46.849535,-18.66926999699997],[-46.777172,-18.67140999699993],[-46.780277,-18.693435996999916],[-46.739639,-18.776295996999934],[-46.710642,-18.803432996999945],[-46.667418,-18.811080997],[-46.624299,-18.855423996999985],[-46.62871,-18.911792996999974],[-46.59343063599996,-19.005671022999913],[-46.521635,-18.937997996999965],[-46.503971,-18.934457996999985],[-46.441177,-19.005109996999945],[-46.406738,-19.09120199599995],[-46.372437,-19.116932995999978],[-46.284131,-19.102291995999963],[-46.263779,-19.064304996],[-46.220107,-19.04762699599992],[-46.196419,-19.081020995999918],[-46.13238,-19.106402995999936],[-46.051515,-19.097859995999986],[-45.983684,-19.188990996],[-45.932803,-19.15658099599998],[-45.875854,-19.15448499599993],[-45.804316,-19.195889995999913],[-45.809719,-19.241859995999953],[-45.845802,-19.304559995999924],[-45.838898,-19.34619499599993],[-45.751598,-19.270631995999974],[-45.735047,-19.306359996],[-45.661302,-19.309847995999938],[-45.623554,-19.355670995999983],[-45.501793,-19.35616199599993],[-45.466095,-19.322164995999955],[-45.331612,-19.355666996],[-45.363921,-19.398889995999955],[-45.404904,-19.491608996],[-45.372177,-19.524494995999895],[-45.321197,-19.53561699599989],[-45.282863,-19.527358995999986],[-45.197205,-19.548979995999947],[-45.116049,-19.534386],[-45.098403,-19.578024995999908],[-45.052333,-19.560799995999965],[-45.028383,-19.532639995999954],[-44.983024,-19.608507995999922],[-44.971655999999896,-19.675079995999987],[-44.89173099999989,-19.719853995999923],[-44.829282,-19.72749799599992],[-44.814558,-19.664307995999906],[-44.749955,-19.665647995999933],[-44.767991,-19.626514996],[-44.725159,-19.61378899599998],[-44.666397,-19.659345995999953],[-44.649381,-19.70653599599995],[-44.618961,-19.683536995999926],[-44.565105,-19.604333995999976],[-44.497529,-19.642094996],[-44.499182,-19.690772996],[-44.454069,-19.733025995999984],[-44.414813,-19.808391995999983],[-44.379321,-19.849243995999952],[-44.336797999999895,-19.93979599599994],[-44.30450199399997,-19.93048929999995],[-44.291780562999975,-19.89433312499994],[-44.23630349499998,-19.87902879099993],[-44.22655023199999,-19.84108383399997],[-44.18171062099995,-19.831752632],[-44.14966695399995,-19.855893974999947],[-44.150750412999976,-19.920913434999896],[-44.06890667499994,-19.948790742999964],[-44.040384114999945,-20.01339103399996],[-44.009322,-20.041695],[-43.982894532999964,-20.093783709999933],[-43.97253,-20.17684299599992],[-43.976084,-20.222689995999907],[-43.907602,-20.21519899599996],[-43.8410423569999,-20.184092481999958],[-43.79413534499996,-20.179907591],[-43.7898107629999,-20.154017199999927],[-43.69553676599997,-20.14914481199993],[-43.66417067299999,-20.117857475999887],[-43.619888,-20.19231599599994],[-43.583248,-20.217534995999884],[-43.547704,-20.20728299599993],[-43.533998,-20.163486996],[-43.497288,-20.173032995999982],[-43.499896,-20.215366995999915],[-43.468921,-20.227736995999965],[-43.452693,-20.303670995999976],[-43.472286,-20.345847995999975],[-43.472561,-20.4044489959999],[-43.495875,-20.4442289959999],[-43.427561,-20.489455995999926],[-43.416901999999894,-20.543589996],[-43.367252,-20.549369995999953],[-43.303811,-20.497631995999974],[-43.26863415399995,-20.45111973199992],[-43.219272999999895,-20.454305995999942],[-43.193641,-20.427206995999967],[-43.155348,-20.459950996],[-43.122926,-20.43006099599994],[-43.168372,-20.40005499599996],[-43.130900999999895,-20.3473949959999],[-43.079449,-20.364534996],[-43.005451,-20.476796995999944],[-42.89335,-20.565266995999973],[-42.866335,-20.55823499599999],[-42.834945,-20.59437899599997],[-42.797948,-20.605911995999957],[-42.779324,-20.561654995999987],[-42.679923,-20.53131399599991],[-42.636817,-20.59189799599995],[-42.608773,-20.60593099599993],[-42.487144,-20.577696995999926],[-42.43977799999989,-20.55856799599992],[-42.422757,-20.579783995999943],[-42.372405,-20.588111995999956],[-42.296623,-20.585365995999947],[-42.263402,-20.61507299599997],[-42.222018,-20.68317399599989],[-42.251968,-20.73047199599994],[-42.205856,-20.76328299599993],[-42.185518,-20.807892995999975],[-42.145945,-20.749545995999927],[-42.085838,-20.730686995999967],[-42.047465,-20.741923995999976],[-42.020419,-20.774346995999924],[-41.967419,-20.755055995999925],[-41.952007,-20.68181499599998],[-41.91114,-20.66118099599988],[-41.85064018999995,-20.69111121199999],[-41.813231797999975,-20.653264726999918],[-41.841299187999965,-20.600442038999986],[-41.80429885199992,-20.538402828999978],[-41.825422756999956,-20.483258849],[-41.801750968999954,-20.476565642999986],[-41.803677138,-20.421980556999895],[-41.83269058799991,-20.41249393299994],[-41.853251412,-20.350582517999936],[-41.825093597,-20.312387539999985],[-41.782140380999984,-20.29447584699998],[-41.75675368599993,-20.206865962999885],[-41.411140353999905,-20.207369558999986],[-41.38243531599991,-20.18907867999996],[-41.35581302899995,-20.139098310999923],[-41.33268777899996,-20.057663148999936],[-41.309106679999914,-20.016370639999934],[-41.300858113,-19.936525381999957],[-41.24447019699994,-19.93734184999992],[-41.229613650999944,-19.907002793999915],[-41.186127712,-19.891316106999977],[-41.16410505199994,-19.806386814999897],[-41.19107158099997,-19.745867347999955],[-41.16847282399993,-19.672222653999913],[-41.10860136599996,-19.639466760999955],[-41.09931020299992,-19.604205426],[-41.03686019999994,-19.570456971999892],[-41.04090192699996,-19.515921423999902],[-40.988278196999964,-19.5079402609999],[-40.944693410999925,-19.460960355999966],[-40.967920004999954,-19.43043727799992],[-40.930448401,-19.384151604999964],[-40.92185419099998,-19.27189207099996],[-40.94155072699996,-19.230131118999925],[-40.927582123999976,-19.208875487999908],[-40.956115752,-19.129113047999944],[-41.012604387999936,-19.0758016579999],[-41.053852152999966,-19.068864254999927],[-41.07157566699994,-19.025649332999937],[-41.03222026199999,-18.99084744899998],[-41.06465414099995,-18.945265371999973],[-41.10367392499993,-18.934060694999975],[-41.16636073299997,-18.858231667999945],[-41.21478437999998,-18.877639800999955],[-41.24358240599994,-18.852749066999905],[-41.232544391999966,-18.797278794999936],[-41.133473688,-18.796808262999907],[-41.11050653899994,-18.83893736199994],[-40.963913459,-18.841170075999933],[-40.916772629,-18.815543415999922],[-40.94000421899999,-18.77028615999997],[-40.94149757799991,-18.68929467499992],[-41.00522688499996,-18.667277022999915],[-41.050892271999935,-18.634153994999956],[-41.020300665,-18.500965901],[-41.023028707999934,-18.457260877999957],[-41.17308308299991,-18.442796894999933],[-41.14810219199995,-18.379150740999926],[-41.15892065399997,-18.30824345099998],[-41.09647353499996,-18.255577661999975],[-41.103864567999985,-18.212498222999915],[-41.051931168999914,-18.165112451999974],[-41.014589473999955,-18.157579416999923],[-40.90928330699992,-18.114830156],[-40.84507582699992,-18.149813018000014],[-40.771496051,-18.155940009999902],[-40.77330334599997,-18.107562650999984],[-40.88698941999997,-18.00064101099995],[-40.830552881999985,-17.954180001999962],[-40.808161608999974,-17.95204716899997],[-40.75276978899993,-18.009623582999943],[-40.70368342799996,-18.02372703299998],[-40.62615190499994,-17.991053926999943],[-40.60953292999995,-17.937658793999987],[-40.51682186499993,-17.894423307999983],[-40.462737992000015,-17.928212363999894],[-40.345521799999965,-17.923782027999966],[-40.25535480899995,-17.971799425999944],[-40.263547467999956,-17.922023348999936],[-40.212657664,-17.895794132999985],[-40.17412729099991,-17.851561215999965],[-40.218075669999926,-17.795659047999965],[-40.21383728099998,-17.75243593299992],[-40.29551470199994,-17.699493596999947],[-40.334049023,-17.63214844999995],[-40.39681174,-17.62560529099991],[-40.41379215499995,-17.57416629999998],[-40.459226407999985,-17.569492440999976],[-40.49543918099997,-17.486731609999904],[-40.52933732599994,-17.44486289299992],[-40.577470592999916,-17.413618228999947],[-40.597506500999906,-17.42063326099995],[-40.60902514999995,-17.32696837099997],[-40.555081488,-17.28852458699995],[-40.57125266299996,-17.25295800999996],[-40.55386116899992,-17.189030279999926],[-40.57915874599997,-17.148248256999974],[-40.55678553799994,-17.089602019999948],[-40.571666311999905,-17.065881466999908],[-40.54349638999996,-16.982766896999966],[-40.515940246,-16.962715261],[-40.49232685599994,-16.88739871400001],[-40.46038508799993,-16.87845517499996],[-40.417606892000016,-16.89926725199996],[-40.36487739799998,-16.8746222309999],[-40.331523032999975,-16.908027288999925],[-40.28163705099993,-16.901183640999893],[-40.25082927199996,-16.831154649999966],[-40.26912999599991,-16.795759314999934],[-40.323605464,-16.801269173],[-40.33285810499995,-16.769547363],[-40.303001148999954,-16.70368759099997],[-40.298248001999966,-16.652465963999905],[-40.2754900749999,-16.573417672999966],[-40.22981061900001,-16.561444894],[-40.172852937999984,-16.577436767999885],[-40.170353097,-16.524799057999893],[-40.103302747999976,-16.437010341999923],[-40.079409390999935,-16.464229910000014],[-40.045570085999955,-16.42203889199992],[-40.02580672499995,-16.366468094999984],[-39.99006918899994,-16.312180174999966],[-39.96049585699996,-16.321882729000023],[-39.920101683999945,-16.26373936999995],[-39.935740444,-16.243862335999957],[-39.88339060099994,-16.19469300499997],[-39.884275344999956,-16.144893571999983],[-39.85682889099992,-16.113824768],[-39.88392748699995,-16.06598953399999],[-39.957601360999924,-15.992020367999924],[-40.004436507999955,-16.001838195999927],[-40.097358292,-15.90823867199994],[-40.159826183999954,-15.908464876],[-40.173966110999984,-15.870490164999982],[-40.20686255599994,-15.854484408999934],[-40.22944035699993,-15.808697399999936],[-40.377967839999954,-15.818421683999926],[-40.425033808,-15.805708350999979],[-40.46142858299994,-15.753231737],[-40.48412469399995,-15.775796551999974],[-40.561103468999896,-15.80361490599996],[-40.62603121499998,-15.718209658999935],[-40.647029854999964,-15.726658626999921],[-40.700575210999915,-15.66730900099996],[-40.74381409599994,-15.684014960999946],[-40.78033712300002,-15.680198005999966],[-40.8190282699999,-15.646342049999937],[-40.841361053999954,-15.682538247999975],[-40.9025697069999,-15.691842132],[-40.914331725999915,-15.660977553999942],[-40.96312511299997,-15.648400300999974],[-41.006059449999924,-15.713837348999924],[-41.07874787099998,-15.719913119999926],[-41.142530205999975,-15.772047001999976],[-41.21539641299991,-15.737165860999944],[-41.26856173499995,-15.748703969],[-41.33120609799993,-15.744673362999926],[-41.356422744999946,-15.50028613499995],[-41.80071005699998,-15.101097119999949],[-41.872533721999986,-15.116451973999965],[-41.897038791999925,-15.151899317999948],[-41.95343434999998,-15.17566449799995],[-41.994691597,-15.15887450899994],[-42.09606827399998,-15.182442104999936],[-42.15535861599992,-15.097850840999936],[-42.223129539999974,-15.099558933999955],[-42.261986021999945,-15.124421123999952],[-42.37185711799995,-15.073629557999944],[-42.44293921399997,-15.0613197549999],[-42.443598133999956,-15.020646114999945],[-42.5606855,-14.96229723999992],[-42.58558252299995,-14.931602794999908],[-42.620712657999974,-14.943695173],[-42.755137768999965,-14.846421426999932],[-42.79552536299997,-14.837341995],[-42.860662056999935,-14.780591080999947],[-42.897495492999944,-14.761527080999901],[-42.952688161999944,-14.70840228099993],[-43.010947272999914,-14.701662153999937],[-43.03666795299998,-14.683060868999984],[-43.09151584899997,-14.683322267999941],[-43.17495456699991,-14.651054804999983],[-43.24505489299996,-14.656511086999977],[-43.42420404800002,-14.720094949999982],[-43.46127224,-14.746228495000011],[-43.478376790999924,-14.792050955000011],[-43.51116285799998,-14.796574542000016],[-43.58629994899996,-14.75005676799995],[-43.61500008999998,-14.759892582999932],[-43.75551238799994,-14.7008351439999],[-43.84686767799996,-14.672105030999969],[-43.874626522,-14.63676544399993],[-43.87483363,-14.524547110999961],[-43.83196464599994,-14.443007177],[-43.800085262999936,-14.337827248999933],[-43.828386554999916,-14.315692237999897],[-43.961922912,-14.291006792999958],[-43.996590989,-14.265702127999944],[-44.05132932399997,-14.286118878999918],[-44.107285659999924,-14.25912038],[-44.170380265999945,-14.268695016999953],[-44.20912270999999,-14.246671852999935],[-44.34059577999997,-14.249400292999912],[-44.36158872199993,-14.272812581000025],[-44.42860062599998,-14.286635501999942],[-44.48825887299998,-14.328626748999937],[-44.56612389499998,-14.341375145999944],[-44.65887835899995,-14.395757313999944],[-44.72565783899995,-14.457649223999933],[-44.810766094,-14.50310117699992],[-44.869194746999966,-14.593384683999986],[-44.980961935,-14.645629895999921],[-44.99574788599993,-14.667815435999962],[-45.04769383399997,-14.690536972999944],[-45.06507180299996,-14.730865758999965],[-45.09584943699993,-14.752998941999937],[-45.16646244599995,-14.735301047999947],[-45.20557367699995,-14.744738943999955],[-45.318043151,-14.852569457999962],[-45.36397578899997,-14.871695479999989],[-45.410296384999974,-14.923438812999965],[-45.49005153199996,-14.96076267799996],[-45.536103434000026,-14.938126235],[-45.59432045599998,-14.978452471],[-45.624618848,-15.02136849299994],[-45.64997242599997,-15.023802517999982],[-45.673189464999915,-15.077834548999967],[-45.75110945999993,-15.12258217099994],[-45.81166548999997,-15.112837832999979],[-45.87215889399997,-15.158803129999985],[-45.918724730999934,-15.13336965599997],[-45.96061184599993,-15.143930083999955],[-45.98450530299997,-15.195961037999925],[-46.02952368399997,-15.201808335999942],[-46.05811297599997,-15.262741800999944],[-46.09708828899991,-15.243111349999925],[-46.116507078,-15.204820933999983],[-46.04777556699997,-15.163729624999931],[-46.04372018999989,-15.118129571999948],[-45.97500556499991,-15.036877792999945],[-45.966080910999914,-14.965645483999932],[-46.00388000399997,-14.902289796999977],[-46.03948581299992,-14.871976923],[-46.041197874,-14.826494562999901],[-46.00258411699995,-14.79583901699991],[-45.99705793999995,-14.74134140899995],[-46.010516442,-14.662189969999915],[-45.981449088999966,-14.53189786299994],[-46.003997055999974,-14.514589466999936],[-46.000073395999955,-14.446622188999978],[-45.93166528399994,-14.408977130999965],[-45.907155328999956,-14.35518984599998],[-45.94221458099998,-14.343255008999964],[-45.96440328799993,-14.284311275999926],[-45.9954281,-14.256157742999918],[-46.029590910999936,-14.25952949299992],[-46.06040576299996,-14.232700602999913],[-46.06104827199992,-14.195484566999959],[-46.09830528799998,-14.196672641999939],[-46.11629598499995,-14.161603279999966],[-46.18692453700001,-14.15309204199998],[-46.22153010199998,-14.1067597979999],[-46.227680098999905,-14.044261379],[-46.21308837299997,-14.030557787],[-46.220066010999986,-13.97542279999989],[-46.264190331999906,-13.947435088999924],[-46.25683023299995,-13.887175532999905],[-46.23247472399996,-13.848607374999986],[-46.277495100999936,-13.790881452999901],[-46.22293680199993,-13.76540293999998],[-46.254313639,-13.735041661],[-46.25619784899994,-13.684162425999933],[-46.21639791799998,-13.63598573599992],[-46.16274535999995,-13.603642124999968],[-46.19964281700001,-13.572539436999929],[-46.23171923099997,-13.583213627],[-46.24725712099995,-13.521688686999909],[-46.21016477599992,-13.461886511999985],[-46.23196484699996,-13.418584944999932],[-46.19172973699996,-13.409981708999972],[-46.13547311999994,-13.375524241999912],[-46.07333963399995,-13.311368946999966],[-46.10321942899997,-13.25751018999993],[-46.292486944999936,-13.316930098999933],[-46.3055418119999,-13.251663855999904],[-46.299610135,-13.128128629999889],[-46.328975127999975,-13.09977245299999],[-46.301098497999966,-13.074311748999943],[-46.27553375900001,-13.020213308999882],[-46.193811818999926,-12.996752371999918],[-46.12466355999995,-12.95982038499993],[-46.12253674699993,-12.926887419999975],[-46.30481353199995,-12.978464057999926],[-46.37085584099997,-12.987749530999935],[-46.365728659999945,-12.863522794999902],[-46.41798475899998,-12.822436732999929],[-46.432798562999906,-12.929424384999919],[-46.45464987,-12.971152609999912],[-46.750610974999965,-12.96915500699992],[-46.822818168,-13.006789262999927],[-46.856549205,-13.062022046999964],[-46.89412871,-13.054050727999975],[-47.01064995099992,-13.141015407999888],[-47.091478646,-13.17337704499991],[-47.132469488,-13.17805241099995],[-47.154833265999955,-13.210061752999955],[-47.224956544999955,-13.193497393999962],[-47.25237929099998,-13.212608810999935],[-47.28143291199995,-13.264703814999965],[-47.379722734999966,-13.230602537999978],[-47.417199909999944,-13.270832604999914],[-47.45390151299997,-13.251740726999959],[-47.48802307199995,-13.212067830999938],[-47.56497378599997,-13.180334194999919],[-47.56096529999995,-13.124816062999987],[-47.617123333999984,-13.103621947],[-47.64632056999993,-13.12045273799992],[-47.66684621899994,-13.208353243],[-47.63966098399994,-13.26429262099996],[-47.65846249899994,-13.295016562999926],[-47.65013740899999,-13.348780358999921],[-47.62405713000001,-13.376060742999982],[-47.67974837199997,-13.468174782999895],[-47.79822817399994,-13.328984050999946],[-47.82360191199999,-13.311711397999968],[-47.885487718,-13.3202863839999],[-47.937318322999914,-13.290579473999973],[-48.032928946999945,-13.274390163999925],[-48.06245585699999,-13.235721211999927],[-48.07911189999993,-13.28526681399996],[-48.156247788,-13.307912617999893],[-48.165923740999986,-13.18929983000002],[-48.180248982,-13.151996360999938],[-48.23519955599995,-13.176074689999915],[-48.29206882199994,-13.219967931999985],[-48.34174191699995,-13.231667703999914],[-48.38484396699993,-13.264249853999974],[-48.46194148299993,-13.27519315499993],[-48.47702137399993,-13.177995063],[-48.49465383499993,-13.136882476999965],[-48.518813737,-13.140029354999925],[-48.530350480000024,-13.19231803],[-48.553726485999974,-13.204156810999965],[-48.55397577799991,-13.303354273999943],[-48.59986245999998,-13.287985651999943],[-48.588620513,-13.25475462299993],[-48.57591928399991,-13.124159785999954],[-48.6005347,-13.058853531],[-48.669787004999975,-12.995668738999964],[-48.73174605599992,-12.984575089],[-48.73630613499992,-12.921390105999961],[-48.83973005999992,-12.843203421999903],[-48.870312247999976,-12.803261832999944],[-48.975617545999945,-12.956874391999982],[-49.03229670400002,-12.902385785999968],[-49.087846586999916,-12.89069984799994],[-49.07343810499995,-12.855077145999925],[-49.14451579899996,-12.81804728399992],[-49.22364016499998,-12.876855589999945],[-49.28064439599994,-12.970320450999981],[-49.303087513999984,-13.028798270999928],[-49.336128151999965,-13.063222498],[-49.348736467000016,-13.217183591],[-49.339386604999916,-13.253370853999922],[-49.36831590699999,-13.272301371999937],[-49.90923308500001,-12.97486756799998],[-49.97782615599996,-12.940586792999973],[-50.08971384399993,-12.908174681999949],[-50.18517797399993,-12.893638209999967],[-50.22532672399997,-12.860030325999947],[-50.285602799999936,-12.839712973999937],[-50.31077838299993,-12.791606178999935],[-50.295793058999934,-12.710654618],[-50.26843290199993,-12.651748948],[-50.236808945999925,-12.624093885000018],[-50.24476033499995,-12.59747430899992],[-50.20734684999992,-12.571891515999898],[-50.22934779099997,-12.531628713999918],[-50.20579286099995,-12.445206966999898],[-50.305458097,-12.49236947699993],[-50.33149594699992,-12.535483782999943],[-50.36962623799994,-12.558094220999969],[-50.434761348999956,-12.657744510999933],[-50.431574687999984,-12.688409695999923],[-50.478896329999955,-12.71259942199988],[-50.47546723899991,-12.771304582999985],[-50.51054978199991,-12.861556181999987],[-50.523727790999935,-12.971183151999952],[-50.58726914099998,-12.998488208999923],[-50.57084893599992,-13.03420158399998],[-50.610318653,-13.064758848999922],[-50.59455024399996,-13.096701003999964],[-50.60469998499998,-13.191486928999971],[-50.584995496999966,-13.215253457],[-50.60927995099995,-13.318780879999945],[-50.66949317299995,-13.395201060999948],[-50.66394564699996,-13.43495651699996],[-50.71481561699997,-13.491473115999906],[-50.758999752999955,-13.520315307999962],[-50.771585083999966,-13.604500529999939],[-50.80877453099994,-13.697351153999957],[-50.873900593,-13.73447509799993],[-50.855269196999956,-13.757350512999942],[-50.85908549799997,-13.828704848000015],[-50.84064429699994,-13.863788671999941],[-50.84023360499998,-13.923681881999936],[-50.86578530099992,-13.959844535999952],[-50.85618635,-14.019329426999914],[-50.831266216,-14.082830547999912],[-50.84833520699991,-14.114391923999978],[-50.89873133899998,-14.114935503000012],[-50.97695321799993,-14.293537026999967],[-50.96931459399993,-14.335832346999986],[-50.98726757199998,-14.357738780999938],[-50.997867071,-14.41381035099992],[-50.968013703999944,-14.48199710499992],[-50.964229223999986,-14.528297723999959],[-50.993705130999984,-14.570143156999968],[-50.99283551199997,-14.612457913999908],[-51.02665863499995,-14.65935813499991],[-51.03010857899994,-14.709674331999931],[-51.053188507,-14.738881867999929],[-51.044821255999935,-14.792838555999896],[-51.089637502999906,-14.840180531999945],[-51.08710983500002,-14.921348693999956],[-51.144918082,-14.943410624999984],[-51.15704998799997,-14.985611018999965],[-51.21603695799994,-15.022021965999919],[-51.27591131899989,-15.043755055],[-51.30705065899994,-14.980970683999981],[-51.33307900999996,-14.970117329999919],[-51.35957874099992,-15.002399215999915],[-51.430481168,-15.009834677999976],[-51.46200285499997,-15.047979664999964],[-51.534108063,-15.065202161999967],[-51.606134474,-15.162296974999965],[-51.647427087,-15.173462062999974],[-51.668196398999925,-15.232166753999952],[-51.65069931699995,-15.273093512999978],[-51.69146770099992,-15.324914946000021],[-51.66953104399995,-15.374421031999894],[-51.696001833999915,-15.405949139999962],[-51.73185477099997,-15.504045142999932],[-51.7255764289999,-15.54412902999994],[-51.75561339999996,-15.557415435999964],[-51.754048265999955,-15.614957345999922],[-51.767858906999926,-15.653591377999962],[-51.880344552999986,-15.824275799999974],[-51.85146207499997,-15.884356184999913],[-51.836175147999896,-15.982388897999975],[-51.75722214399993,-16.088717696999897],[-51.71790038099992,-16.094388916],[-51.616088281999964,-16.184454349999964],[-51.59737102299992,-16.230371039999945],[-51.55427711399991,-16.227730476999955],[-51.522083766999955,-16.287181840999985],[-51.46603187999992,-16.305666218999946],[-51.45520621099992,-16.32761444699998],[-51.36887743699995,-16.284682922999902],[-51.117988978999946,-16.306561436999942],[-51.066264950999965,-16.306516977999905],[-51.06841726199997,-16.334067137],[-51.028972388999904,-16.36488169499991],[-51.034623758999956,-16.399567879999974],[-50.97605194899997,-16.416981684999907],[-50.96988082799997,-16.501589497999944],[-50.918586933999975,-16.52670225399989],[-50.817400480999915,-16.5103955779999],[-50.79859484999993,-16.532019203],[-50.792253211999956,-16.58181559],[-50.727508180999976,-16.588735244999917],[-50.71200106999997,-16.612919378999944],[-50.60617994399996,-16.635933365999964],[-50.60703816499991,-16.670887866999937],[-50.58383318699999,-16.701994349999936],[-50.60639414799992,-16.726033749999978],[-50.613783000999945,-16.780232417999983],[-50.641020516999916,-16.835019611999922],[-50.576176625999935,-16.84793969000001],[-50.52779515799994,-16.812827082999924],[-50.44909860699997,-16.79718181199995],[-50.429327437999945,-16.753821689999935],[-50.376316897,-16.723757978999974],[-50.35935199100001,-16.74047455899995],[-50.284586529999956,-16.76836418299997],[-50.28290185500001,-16.805376531999947],[-50.30287662399992,-16.858070946999923],[-50.28093549999994,-16.89950043299998],[-50.226960944,-16.908979898999963],[-50.17838691399998,-16.933654312999966],[-50.099982370999925,-16.951041833999945],[-50.070750064,-16.91696048599992],[-50.04271977799989,-16.929510907999976],[-50.03926267099993,-16.965391026999974],[-50.08145199199998,-17.04850718599996],[-50.05470450999995,-17.08458666300002],[-49.990663883,-17.060543295999917],[-49.94961042499996,-17.030309321],[-49.927474884999974,-16.960550486999946],[-49.880402902999975,-16.974206614],[-49.80165002799996,-16.902705378999947],[-49.73884850399994,-16.953627108999978],[-49.64391108099992,-16.957915140999944],[-49.59374180899998,-16.95226646399993],[-49.632576703000026,-17.010734216999932],[-49.60284995199997,-17.065512737999953],[-49.52758627199991,-17.02657000099995],[-49.52015757799997,-17.001011536999986],[-49.48106089899993,-16.98123892899993]]]},"properties":{"CD_MUN":"3100104","NM_MUN":"Abadia dos Dourados","SIGLA":"MG","AREA_KM2":880.461,"auxiliary_":null,"auxiliar_1":null,"REGIAO_MAR":"GO_MG NORTE","BASE_RC":null,"ALLCON_TOT":0}}
]}