{"type":"FeatureCollection", "features": [
{"type":"Feature","geometry":{"type":"MultiPolygon","coordinates":[[[[-46.01855133999992,-10.233604176999975],[-45.97111491899996,-10.358939314999969],[-45.86707087099999,-10.254106436],[-45.744025150999974,-10.239955931999898],[-45.72663916399994,-10.156854762],[-45.60317609399995,-10.107982174999961],[-45.514360556000014,-10.289836598999944],[-45.43032251899996,-10.359463019999957],[-45.40026885799994,-10.463074348999921],[-45.43732817399999,-10.615566336999969],[-45.35821896699998,-10.732207538999958],[-45.24596740999993,-10.8224831069999],[-45.082113256999904,-10.839502941999921],[-44.931217944999986,-10.928756348999933],[-44.808329149999985,-10.86614948299994],[-44.78806191699995,-10.808521575999972],[-44.662782848999974,-10.750561773999987],[-44.57777943099998,-10.62676877099996],[-44.50050515299992,-10.649701880999949],[-44.31454715499996,-10.557362990999906],[-44.26665544199999,-10.62315303499993],[-44.13926402399994,-10.639884323999969],[-44.025843686,-10.475470726999934],[-43.93673482099995,-10.436130285999976],[-43.83692162499992,-10.302204972999949],[-43.75922851599993,-10.074605175999949],[-43.66517311699997,-9.99102796999992],[-43.70903534299996,-9.91321951299998],[-43.664845737999975,-9.823654789999967],[-43.78492181599995,-9.762385011999939],[-43.85258131899993,-9.562138369999982],[-43.78424771699995,-9.454772890999905],[-43.68914379899992,-9.41968275199999],[-43.57902656599998,-9.320390239999963],[-43.43812858699991,-9.266137780999948],[-43.28511738699998,-9.420028022999958],[-43.16152399599994,-9.379250069999987],[-42.98786311499995,-9.4013385129999],[-42.943798292999894,-9.520773283999926],[-42.82055280299996,-9.619230413999933],[-42.590358743999985,-9.498351978999917],[-42.49309177599995,-9.494900445999974],[-42.31607656799998,-9.316612335999928],[-41.972266227,-9.24863813599993],[-41.837965768999936,-9.242272042999975],[-41.730821757999976,-9.027957202999968],[-41.54141013899989,-8.933556714999966],[-41.424266706,-8.802555355999928],[-41.38125153499993,-8.707272368999917],[-41.213542854999936,-8.644155528999917],[-40.97854500999995,-8.398650711999931],[-40.78050655899991,-8.302837182999987],[-40.632840367,-8.13930128299992],[-40.54422205699996,-7.964597073999933],[-40.55486007199997,-7.818430509999938],[-40.67356947599993,-7.761671945999957],[-40.62183032299995,-7.658323847999924],[-40.71529397799997,-7.487954017999918],[-40.54846371299991,-7.392691466],[-40.48973931,-7.118690142999959],[-40.42771767100001,-7.033881107999971],[-40.432166581999965,-6.812977596999886],[-40.476926287999966,-6.7328316749999],[-40.71018275999993,-6.67612954799997],[-40.78766837999998,-6.523780277999919],[-40.78656215399993,-6.305364692],[-40.85222415899993,-6.224220460999916],[-40.845947278,-6.138364351999975],[-40.90394741199994,-6.020876970999964],[-40.90325396099993,-5.632552380999961],[-40.943803417999916,-5.423586335999936],[-40.91171306799996,-5.266653468999976],[-40.92898770899993,-5.171671562],[-41.08192174899995,-5.087632798999984],[-41.24957382699998,-4.869690196999926],[-41.181134412999945,-4.67319285399995],[-41.229330701999984,-4.620094987999984],[-41.11912406600002,-4.306525743999906],[-41.14211316099993,-4.125648525999956],[-41.11316689399997,-4.049789875999963],[-41.220239522999975,-3.941505519999971],[-41.2879359199999,-3.822487019999926],[-41.255432220999936,-3.70326016099996],[-41.34174775599996,-3.680772601999891],[-41.32404927600001,-3.385924076999963],[-41.412317736999974,-3.34069730199996],[-41.255765734,-3.087583798999965],[-41.25795293999996,-3.002774483999957],[-41.340349561,-2.927439201999924],[-41.61253788399996,-2.896496769999906],[-41.8072475019999,-2.730040288999952],[-42.04296240199998,-2.729584243999966],[-42.071260001,-2.687043231999958],[-42.25504007699989,-2.675810873999978],[-42.364784351999965,-2.715445723999963],[-42.562675645,-2.678419985999945],[-42.69643319899991,-2.573755481999967],[-42.82871578399991,-2.543357216999951],[-43.237413116999974,-2.358689583999904],[-43.405420533,-2.335500313999944],[-43.483324227999915,-2.385338736999962],[-43.456617512999976,-2.482622896999906],[-43.624254384999986,-2.510489014999933],[-43.64459941299998,-2.401268144],[-43.62721047399997,-2.251233663999891],[-43.72035889799994,-2.291390078999953],[-43.726800321,-2.386468365999988],[-43.93121952599996,-2.561622268999969],[-44.077571174,-2.742621221999961],[-44.13802114599996,-2.681825699999912],[-44.02392162699994,-2.511968795999984],[-44.031771361,-2.406280088],[-44.30456901699992,-2.487506015],[-44.41044798599993,-2.811412163999947],[-44.424817548999954,-2.943933926999925],[-44.49611750699997,-3.026581452999949],[-44.66251057800001,-3.012940532],[-44.677205957,-2.912241764999962],[-44.53702373399999,-2.544728711999916],[-44.387976322000014,-2.408886809999942],[-44.35790504699996,-2.336858048999929],[-44.39832881599994,-2.215032332999961],[-44.49795367900002,-2.049344753999947],[-44.512705369999956,-1.889080222999922],[-44.61677680899989,-1.758909431999953],[-44.752359533999915,-1.789139545999916],[-44.75820527399998,-1.592084637999989],[-44.903308425,-1.606299083999971],[-44.843487984,-1.47846107],[-44.884769587999976,-1.419367199999982],[-44.989956047999975,-1.512607886999945],[-45.10319298999993,-1.473129226999923],[-45.19802367499992,-1.488425009999936],[-45.26820333399996,-1.598592442999944],[-45.34346912599993,-1.586794076999936],[-45.29906052999994,-1.432782582999934],[-45.37170380099999,-1.397113469999987],[-45.4887991959999,-1.469384576999971],[-45.47592140399993,-1.324838209999918],[-45.587360344999986,-1.270025115999971],[-45.689899302999955,-1.273601417999934],[-45.74242866099995,-1.140604551999985],[-45.86407470699997,-1.211843817999956],[-45.946521791999935,-1.195588226999931],[-46.017989329999956,-1.080527431999961],[-46.13304087599996,-1.210369274999984],[-46.114570377,-1.351941],[-46.17613870799994,-1.477384850999961],[-46.13362724099998,-1.581818316999914],[-46.221191089999905,-1.731278873999962],[-46.21102742899998,-1.831059277999941],[-46.28329692200001,-2.154390115],[-46.43306432999996,-2.300675259999934],[-46.42993704899993,-2.536818499999924],[-46.506848599,-2.61687401899998],[-46.622264787999974,-2.644941061999937],[-46.669613765999976,-2.734604875999977],[-46.59924995899997,-2.795906284999958],[-46.67337627499998,-2.893074140999957],[-46.647429620999965,-2.969811841999942],[-46.722630939999924,-3.159132009999915],[-46.814861276999956,-3.311465858999938],[-46.95632184599995,-3.425877741999948],[-47.03561273099998,-3.573092093999946],[-47.08520511699989,-3.856640015999929],[-47.195186926,-3.985612285999949],[-47.31867807,-4.047626457999925],[-47.372512774,-4.244984031999941],[-47.44204929699995,-4.287425092999939],[-47.58356680999995,-4.522960067999954],[-47.682120281999936,-4.606381182999947],[-47.816153021999966,-4.614728475999961],[-48.373738686999985,-5.052351043999934],[-48.658355386999936,-5.308195372999919],[-48.606131708,-5.336500755999971],[-48.51946023799993,-5.192135489999977],[-48.36390981499996,-5.168380514999932],[-48.176796742,-5.259715289999939],[-48.00120632799995,-5.234253101999947],[-47.872923550999964,-5.272358116],[-47.82754094399994,-5.386588161999981],[-47.744313744999914,-5.38013244499998],[-47.500120459,-5.525604845],[-47.49309424099996,-5.710038436999959],[-47.43106335199993,-5.869210648000021],[-47.44781165699995,-5.996073502999941],[-47.37864385599996,-6.272758322999969],[-47.498644070999966,-6.671231559999988],[-47.507039187999936,-6.872010107999902],[-47.54829352699998,-7.018893611999975],[-47.660374873999984,-7.15136806199995],[-47.745129125999966,-7.162504783999921],[-47.65065584499998,-7.302258541999915],[-47.542897742000015,-7.265383555999936],[-47.47820242299998,-7.336753689999984],[-47.56084097299997,-7.449832132999976],[-47.42432786499997,-7.530356879999953],[-47.317162625999934,-7.704351304999921],[-47.180579383999905,-7.859509603999957],[-47.04579518799996,-8.052764367999963],[-46.88325737599996,-7.964248546999961],[-46.60514970599998,-7.896745048999918],[-46.50121184499991,-7.973213242999986],[-46.465749145999986,-8.072733139],[-46.54399948699998,-8.317435941999971],[-46.77689069099992,-8.368431856999923],[-46.84603098299995,-8.533578620999958],[-46.902255773,-8.58627550299996],[-46.88694928399998,-8.686489758999958],[-46.91814678499996,-8.85699504699998],[-46.99292192999992,-8.878889431999912],[-47.05772741699993,-9.052954453999948],[-46.861117022000016,-9.146422799999918],[-46.81875165299997,-9.303437734999918],[-46.75867433099993,-9.38121750699997],[-46.665975706999966,-9.391918603999958],[-46.57325558299991,-9.47776165799997],[-46.58314544699992,-9.585560323],[-46.64439361199994,-9.740333254999953],[-46.51286719899998,-9.797503439999975],[-46.47289925099997,-9.877440286999981],[-46.445200391999926,-10.077387270999925],[-46.32477882299996,-10.18318858599999],[-46.01855133999992,-10.233604176999975]]],[[[-44.477157899999945,-2.738962914999959],[-44.53634951199998,-2.75386],[-44.63108765299994,-2.98794118999993],[-44.56091826699994,-3.022531249999943],[-44.479020433999956,-2.957860328999971],[-44.477157899999945,-2.738962914999959]]]]},"properties":{"CD_MUN":"2100055","NM_MUN":"Açailândia","SIGLA":"MA","AREA_KM2":5805.159,"auxiliary_":null,"auxiliar_1":null,"REGIAO_MAR":"MA_PI","BASE_RC":null,"ALLCON_TOT":24}}
]}