{"type":"FeatureCollection", "features": [
{"type":"Feature","geometry":{"type":"Polygon","coordinates":[[[-54.68763425799993,-23.832570508999908],[-54.58905563199991,-23.839021695999975],[-54.44013952999997,-23.904276082],[-54.41470056699995,-23.958110165999948],[-54.24946393499994,-24.055901789999957],[-54.101764987999985,-23.951963547999945],[-53.98737853599995,-23.466614869999937],[-53.77596139999998,-23.37533795699992],[-53.63658872899998,-23.125030774999956],[-53.607423502999936,-22.951333467999966],[-53.54682708899993,-22.890096269999972],[-53.329086417999974,-22.765210665999955],[-53.18536640199991,-22.718733736999983],[-53.07380646299997,-22.548857564999967],[-52.998579148,-22.493181287999917],[-52.854761225999894,-22.4391123789999],[-52.798330857999986,-22.378273404],[-52.58693922699999,-22.25675048599994],[-52.48771425699996,-22.21720604299998],[-52.37721795899992,-22.106678218999907],[-52.319019392999984,-21.972131911999924],[-52.1037890769999,-21.746053806999974],[-52.04952035199996,-21.643089111999956],[-52.10229339799996,-21.554840577999954],[-51.92868183299996,-21.45581609699999],[-51.84851446699998,-21.26663839],[-51.87898479399992,-21.14813774299998],[-51.78967094799997,-21.10211951499995],[-51.713695715999926,-20.971458013999964],[-51.623587256999954,-20.944432888999884],[-51.63489922799995,-20.754848353999886],[-51.59414814999998,-20.643847678999947],[-51.5002222749999,-20.56821630799993],[-51.342705350999935,-20.354660119999988],[-51.13241433299997,-20.29553150799993],[-51.06916308599995,-20.25004948399994],[-51.00119113599996,-20.096334780999978],[-51.02091117699993,-19.959087422999975],[-50.99947130299995,-19.90637549999997],[-51.046081810999965,-19.73558291899998],[-50.96294621699997,-19.50057879599992],[-50.93499777799997,-19.467477484999982],[-51.08744001399998,-19.31243253899991],[-51.418069494999955,-19.172878767999944],[-51.592211967999916,-19.12678742699999],[-51.651604002999925,-19.135999142999935],[-51.897086577999936,-18.99448504899995],[-52.07935886599994,-18.951088548999948],[-52.18735376899996,-18.845875431999968],[-52.30514071199998,-18.84043983399991],[-52.44802564199997,-18.691966545999925],[-52.53154927099992,-18.657480693],[-52.588721485999926,-18.686835366],[-52.74810400199989,-18.692055733999933],[-52.91276745899991,-18.64197975799989],[-52.962351359999914,-18.540819703999976],[-52.798512562,-18.414861300999927],[-52.814258969,-18.311297801999924],[-52.935230137999966,-18.296554322999956],[-53.071739586999925,-18.341542537999942],[-53.09965570899992,-18.313619138999968],[-53.14315259999997,-18.084077648999894],[-53.198791634999964,-18.020306144999907],[-53.29190582499994,-17.995865883999915],[-53.46785015999995,-18.034893136999894],[-53.59005187199994,-18.009719709],[-53.774217178999905,-18.000770134999975],[-53.85424699199996,-17.925834317999954],[-53.94963516999997,-17.91290800599997],[-53.941165075999926,-17.840204346999897],[-53.8559091,-17.702717167999946],[-53.70388530399996,-17.661344519999975],[-53.680074905999945,-17.253569711999948],[-53.762826769999904,-17.246601313999985],[-53.97305011599995,-17.47224402999997],[-54.05807710399994,-17.51312931999994],[-54.084692451999956,-17.619034804],[-54.1916302459999,-17.60564908299994],[-54.302420401999925,-17.661660208999894],[-54.38779869999994,-17.631936654999922],[-54.39202914999994,-17.570556514],[-54.50230488599993,-17.48071082099992],[-54.570306613,-17.47336970399994],[-54.7469130329999,-17.519942236],[-54.86086381199995,-17.623853496],[-54.94342442199997,-17.609028363999943],[-55.127255961999936,-17.652722300999955],[-55.48304353899997,-17.478685726999963],[-55.583837990999925,-17.38279765999998],[-56.012037712999984,-17.23668179],[-56.044119322999926,-17.171395114999974],[-56.25134481799991,-17.219023089999972],[-56.33587364799999,-17.289948513999907],[-56.450877607999956,-17.326391599999944],[-56.672520541000026,-17.334575044999987],[-56.73385418,-17.30986017100001],[-56.82440695599997,-17.42307894699998],[-56.87596746299992,-17.53297218699995],[-57.101495464,-17.772186335999915],[-57.225243501999955,-17.78284290599995],[-57.48527439599995,-17.862228093999963],[-57.609308838999965,-17.797541499999934],[-57.68461313099992,-17.716481508],[-57.712139024999956,-17.543133807999975],[-57.79080723299998,-17.58666461399999],[-57.730966953999925,-17.718772326],[-57.72066728999994,-17.827859945999922],[-57.60011199799992,-18.046367254999982],[-57.574864554999934,-18.131887333999916],[-57.505140605999934,-18.20034155599993],[-57.55783442499995,-18.24034852199997],[-57.76667530799992,-18.899285322],[-57.71983738300001,-18.899065379],[-57.71020333399994,-19.03259323],[-57.78444573299996,-19.033901312999966],[-58.13181868699992,-19.75849741399994],[-57.85815172299992,-19.97141679199995],[-58.149353947999955,-20.15168557899992],[-58.07319028399995,-20.38798807699994],[-57.99855999199998,-20.455563625],[-58.01312827899993,-20.60829639899998],[-57.91367485499991,-20.670764075999912],[-57.859396870999916,-20.82485572799989],[-57.88653114299997,-20.908646451],[-57.81752948299996,-20.980582469999973],[-57.86635982499996,-21.039272567999898],[-57.854735782,-21.316871827999915],[-57.96048756399996,-21.50992083199995],[-57.94324280099998,-21.62856594999992],[-57.88323351099997,-21.68906738599997],[-57.95983800999995,-21.853169478999988],[-57.93699533199998,-21.92792058],[-57.99203005099997,-22.09046364299999],[-57.80523146599991,-22.15005026200002],[-57.69110927499998,-22.088396359999916],[-57.612966365,-22.11040884799994],[-57.58076627199992,-22.17533699199988],[-57.389413407999896,-22.204868045999913],[-57.325501559999935,-22.23896847799992],[-57.21386735499998,-22.224516562999916],[-57.100980594999946,-22.248778942999934],[-56.996712513,-22.22251735599997],[-56.88824666499991,-22.245305958999904],[-56.84396315399997,-22.301054191999956],[-56.68346529300001,-22.220951151999966],[-56.556091195999976,-22.195515669999963],[-56.518919023,-22.10871375899993],[-56.39242786299994,-22.080006637999947],[-56.34624919399995,-22.187961347999927],[-56.21261815299994,-22.275837167],[-56.009031334000014,-22.293296700999985],[-55.84312653899996,-22.2871093869999],[-55.74870556399995,-22.383417503],[-55.723646743999936,-22.551782327999934],[-55.62515789899997,-22.62825289499993],[-55.620152870999924,-22.753363412999903],[-55.66585470399998,-22.852462104999972],[-55.595823496999955,-23.119467734999922],[-55.523281179,-23.197786984999937],[-55.55591254399996,-23.31632310199995],[-55.504480706,-23.378469762999963],[-55.544694354999905,-23.449331696999977],[-55.530427798999966,-23.62782155599993],[-55.474673938999985,-23.650469911999984],[-55.43017963899992,-23.790141214999906],[-55.44633532700003,-23.916931499999947],[-55.34932886099996,-23.993550537999973],[-55.235372965999936,-24.00662195299997],[-55.062331482999944,-23.993288625999973],[-54.68763425799993,-23.832570508999908]]]},"properties":{"CD_MUN":"5000203","NM_MUN":"Água Clara","SIGLA":"MS","AREA_KM2":7781.558,"auxiliary_":null,"auxiliar_1":null,"REGIAO_MAR":"MS","BASE_RC":null,"ALLCON_TOT":2}}
]}