{"type":"FeatureCollection", "features": [
{"type":"Feature","geometry":{"type":"Polygon","coordinates":[[[-56.73062362399996,-17.309335874999974],[-56.672520541000026,-17.334575044999987],[-56.450877607999956,-17.326391599999944],[-56.33587364799999,-17.289948513999907],[-56.25134481799991,-17.219023089999972],[-56.044119322999926,-17.171395114999974],[-56.012037712999984,-17.23668179],[-55.71967274599993,-17.34885973199992],[-55.53098154799996,-17.328302692999973],[-55.43359397999998,-17.371336703999916],[-55.360872649999955,-17.36029594499998],[-55.22045721300002,-17.267598073999988],[-55.02448545899991,-17.103302455999945],[-54.94719822399993,-17.107450729999982],[-54.93216831399998,-16.904234548],[-54.88692232299998,-16.83596981699994],[-54.94287589499997,-16.752615288999948],[-54.96989066899991,-16.470641038999965],[-55.200073441000015,-16.453498811999943],[-55.303086807999975,-15.897471573],[-55.302632451999955,-15.853813262999914],[-55.41317759799995,-15.761749330999972],[-55.44249150399995,-15.613204669999945],[-55.40354216599994,-15.50920474099998],[-55.306091873999925,-15.515825935999903],[-55.26599442399995,-15.403562625999943],[-55.33378506299995,-15.35313647099997],[-55.16921612299994,-15.205489224999944],[-55.09860742099992,-15.10607962599991],[-54.84375795399991,-15.066481976999988],[-54.647565997999976,-14.91575485699995],[-54.498329048999956,-14.863030571999989],[-54.50637592999989,-14.783910415999966],[-54.33751067999994,-14.732816741],[-54.39870397299995,-14.531796910999937],[-54.44985705099994,-14.484608635],[-54.54998579599996,-14.476404830999954],[-54.595941722,-14.398546024999934],[-54.772195218,-14.321537671999938],[-54.9268023,-14.091596734999943],[-54.91105232099997,-13.96579548899993],[-54.97509313499995,-13.926854419999888],[-55.08510993299993,-13.663392353999946],[-55.17034116599994,-13.353502528000014],[-55.24120795399991,-13.354698574999944],[-55.32362296299997,-13.254475696999943],[-55.29534059399996,-13.123358041999964],[-55.34474320099997,-13.086063242999977],[-55.351465171999976,-12.994954050999983],[-55.43941852999998,-12.89254343699998],[-55.39696874899997,-12.796560066999927],[-55.23201825599992,-12.598638055999931],[-55.157145730999986,-12.576249665999981],[-55.07161881900002,-12.366725964999912],[-55.137745464,-12.214001191999966],[-55.05644119299993,-12.15416270899997],[-55.012670302999936,-12.245539798000014],[-54.93159480299995,-12.13019728499992],[-54.802284215000014,-12.117879155999987],[-54.486348633,-12.00222365199993],[-54.40130387699995,-11.995368296],[-54.312092689999965,-11.87624496399998],[-54.473937571,-11.884710835999943],[-54.56012424099994,-11.861658584999955],[-54.67243362599998,-11.666543084999912],[-54.72737722999998,-11.651257479999941],[-54.73100976899998,-11.538964377999914],[-54.70168192999998,-11.452455800999903],[-54.70199396099994,-11.267120864999978],[-54.620600863999975,-11.180964032999938],[-54.67378714999997,-11.115756148999942],[-54.893671038999976,-10.968514285999973],[-54.810355819999955,-10.894463298999977],[-54.71874701699992,-10.720312935999985],[-54.58314867800002,-10.596329540999925],[-54.429313602999954,-10.542551728000014],[-54.351081798999985,-10.455198585999934],[-54.245919972999985,-10.433293971999955],[-54.077557,-10.450304],[-53.92492089999996,-10.564833499999935],[-53.659114299999914,-10.51580719999988],[-53.319291005999965,-10.643165317999923],[-53.12697629999994,-10.773952199999979],[-53.08433912199996,-10.710485499999987],[-53.08300700299996,-10.499757291],[-53.02143995499995,-10.322828935999926],[-52.958926192999925,-10.302457043999933],[-52.97940323999992,-10.056100005999955],[-52.776001580999946,-9.83252033699996],[-52.65702390599991,-9.781938142999955],[-52.619354665999936,-9.68224643799994],[-53.58844280299994,-9.6110503049999],[-54.613454077,-9.53582622599992],[-55.37789562999997,-9.474291551],[-55.89221360799998,-9.432214658999936],[-56.67188268199992,-9.367396943999982],[-56.77232361899993,-9.390959299999988],[-56.820108799999964,-9.246340380999971],[-57.100450296999945,-9.216542318999963],[-57.081324168,-9.392767825999968],[-57.132082284,-9.416760785999898],[-57.02000091899998,-9.54238162],[-56.94156201899993,-9.593779518999987],[-56.853036476999925,-9.815589958999968],[-56.94125330399997,-9.949255824999934],[-56.903665814999925,-10.041385852999927],[-56.96202534599994,-10.114231284999917],[-56.9310654029999,-10.276058624999926],[-56.97922754499995,-10.36064321],[-56.869612168999964,-10.373965500999969],[-56.717035524000025,-10.498269913999945],[-56.782417031,-10.56922863599997],[-56.80294245399999,-10.781663215000012],[-56.73225158099992,-10.865519894999984],[-56.786673191,-10.983584291999957],[-56.93425616999994,-10.942402853],[-57.07479386499996,-10.994043010999963],[-57.025831484999955,-11.055248153999973],[-57.02028475799993,-11.14125943899996],[-57.114742527999965,-11.309192575999969],[-57.186461224,-11.316444930999978],[-57.31906079099993,-11.24878845699989],[-57.40487933999995,-11.292923315999968],[-57.55661919799994,-11.326086027000013],[-57.410390749999976,-11.478610892999939],[-57.442904235999954,-11.563586738999962],[-57.4102459709999,-11.655272079999932],[-57.39706021799995,-11.83987793299993],[-57.43102832499993,-11.864282557],[-57.42297448999995,-12.055336509999979],[-57.459932017000014,-12.095320380999972],[-57.54355231799997,-12.066256005999918],[-57.72342590499992,-12.198644134999945],[-57.641225229000014,-12.25950082599999],[-57.62590384199992,-12.34086171499996],[-57.44134886799996,-12.46618595599994],[-57.441509347,-12.578383446999961],[-57.37043987699997,-12.851319578999973],[-57.292739517,-12.925923463999975],[-57.327115617,-13.044256969999921],[-57.48657570299997,-13.15633670899997],[-57.61880249999997,-13.340844021999896],[-57.629976524000014,-13.411762256999946],[-57.56785703499993,-13.451981367999952],[-57.543167362,-13.582043352999982],[-57.357386361999936,-13.551988864999895],[-57.502468099999966,-13.788880870999929],[-57.628139482999984,-13.963441191],[-57.69096408199996,-14.087494465999981],[-57.68536609599997,-14.211445604999948],[-57.734988810999894,-14.289841313999982],[-57.669066013,-14.556111638999933],[-57.503822777999964,-14.439815427999978],[-57.432298510999956,-14.493743210999952],[-57.329670210999964,-14.49646451499996],[-57.282744689999916,-14.556531087999911],[-57.17448394900002,-14.54029975999994],[-57.057814091999965,-14.586873943999965],[-57.16973915899992,-14.664515644999963],[-57.41020335799993,-14.702756823999916],[-57.437337067999934,-14.740251466999919],[-57.662541764,-14.753877668],[-57.72434333499998,-14.785062702999916],[-57.747933474999975,-14.912746201999969],[-57.627710145999984,-14.925178955999971],[-57.495178518999985,-14.877678031999917],[-57.315193814999986,-14.956610223999931],[-57.23320394699993,-14.819312594999943],[-57.14873243799998,-14.801734340999904],[-57.077979047999975,-14.916515467999911],[-57.001035193,-14.890667002999933],[-56.92696496299991,-14.93663647499993],[-56.80635582999997,-15.105412091999924],[-56.814085174999924,-15.157926822999954],[-56.96670728,-15.35874787699992],[-57.138275096,-15.232629234999937],[-57.23608117299996,-15.26776145399996],[-57.296294344999964,-15.336338977999961],[-57.32075108799998,-15.465630046999976],[-57.44896790099993,-15.571839650999983],[-57.51717194199994,-15.71684403599992],[-57.45079920800002,-15.754846117999897],[-57.349396983999966,-15.725222663999947],[-57.312219462,-15.810042827999968],[-57.22479700599996,-15.85087516999991],[-57.00874289599993,-15.741468396999956],[-57.00745397899995,-15.803708435999972],[-57.15350716899998,-16.00081439699995],[-57.125674528999966,-16.140411288999932],[-57.071739978999965,-16.26786166099997],[-57.07560648899996,-16.419433449999907],[-57.15123346899997,-16.434729792999967],[-57.188015852999925,-16.527753434],[-57.40294778699992,-16.638169782],[-57.404955348999934,-16.73710047799993],[-57.36340392999992,-16.823033862999957],[-57.432288618999934,-16.9205659739999],[-57.37819657899996,-17.020821354999924],[-57.39818870799997,-17.060283115999972],[-57.33464102499994,-17.207155150999895],[-57.33759530499995,-17.358706181999892],[-57.426355289,-17.41874579300001],[-57.500778485999966,-17.535586628],[-57.67776865799991,-17.604982101],[-57.68461313099992,-17.716481508],[-57.609308838999965,-17.797541499999934],[-57.48527439599995,-17.862228093999963],[-57.225243501999955,-17.78284290599995],[-57.101495464,-17.772186335999915],[-56.87596746299992,-17.53297218699995],[-56.82440695599997,-17.42307894699998],[-56.73062362399996,-17.309335874999974]]]},"properties":{"CD_MUN":"5100102","NM_MUN":"Acorizal","SIGLA":"MT","AREA_KM2":850.763,"auxiliary_":null,"auxiliar_1":null,"REGIAO_MAR":"MT CENTRO","BASE_RC":null,"ALLCON_TOT":0}}
]}