{"type":"FeatureCollection", "features": [
{"type":"Feature","geometry":{"type":"Polygon","coordinates":[[[-53.683529561999975,-17.252168021999967],[-53.70388530399996,-17.661344519999975],[-53.79882717299991,-17.67053488799993],[-53.8559091,-17.702717167999946],[-53.941165075999926,-17.840204346999897],[-53.94963516999997,-17.91290800599997],[-53.85424699199996,-17.925834317999954],[-53.774217178999905,-18.000770134999975],[-53.69271881299993,-18.006920141],[-53.65204341,-17.976328730999978],[-53.59005187199994,-18.009719709],[-53.46785015999995,-18.034893136999894],[-53.435048805999955,-17.98458274699991],[-53.380771189,-18.00875716399993],[-53.29190582499994,-17.995865883999915],[-53.17432596299991,-18.04159823999992],[-53.073509091999966,-18.03451059999995],[-53.07131502999997,-17.965913215999905],[-53.125050242,-17.917530118999956],[-53.15999249299993,-17.774894871999933],[-53.233789234999946,-17.71303738499995],[-53.24845381799996,-17.62729167299991],[-53.23139341899996,-17.440433035999945],[-53.197229143999905,-17.378302346999916],[-53.20915849499991,-17.316011992],[-53.11074498499997,-17.108140308000017],[-53.05496085399996,-17.06442086299994],[-53.054516867,-16.968441280999933],[-53.014627035999965,-16.862248131999955],[-52.95602055399995,-16.861503249999963],[-52.88506480999999,-16.777026377999924],[-52.837244176999945,-16.77189689299997],[-52.72602161599995,-16.614496631999973],[-52.625726190999984,-16.53220907299989],[-52.606078286999946,-16.486024152],[-52.64101418799997,-16.41572806599992],[-52.692723488999974,-16.366421352999936],[-52.65923885499994,-16.280652045999986],[-52.54595398,-16.259667239999906],[-52.54916590899994,-16.16499546899993],[-52.32849834899993,-16.070403395999975],[-52.254139708999965,-15.893266615999977],[-52.19486847499992,-15.880935506999947],[-52.009533213999966,-15.88581152499998],[-51.94845492199997,-15.81009842099995],[-51.882670109999935,-15.828485287999925],[-51.767858906999926,-15.653591377999962],[-51.75561339999996,-15.557415435999964],[-51.696001833999915,-15.405949139999962],[-51.69146770099992,-15.324914946000021],[-51.65069931699995,-15.273093512999978],[-51.647427087,-15.173462062999974],[-51.606134474,-15.162296974999965],[-51.534108063,-15.065202161999967],[-51.46200285499997,-15.047979664999964],[-51.430481168,-15.009834677999976],[-51.30705065899994,-14.980970683999981],[-51.27591131899989,-15.043755055],[-51.15704998799997,-14.985611018999965],[-51.144918082,-14.943410624999984],[-51.08710983500002,-14.921348693999956],[-51.089637502999906,-14.840180531999945],[-51.044821255999935,-14.792838555999896],[-51.053188507,-14.738881867999929],[-50.964229223999986,-14.528297723999959],[-50.997867071,-14.41381035099992],[-50.97695321799993,-14.293537026999967],[-50.89873133899998,-14.114935503000012],[-50.831266216,-14.082830547999912],[-50.86578530099992,-13.959844535999952],[-50.84023360499998,-13.923681881999936],[-50.855269196999956,-13.757350512999942],[-50.80877453099994,-13.697351153999957],[-50.771585083999966,-13.604500529999939],[-50.758999752999955,-13.520315307999962],[-50.66394564699996,-13.43495651699996],[-50.66949317299995,-13.395201060999948],[-50.60927995099995,-13.318780879999945],[-50.584995496999966,-13.215253457],[-50.60469998499998,-13.191486928999971],[-50.57084893599992,-13.03420158399998],[-50.523727790999935,-12.971183151999952],[-50.499574287999955,-12.87950994399992],[-50.625359464999974,-12.8000194859999],[-50.622961849,-12.734638545999886],[-50.70648878499996,-12.609701005000016],[-50.623573665,-12.455283798000014],[-50.648915456999895,-12.29908963499998],[-50.681377293999944,-12.216949710999945],[-50.667622741999914,-12.06456020999994],[-50.68223801600002,-11.990887565999984],[-50.63928820799994,-11.884566500999902],[-50.686304518999954,-11.85899541799996],[-50.721591475,-11.731712636999934],[-50.66370211999997,-11.677527273999964],[-50.65692589400001,-11.600858319999894],[-50.738935239999904,-11.544511594999971],[-50.728511103999914,-11.382565940999942],[-50.67132656299995,-11.286741354999972],[-50.664481443999975,-11.151598890999956],[-50.60945742599998,-11.067445653999961],[-50.63261929199997,-10.931861499],[-50.60078912299996,-10.900683776999962],[-50.61219838499993,-10.810321464999948],[-50.57058773299998,-10.752504128999938],[-50.60289775,-10.658233979999974],[-50.51972930699995,-10.56247864299996],[-50.482620474999976,-10.490038607999939],[-50.47372544499994,-10.404905493999959],[-50.423066561,-10.327441657999934],[-50.38195272199994,-10.212114993999908],[-50.39825808599991,-10.155469745999977],[-50.33984106499993,-10.060938188999966],[-50.3026455039999,-10.035411317999952],[-50.26552961299997,-9.91268265599997],[-50.224806381999905,-9.841153477],[-50.84598729499998,-9.800636807999972],[-51.30428726799991,-9.772859970999956],[-51.72426733199995,-9.744563376999924],[-52.61925933299995,-9.682253149999962],[-52.65702390599991,-9.781938142999955],[-52.776001580999946,-9.83252033699996],[-52.79873918999993,-9.88035594],[-52.86015211999999,-9.922008375999933],[-52.919150153,-10.003708874999937],[-52.97940323999992,-10.056100005999955],[-53.00333573099991,-10.132991956999913],[-52.97896307,-10.170395105999983],[-52.958926192999925,-10.302457043999933],[-53.02143995499995,-10.322828935999926],[-53.045941135,-10.364177276999929],[-53.08300700299996,-10.499757291],[-53.08573032199996,-10.569976495999942],[-53.05240240999993,-10.609619149999947],[-53.09327965299994,-10.653173711999973],[-53.08433912199996,-10.710485499999987],[-53.12697629999994,-10.773952199999979],[-53.319291005999965,-10.643165317999923],[-53.659114299999914,-10.51580719999988],[-53.92492089999996,-10.564833499999935],[-53.973078799999925,-10.51810449999989],[-54.03683929999998,-10.495723],[-54.077557,-10.450304],[-54.245919972999985,-10.433293971999955],[-54.351081798999985,-10.455198585999934],[-54.429313602999954,-10.542551728000014],[-54.58314867800002,-10.596329540999925],[-54.62797819599993,-10.651925654999914],[-54.71874701699992,-10.720312935999985],[-54.751289174999954,-10.805525356999954],[-54.810355819999955,-10.894463298999977],[-54.893671038999976,-10.968514285999973],[-54.7584527339999,-11.049968913999972],[-54.67378714999997,-11.115756148999942],[-54.620600863999975,-11.180964032999938],[-54.70199396099994,-11.267120864999978],[-54.70168192999998,-11.452455800999903],[-54.73100976899998,-11.538964377999914],[-54.712876654999945,-11.569845161999979],[-54.72737722999998,-11.651257479999941],[-54.67243362599998,-11.666543084999912],[-54.64093090799997,-11.714170407999944],[-54.576733265999984,-11.679959589999953],[-54.595252989999935,-11.779365460999944],[-54.56012424099994,-11.861658584999955],[-54.473937571,-11.884710835999943],[-54.312092689999965,-11.87624496399998],[-54.33123635199994,-11.935705447999965],[-54.40130387699995,-11.995368296],[-54.486348633,-12.00222365199993],[-54.653803299999936,-12.069570710999908],[-54.70816408699994,-12.064017635999988],[-54.802284215000014,-12.117879155999987],[-54.93159480299995,-12.13019728499992],[-54.973280061999944,-12.165117958999936],[-55.012670302999936,-12.245539798000014],[-55.05644119299993,-12.15416270899997],[-55.137745464,-12.214001191999966],[-55.07161881900002,-12.366725964999912],[-55.100175523,-12.472483761000017],[-55.157145730999986,-12.576249665999981],[-55.23201825599992,-12.598638055999931],[-55.39696874899997,-12.796560066999927],[-55.37689520999997,-12.856220753999956],[-55.43941852999998,-12.89254343699998],[-55.351465171999976,-12.994954050999983],[-55.34474320099997,-13.086063242999977],[-55.29534059399996,-13.123358041999964],[-55.32282300799995,-13.185707995999927],[-55.32362296299997,-13.254475696999943],[-55.24120795399991,-13.354698574999944],[-55.17034116599994,-13.353502528000014],[-55.08510993299993,-13.663392353999946],[-55.09855617099994,-13.697362461999916],[-55.04597213299995,-13.750184321999956],[-54.97509313499995,-13.926854419999888],[-54.91105232099997,-13.96579548899993],[-54.9268023,-14.091596734999943],[-54.87061585199992,-14.168334781999956],[-54.875947687999926,-14.216807129999918],[-54.81797791199991,-14.249888821999921],[-54.772195218,-14.321537671999938],[-54.70862605799997,-14.320191128],[-54.680690614999975,-14.377034484999971],[-54.595941722,-14.398546024999934],[-54.54998579599996,-14.476404830999954],[-54.44985705099994,-14.484608635],[-54.39870397299995,-14.531796910999937],[-54.3755844789999,-14.628487650999986],[-54.330469912999945,-14.640109150999923],[-54.33751067999994,-14.732816741],[-54.40189860399995,-14.76357582399995],[-54.50637592999989,-14.783910415999966],[-54.498329048999956,-14.863030571999989],[-54.647565997999976,-14.91575485699995],[-54.736751553999966,-14.971085873999943],[-54.84375795399991,-15.066481976999988],[-54.90968028899996,-15.066827723999907],[-55.09860742099992,-15.10607962599991],[-55.16921612299994,-15.205489224999944],[-55.33378506299995,-15.35313647099997],[-55.26599442399995,-15.403562625999943],[-55.306091873999925,-15.515825935999903],[-55.34385094199996,-15.485861489999895],[-55.40354216599994,-15.50920474099998],[-55.44249150399995,-15.613204669999945],[-55.41317759799995,-15.761749330999972],[-55.302632451999955,-15.853813262999914],[-55.303086807999975,-15.897471573],[-55.200073441000015,-16.453498811999943],[-55.04758226199995,-16.45145754799998],[-55.01696500799993,-16.512573405999973],[-54.96989066899991,-16.470641038999965],[-54.956717430999916,-16.68455359],[-54.94287589499997,-16.752615288999948],[-54.89793661899995,-16.777051198000024],[-54.88692232299998,-16.83596981699994],[-54.93216831399998,-16.904234548],[-54.94719822399993,-17.107450729999982],[-55.02448545899991,-17.103302455999945],[-55.14785790099996,-17.190652246999925],[-55.22045721300002,-17.267598073999988],[-55.360872649999955,-17.36029594499998],[-55.43359397999998,-17.371336703999916],[-55.53098154799996,-17.328302692999973],[-55.59072269599998,-17.352207787999916],[-55.58864177799993,-17.41381670699994],[-55.51503289399992,-17.48362132199995],[-55.48304353899997,-17.478685726999963],[-55.127255961999936,-17.652722300999955],[-54.94342442199997,-17.609028363999943],[-54.86086381199995,-17.623853496],[-54.75878091799997,-17.565696416999952],[-54.7469130329999,-17.519942236],[-54.570306613,-17.47336970399994],[-54.50230488599993,-17.48071082099992],[-54.468718253,-17.52719152999994],[-54.39202914999994,-17.570556514],[-54.38779869999994,-17.631936654999922],[-54.302420401999925,-17.661660208999894],[-54.1916302459999,-17.60564908299994],[-54.084692451999956,-17.619034804],[-54.051633021000015,-17.562770087999944],[-54.05807710399994,-17.51312931999994],[-53.97305011599995,-17.47224402999997],[-53.869438806999895,-17.369191444999963],[-53.820072736999975,-17.294615653999887],[-53.762826769999904,-17.246601313999985],[-53.683529561999975,-17.252168021999967]]]},"properties":{"CD_MUN":"5100201","NM_MUN":"Água Boa","SIGLA":"MT","AREA_KM2":7549.308,"auxiliary_":null,"auxiliar_1":null,"REGIAO_MAR":"MT LESTE","BASE_RC":null,"ALLCON_TOT":17}}
]}