{"type":"FeatureCollection", "features": [
{"type":"Feature","geometry":{"type":"Polygon","coordinates":[[[-59.46919283699998,-16.279579554999977],[-58.43047135399992,-16.321294987999977],[-58.365723395999964,-16.273340758999986],[-58.303110886999946,-16.307686600999958],[-58.30714209099998,-16.370189958],[-58.356252,-16.42804735199995],[-58.343858240999964,-16.51772665599994],[-58.436088248999965,-16.59235832900002],[-58.46310909299996,-16.65221948999994],[-58.47450728299998,-16.914486826999973],[-58.43150475999998,-16.990819831999957],[-58.43414327499998,-17.08660749799998],[-58.39700151299995,-17.181551090999978],[-58.12073004800002,-17.44763943599997],[-58.060144226,-17.450720972999942],[-57.996366996999896,-17.51560331],[-57.883442069,-17.44954203],[-57.752294742999965,-17.56446311399996],[-57.67776865799991,-17.604982101],[-57.500778485999966,-17.535586628],[-57.426355289,-17.41874579300001],[-57.33759530499995,-17.358706181999892],[-57.33464102499994,-17.207155150999895],[-57.39818870799997,-17.060283115999972],[-57.37819657899996,-17.020821354999924],[-57.432288618999934,-16.9205659739999],[-57.36340392999992,-16.823033862999957],[-57.404955348999934,-16.73710047799993],[-57.40294778699992,-16.638169782],[-57.33097808299991,-16.61524656999994],[-57.188015852999925,-16.527753434],[-57.15123346899997,-16.434729792999967],[-57.07560648899996,-16.419433449999907],[-57.071739978999965,-16.26786166099997],[-57.125674528999966,-16.140411288999932],[-57.11655187699993,-16.05748960599996],[-57.15350716899998,-16.00081439699995],[-57.078357994999976,-15.880755052999938],[-57.00745397899995,-15.803708435999972],[-57.00874289599993,-15.741468396999956],[-57.22479700599996,-15.85087516999991],[-57.312219462,-15.810042827999968],[-57.349396983999966,-15.725222663999947],[-57.45079920800002,-15.754846117999897],[-57.51717194199994,-15.71684403599992],[-57.43813781200002,-15.606689330999899],[-57.44896790099993,-15.571839650999983],[-57.32075108799998,-15.465630046999976],[-57.296294344999964,-15.336338977999961],[-57.23608117299996,-15.26776145399996],[-57.138275096,-15.232629234999937],[-57.06061861099993,-15.270289094999931],[-56.96670728,-15.35874787699992],[-56.814085174999924,-15.157926822999954],[-56.80635582999997,-15.105412091999924],[-56.85892184299998,-15.01333310599998],[-56.92390698499993,-15.010028745999957],[-56.92696496299991,-14.93663647499993],[-57.001035193,-14.890667002999933],[-57.077979047999975,-14.916515467999911],[-57.14873243799998,-14.801734340999904],[-57.23320394699993,-14.819312594999943],[-57.315193814999986,-14.956610223999931],[-57.43007955599994,-14.922009108999887],[-57.495178518999985,-14.877678031999917],[-57.627710145999984,-14.925178955999971],[-57.747933474999975,-14.912746201999969],[-57.76448423999991,-14.859716393999953],[-57.72434333499998,-14.785062702999916],[-57.662541764,-14.753877668],[-57.54766876099994,-14.758914086999972],[-57.437337067999934,-14.740251466999919],[-57.41020335799993,-14.702756823999916],[-57.292092606999944,-14.681797413999984],[-57.23756921099998,-14.644442506],[-57.16973915899992,-14.664515644999963],[-57.057814091999965,-14.586873943999965],[-57.17448394900002,-14.54029975999994],[-57.282744689999916,-14.556531087999911],[-57.329670210999964,-14.49646451499996],[-57.432298510999956,-14.493743210999952],[-57.503822777999964,-14.439815427999978],[-57.626103304,-14.544055982999957],[-57.669066013,-14.556111638999933],[-57.734988810999894,-14.289841313999982],[-57.68536609599997,-14.211445604999948],[-57.69096408199996,-14.087494465999981],[-57.628139482999984,-13.963441191],[-57.502468099999966,-13.788880870999929],[-57.357386361999936,-13.551988864999895],[-57.543167362,-13.582043352999982],[-57.56785703499993,-13.451981367999952],[-57.629976524000014,-13.411762256999946],[-57.61880249999997,-13.340844021999896],[-57.51933605299995,-13.223882991],[-57.48657570299997,-13.15633670899997],[-57.327115617,-13.044256969999921],[-57.292739517,-12.925923463999975],[-57.37043987699997,-12.851319578999973],[-57.41045453699993,-12.767106920999947],[-57.39633428799992,-12.71169666799997],[-57.441509347,-12.578383446999961],[-57.44134886799996,-12.46618595599994],[-57.494371461,-12.412833292999945],[-57.62590384199992,-12.34086171499996],[-57.641225229000014,-12.25950082599999],[-57.72342590499992,-12.198644134999945],[-57.61493573399996,-12.10173768699999],[-57.54355231799997,-12.066256005999918],[-57.459932017000014,-12.095320380999972],[-57.42297448999995,-12.055336509999979],[-57.43102832499993,-11.864282557],[-57.39706021799995,-11.83987793299993],[-57.4102459709999,-11.655272079999932],[-57.442904235999954,-11.563586738999962],[-57.410390749999976,-11.478610892999939],[-57.55661919799994,-11.326086027000013],[-57.40487933999995,-11.292923315999968],[-57.31906079099993,-11.24878845699989],[-57.186461224,-11.316444930999978],[-57.114742527999965,-11.309192575999969],[-57.05083232999996,-11.252615049999957],[-57.07637282899995,-11.210718733999911],[-57.02028475799993,-11.14125943899996],[-57.025831484999955,-11.055248153999973],[-57.07479386499996,-10.994043010999963],[-56.97188836299995,-10.976573024999912],[-56.93425616999994,-10.942402853],[-56.786673191,-10.983584291999957],[-56.73225158099992,-10.865519894999984],[-56.80294245399999,-10.781663215000012],[-56.782417031,-10.56922863599997],[-56.717035524000025,-10.498269913999945],[-56.869612168999964,-10.373965500999969],[-56.97922754499995,-10.36064321],[-56.9310654029999,-10.276058624999926],[-56.96202534599994,-10.114231284999917],[-56.903665814999925,-10.041385852999927],[-56.94125330399997,-9.949255824999934],[-56.90941542599994,-9.870945739999968],[-56.853036476999925,-9.815589958999968],[-56.94156201899993,-9.593779518999987],[-57.02000091899998,-9.54238162],[-57.132082284,-9.416760785999898],[-57.081324168,-9.392767825999968],[-57.100450296999945,-9.216542318999963],[-57.06135949299995,-9.191624266999963],[-57.039241594,-9.098290013999897],[-57.09460518599993,-9.017111416],[-57.20377417500002,-8.920819818999934],[-57.289478916999954,-8.915827554999964],[-57.416215742999924,-8.858995121],[-57.417504258999955,-8.792608507],[-57.523002482,-8.749733697999904],[-57.592938920999984,-8.75647697199998],[-57.63342204099999,-8.526810894999901],[-57.68655768999997,-8.407007846999957],[-57.64166889599995,-8.21988153299996],[-57.71874956199998,-8.15122530599993],[-57.73252898499994,-8.0891632949999],[-57.83186459899998,-7.961515910999903],[-57.83502345699995,-7.881408336999893],[-57.87964228999993,-7.781907446999945],[-57.896749021999945,-7.677884549999945],[-58.06136156699992,-7.395191152999967],[-58.12141600399993,-7.351770971999958],[-58.213059953999945,-7.458534734999986],[-58.20217060600001,-7.620854258999952],[-58.27599030199997,-7.699666266999969],[-58.30041835899992,-7.777473825999923],[-58.378219986,-7.827437524999912],[-58.375135512999975,-7.899001267],[-58.29306425199994,-8.070946917],[-58.29016729299995,-8.135600014],[-58.35457748999994,-8.392754145999923],[-58.41780718899996,-8.489519648999941],[-58.38951831499994,-8.594792454999975],[-58.437300573,-8.703352482999946],[-58.32836861099999,-8.712178670999968],[-58.442867869999944,-8.799399102999903],[-58.96284062299994,-8.802847022],[-59.48136305799993,-8.803320905999943],[-60.420180817999935,-8.796622586999945],[-60.83517616999991,-8.79812774799996],[-61.58313478499997,-8.79868905399995],[-61.62646906099997,-8.72885346699995],[-61.74185400599994,-8.69519285999992],[-61.77460562799999,-8.748228934999922],[-61.841249934,-8.739410640999932],[-61.859748620999895,-8.852973303999931],[-61.97913997899997,-8.873244617999951],[-62.031061033,-8.799710094999966],[-62.124971742999975,-8.801671148999954],[-62.183700535999904,-8.598966511999926],[-62.26888851399998,-8.575758583999935],[-62.366051171,-8.493561708999984],[-62.360803499999946,-8.398549285999977],[-62.46547460999993,-8.339739967999957],[-62.51847254899998,-8.384738219999974],[-62.585387865999934,-8.271880624999959],[-62.65500162299997,-8.229056372999963],[-62.69228013499994,-8.092908286999965],[-62.86661657199996,-7.975868297000019],[-63.62124913599995,-7.976531747999935],[-63.62177895699992,-8.029610778999938],[-63.69342106999991,-8.158348705000016],[-63.72276144799997,-8.249498971999945],[-63.79123129199995,-8.333215251999935],[-63.87075937099997,-8.288819631999953],[-63.9441225209999,-8.33118768499995],[-63.94083842099995,-8.45226402399991],[-63.97317719599995,-8.478447178999957],[-63.92456870099991,-8.575525415999916],[-63.98620973499993,-8.585633906999899],[-64.03548210299992,-8.693557650999892],[-64.14306706899994,-8.743031521999942],[-64.15820329299999,-8.84316753099995],[-64.14176693799993,-8.945050737999924],[-64.23320513299997,-8.992308050999984],[-64.3113184699999,-8.996470826999978],[-64.32339962999995,-8.928860604999986],[-64.44657404499996,-8.976870515999966],[-64.5501239339999,-8.97827093099993],[-64.58796100999999,-9.009509904999966],[-64.80782419299997,-8.985551790999988],[-64.87056633499996,-9.012193605999883],[-64.93992979499998,-9.124565832999973],[-64.91968281999993,-9.22028029599998],[-65.00051534199997,-9.304613818999972],[-65.05354596899997,-9.402142251999965],[-65.14288058199995,-9.44681233899992],[-65.24666142999999,-9.257663551999915],[-65.37751339199993,-9.324426069999934],[-65.44021839999996,-9.311745279999926],[-65.45660016899994,-9.401208696],[-65.50316325099993,-9.469975436999931],[-65.58810794299995,-9.413773780999932],[-65.67943521399997,-9.45139289299993],[-65.72996717899998,-9.563072677999926],[-65.80002165499998,-9.585022463],[-65.82507709499998,-9.530091248999959],[-65.91799706999997,-9.47815883399997],[-65.97030062399993,-9.413160123999962],[-66.1238908459999,-9.408779354999961],[-66.17363278399992,-9.434418656999952],[-66.25966878699991,-9.410996520999912],[-66.37477644899994,-9.426366145],[-66.39241433499994,-9.500480146999966],[-66.494916751,-9.60158318299996],[-66.50061335999997,-9.633564154999927],[-66.77536361699998,-9.753091303999959],[-66.8102531119999,-9.818045874999957],[-66.6267196909999,-9.898101245],[-66.47283621400001,-9.868379408999903],[-66.35839264099997,-9.864045276999942],[-66.15202413,-9.785617808999945],[-66.03321953599989,-9.78893376699995],[-65.91896983599999,-9.752673848999969],[-65.82243614099995,-9.767419015999987],[-65.68496939100001,-9.749008087999886],[-65.62369480799994,-9.835979800999937],[-65.51352479599998,-9.79316997599998],[-65.5010191329999,-9.729839066999943],[-65.39160148399993,-9.68763016399988],[-65.35688059899994,-9.720173155999898],[-65.288659195,-9.865726729999977],[-65.33182927199992,-9.930014664999884],[-65.32935696099999,-10.043196421999898],[-65.30057741699997,-10.100908448999988],[-65.28882913699994,-10.219870802999917],[-65.32735726700001,-10.30526803],[-65.39180127399995,-10.374437382999933],[-65.38013371899993,-10.424266657],[-65.429747332,-10.480948481999928],[-65.358336945,-10.65739090699994],[-65.34816982799995,-10.778442546999898],[-65.27555640799997,-10.871160841999892],[-65.25085903699994,-10.984545507999908],[-65.29716710699998,-11.0259720879999],[-65.28888948799995,-11.094252302],[-65.35147072199996,-11.121723844999973],[-65.359855871,-11.25780439599989],[-65.30491927199995,-11.501599987999942],[-65.22897009400002,-11.515630149999954],[-65.217913327,-11.652088594999963],[-65.18297333199997,-11.721703504999912],[-65.090525597,-11.707777411999896],[-65.05972429999993,-11.790678219],[-65.07083582299995,-11.856367335999938],[-65.01886009799993,-11.892085911999981],[-65.02891222299995,-11.997637135999959],[-64.917025742,-12.028383141999974],[-64.839586819,-12.010679252999932],[-64.71294475099995,-12.173579896000017],[-64.55224328799993,-12.241946580999983],[-64.49289191099992,-12.291194948999937],[-64.499413037,-12.367295165999934],[-64.40616761,-12.447048136],[-64.23449167900002,-12.455478692999975],[-64.17388830199997,-12.500575252999955],[-64.0570100099999,-12.492038556],[-63.96336189999998,-12.529698247999885],[-63.78630346699998,-12.427945031],[-63.550490896,-12.508436993999936],[-63.501738476999954,-12.567323591999955],[-63.400947870999964,-12.636210212999952],[-63.295544450999955,-12.68185672399996],[-63.202390622999985,-12.656874921999925],[-63.16447898799994,-12.615720567999986],[-63.054578502,-12.731131547999972],[-63.00709821999996,-12.83959599299994],[-62.92135429299998,-12.84086147999993],[-62.870209856,-12.910617857999949],[-62.80330077499993,-12.945079715999928],[-62.734020566999966,-13.02186675799991],[-62.660687917,-12.969471760999927],[-62.61257254199998,-13.041295362999925],[-62.54715993599993,-13.073993507999901],[-62.44290890699997,-13.079911379999896],[-62.41399128499998,-13.128382062999986],[-62.299349729999975,-13.150552810999958],[-62.2147888219999,-13.111344886999952],[-62.11970908300002,-13.153532827999967],[-62.11568434799999,-13.258465213],[-62.003206092,-13.365412496999927],[-61.88742596999994,-13.440774471999948],[-61.86885265,-13.528222080999939],[-61.75734764599998,-13.540574715999973],[-61.69384413099996,-13.508079742999932],[-61.58562098299997,-13.50062565599993],[-61.46992394099995,-13.555250237999914],[-61.24834405399994,-13.496274093999947],[-61.04115145500002,-13.507710313999919],[-61.005622678999956,-13.550280538999946],[-60.933890874,-13.540709474999932],[-60.87984062099993,-13.617527911999936],[-60.62351617499992,-13.719535107999956],[-60.484235488999985,-13.8488639629999],[-60.417152393,-13.94055063299989],[-60.40604048799995,-14.030345049999902],[-60.48254204799994,-14.134869911999957],[-60.45315880899997,-14.314346262999909],[-60.39329685099999,-14.379524185],[-60.33912605799998,-14.510286375999968],[-60.324099183,-14.602103316],[-60.272147966999974,-14.620292180000014],[-60.244321350999925,-15.096806048999909],[-60.50101961799996,-15.09621949199996],[-60.56501893499997,-15.108683604999982],[-60.23860482699998,-15.473851596999975],[-60.171717137,-16.266106137999934],[-59.46919283699998,-16.279579554999977]]]},"properties":{"CD_MUN":"1100015","NM_MUN":"Alta Floresta D'Oeste","SIGLA":"RO","AREA_KM2":7067.127,"auxiliary_":null,"auxiliar_1":null,"REGIAO_MAR":"MT OESTE_RO","BASE_RC":null,"ALLCON_TOT":4}}
]}