{"type":"FeatureCollection", "features": [
{"type":"Feature","geometry":{"type":"Polygon","coordinates":[[[-44.34539619999997,-12.102712873999941],[-44.34853981399993,-12.080544699999916],[-44.662330079,-11.748269786999952],[-44.753467049999976,-11.865956179],[-44.8198097499999,-11.881607071999909],[-44.92918206300002,-12.007295984999953],[-44.84137305399997,-12.11902062799993],[-44.735519870999966,-12.110797756999911],[-44.70538722099999,-12.168701735999985],[-44.579831965999986,-12.155094242999951],[-44.46605200899995,-12.144082779999952],[-44.443481,-12.092953],[-44.34539619999997,-12.102712873999941]]]},"properties":{"CD_MUN":"2901403","NM_MUN":"Angical","SIGLA":"BA","AREA_KM2":1530.05,"auxiliary_":null,"auxiliar_1":null,"REGIAO_MAR":"BA","BASE_RC":null,"ALLCON_TOT":0}},
{"type":"Feature","geometry":{"type":"Polygon","coordinates":[[[-44.500570528,-12.22227707799993],[-44.542552983999975,-12.28763553499995],[-44.673636059999936,-12.329817737999935],[-44.737851706999905,-12.408843121999933],[-44.715625885999906,-12.518491836999921],[-44.62501647699996,-12.572185837999914],[-44.6105262689999,-12.721709266999923],[-44.55058757699996,-12.942845498999898],[-44.34210616799989,-13.118305388999971],[-44.256177667,-12.981262420999915],[-44.23773619799995,-12.885564768999966],[-44.17144186299994,-12.85239262699994],[-44.179168298,-12.741215612999977],[-44.26521537299994,-12.634548457999948],[-44.233392626999915,-12.57062475899998],[-44.314902380999946,-12.523387309999965],[-44.312600000999964,-12.306574],[-44.39642482499996,-12.287704135999942],[-44.53512730799993,-12.300558051999886],[-44.500570528,-12.22227707799993]]]},"properties":{"CD_MUN":"2902500","NM_MUN":"Baianópolis","SIGLA":"BA","AREA_KM2":3320.723,"auxiliary_":null,"auxiliar_1":null,"REGIAO_MAR":"BA","BASE_RC":null,"ALLCON_TOT":0}},
{"type":"Feature","geometry":{"type":"Polygon","coordinates":[[[-42.619205030999936,-10.56864359699997],[-43.27925555599991,-10.236994443999912],[-43.38471599299993,-10.239955968999901],[-43.377385976999975,-10.71825255799995],[-43.38816986999998,-10.85845899],[-43.54942940399999,-10.86997727599993],[-43.75932450499997,-10.909202769999968],[-43.842376858,-10.849785299],[-43.900710898999954,-10.857066801000013],[-44.025228778,-10.955721277999917],[-43.90806334299999,-11.124314607999928],[-43.829885922999985,-11.348972030999924],[-43.77052020499993,-11.586989445],[-43.66165586299992,-11.86522787399996],[-43.631774827999976,-11.93149470799991],[-43.51115683899992,-11.93149471399991],[-43.460917642999966,-11.806705361999956],[-43.34809766199996,-11.735740280999938],[-43.38220231499996,-11.689400274000015],[-43.353345423999926,-11.588991003999958],[-43.30408197599997,-11.581601788999905],[-43.22300150199993,-11.372224095000014],[-43.17257927799993,-11.316372769999958],[-43.19872531999992,-11.23814447699992],[-43.09522857399994,-11.026165244999984],[-42.98828414399997,-10.908378785],[-42.86264602399996,-10.81050934199995],[-42.780671152999986,-10.817462787999919],[-42.703069183,-10.714680265999963],[-42.66130917499994,-10.588018500999983],[-42.619205030999936,-10.56864359699997]]]},"properties":{"CD_MUN":"2902708","NM_MUN":"Barra","SIGLA":"BA","AREA_KM2":11428.112,"auxiliary_":null,"auxiliar_1":null,"REGIAO_MAR":"BA","BASE_RC":null,"ALLCON_TOT":0}},
{"type":"Feature","geometry":{"type":"Polygon","coordinates":[[[-46.080894206,-11.624011156999945],[-46.155074106,-11.650200508999973],[-46.24397942699991,-11.605365326999948],[-46.341127871,-11.610199378999972],[-46.30775084099998,-11.686566745999958],[-46.37363699799996,-11.768152905],[-46.38048123399995,-11.86700420499994],[-46.30678354199997,-11.913747122999983],[-46.38893914999997,-12.048834113999938],[-46.148009265999974,-12.033310919999938],[-45.945492303000016,-11.864400048999943],[-45.76647722299995,-11.86871702],[-45.66100440499998,-11.91435537999995],[-45.76475289199992,-12.41134470499997],[-45.57820016399995,-12.400472136999916],[-45.40585059599992,-12.37019451099993],[-45.283769647999975,-12.422015829999964],[-45.12541298099998,-12.322826586999955],[-45.077907559,-12.334503910999981],[-44.92726879699999,-12.293111273999955],[-44.786278331,-12.220661235],[-44.579831965999986,-12.155094242999951],[-44.70538722099999,-12.168701735999985],[-44.735519870999966,-12.110797756999911],[-44.84137305399997,-12.11902062799993],[-44.92918206300002,-12.007295984999953],[-45.09400907899989,-11.85750642199995],[-45.167552921999935,-11.833292],[-45.28085697699994,-11.741386727999945],[-45.35270803899991,-11.738617557999884],[-45.63778389100001,-11.789727640999956],[-45.823285474999956,-11.687162975],[-45.86009809099993,-11.64558892499997],[-46.080894206,-11.624011156999945]]]},"properties":{"CD_MUN":"2903201","NM_MUN":"Barreiras","SIGLA":"BA","AREA_KM2":8051.274,"auxiliary_":null,"auxiliar_1":null,"REGIAO_MAR":"BA","BASE_RC":null,"ALLCON_TOT":36}},
{"type":"Feature","geometry":{"type":"Polygon","coordinates":[[[-43.92890478600002,-12.243164234999924],[-43.95823774199991,-12.238271430999923],[-43.95824394899998,-12.238268619999957],[-44.02048109299994,-12.407479658999918],[-44.07055652299993,-12.471255716999927],[-44.067944653,-12.697365765999944],[-43.94515043699993,-12.704830934999976],[-43.53642204499996,-12.636858747999966],[-43.443597710999896,-12.551435499999961],[-43.553544991999985,-12.506503309],[-43.707406709999944,-12.370777318999924],[-43.78177625900001,-12.258036458999975],[-43.92890478600002,-12.243164234999924]]]},"properties":{"CD_MUN":"2904407","NM_MUN":"Brejolândia","SIGLA":"BA","AREA_KM2":2247.208,"auxiliary_":null,"auxiliar_1":null,"REGIAO_MAR":"BA","BASE_RC":null,"ALLCON_TOT":0}},
{"type":"Feature","geometry":{"type":"Polygon","coordinates":[[[-43.900710898999954,-10.857066801000013],[-43.842376858,-10.849785299],[-43.75932450499997,-10.909202769999968],[-43.54942940399999,-10.86997727599993],[-43.38816986999998,-10.85845899],[-43.377385976999975,-10.71825255799995],[-43.38471599299993,-10.239955968999901],[-43.58366754699993,-10.248231347999912],[-43.77079233199998,-10.393088142999982],[-43.915889373999946,-10.393084827999886],[-44.025843686,-10.475470726999934],[-44.08342857499996,-10.58908998999991],[-43.99703476099994,-10.640527316999968],[-43.94114135299995,-10.716505826999931],[-43.900710898999954,-10.857066801000013]]]},"properties":{"CD_MUN":"2904753","NM_MUN":"Buritirama","SIGLA":"BA","AREA_KM2":4046.736,"auxiliary_":null,"auxiliar_1":null,"REGIAO_MAR":"BA","BASE_RC":null,"ALLCON_TOT":0}},
{"type":"Feature","geometry":{"type":"Polygon","coordinates":[[[-42.69009303899997,-9.54590845099995],[-42.82055280299996,-9.619230413999933],[-42.943798292999894,-9.520773283999926],[-42.98786311499995,-9.4013385129999],[-43.16152399599994,-9.379250069999987],[-43.28511738699998,-9.420028022999958],[-43.43812858699991,-9.266137780999948],[-43.497527093,-9.272525619999925],[-43.60601525899998,-9.351571521999933],[-43.511308670999966,-9.429080319999947],[-43.407728056999964,-9.624582926999956],[-43.37723668899997,-9.732217731999935],[-43.183399288999986,-9.724498265],[-42.91679955599996,-9.826901726999946],[-42.837548474999934,-9.746189002999959],[-42.76652472599995,-9.725205226999964],[-42.71801996999997,-9.652458162999942],[-42.69009303899997,-9.54590845099995]]]},"properties":{"CD_MUN":"2905909","NM_MUN":"Campo Alegre de Lourdes","SIGLA":"BA","AREA_KM2":2914.587,"auxiliary_":null,"auxiliar_1":null,"REGIAO_MAR":"BA","BASE_RC":null,"ALLCON_TOT":8}},
{"type":"Feature","geometry":{"type":"Polygon","coordinates":[[[-44.10649808799995,-13.229449975999916],[-44.09755260299992,-13.074816555999966],[-44.201906492999946,-12.988675960999938],[-44.256177667,-12.981262420999915],[-44.34210616799989,-13.118305388999971],[-44.23923251299994,-13.195212783999963],[-44.10649808799995,-13.229449975999916]]]},"properties":{"CD_MUN":"2906105","NM_MUN":"Canápolis","SIGLA":"BA","AREA_KM2":460.388,"auxiliary_":null,"auxiliar_1":null,"REGIAO_MAR":"BA","BASE_RC":null,"ALLCON_TOT":0}},
{"type":"Feature","geometry":{"type":"Polygon","coordinates":[[[-43.81428966599998,-13.708354139999965],[-43.967562761,-13.835299977],[-44.029045176999944,-13.792662242999896],[-44.01312095699998,-13.853609195999947],[-44.107269213999984,-13.985095515999966],[-44.02900900499997,-14.093260707999953],[-44.06560753599999,-14.138981220999955],[-44.045681544999944,-14.28377401499997],[-43.776243886999936,-14.331969809999965],[-43.697261954999895,-14.20973252299996],[-43.61429022999996,-13.837455394],[-43.586623056999954,-13.806289252999946],[-43.81428966599998,-13.708354139999965]]]},"properties":{"CD_MUN":"2907103","NM_MUN":"Carinhanha","SIGLA":"BA","AREA_KM2":2525.906,"auxiliary_":null,"auxiliar_1":null,"REGIAO_MAR":"BA","BASE_RC":null,"ALLCON_TOT":0}},
{"type":"Feature","geometry":{"type":"Polygon","coordinates":[[[-41.90314465399993,-9.704350549],[-41.684419041999924,-9.76842368099998],[-41.63715367,-9.715302715999972],[-41.513207949999945,-9.666174637999934],[-41.40021548899996,-9.695047882999983],[-41.21268546299996,-9.62215314699991],[-41.11742041500001,-9.403590815],[-41.01662834299999,-9.383941408999927],[-40.863115078,-9.394096582999953],[-40.76715928299991,-9.445411926999956],[-40.669873158999984,-9.186132510999965],[-40.82100804100001,-9.079891425999929],[-40.85101160099997,-8.954244312999968],[-40.92133780299997,-8.8354305689999],[-41.10335109099996,-8.780442951999898],[-41.131324976999935,-8.704252868999927],[-41.27826483699996,-8.735313038999912],[-41.38125153499993,-8.707272368999917],[-41.424266706,-8.802555355999928],[-41.48784338199995,-8.843903399999906],[-41.54141013899989,-8.933556714999966],[-41.730821757999976,-9.027957202999968],[-41.73265903099993,-9.087725361999919],[-41.854662014,-9.240668932999938],[-41.90314465399993,-9.704350549]]]},"properties":{"CD_MUN":"2907202","NM_MUN":"Casa Nova","SIGLA":"BA","AREA_KM2":9647.072,"auxiliary_":null,"auxiliar_1":null,"REGIAO_MAR":"BA","BASE_RC":null,"ALLCON_TOT":10}},
{"type":"Feature","geometry":{"type":"Polygon","coordinates":[[[-44.500570528,-12.22227707799993],[-44.46605200899995,-12.144082779999952],[-44.579831965999986,-12.155094242999951],[-44.786278331,-12.220661235],[-44.92726879699999,-12.293111273999955],[-44.827526,-12.394465],[-44.737851706999905,-12.408843121999933],[-44.673636059999936,-12.329817737999935],[-44.542552983999975,-12.28763553499995],[-44.500570528,-12.22227707799993]]]},"properties":{"CD_MUN":"2907400","NM_MUN":"Catolândia","SIGLA":"BA","AREA_KM2":702.504,"auxiliary_":null,"auxiliar_1":null,"REGIAO_MAR":"BA","BASE_RC":null,"ALLCON_TOT":0}},
{"type":"Feature","geometry":{"type":"Polygon","coordinates":[[[-44.379594270999974,-14.0443999],[-44.467804496,-14.032441388999892],[-44.67056691999993,-13.889101217999986],[-44.794724413,-13.82595638799998],[-44.90348157599994,-13.925253901999977],[-44.91567980499999,-14.004753002],[-45.19222312899995,-14.12733240799998],[-45.267543528,-14.202162703999974],[-45.37496100299993,-14.257417743999987],[-45.417764486999985,-14.316612366999912],[-45.85886746599989,-14.696671556999927],[-46.03757491499991,-14.874656162999909],[-45.966080910999914,-14.965645483999932],[-45.97500556499991,-15.036877792999945],[-46.04372018999989,-15.118129571999948],[-45.87215889399997,-15.158803129999985],[-45.75110945999993,-15.12258217099994],[-45.536103434000026,-14.938126235],[-45.410296384999974,-14.923438812999965],[-45.20557367699995,-14.744738943999955],[-45.09584943699993,-14.752998941999937],[-45.04769383399997,-14.690536972999944],[-44.869194746999966,-14.593384683999986],[-44.810766094,-14.50310117699992],[-44.56612389499998,-14.341375145999944],[-44.411781952,-14.28158428199989],[-44.461683730999916,-14.194450400999923],[-44.379594270999974,-14.0443999]]]},"properties":{"CD_MUN":"2908101","NM_MUN":"Cocos","SIGLA":"BA","AREA_KM2":10140.572,"auxiliary_":null,"auxiliar_1":null,"REGIAO_MAR":"BA","BASE_RC":null,"ALLCON_TOT":38}},
{"type":"Feature","geometry":{"type":"Polygon","coordinates":[[[-44.029045176999944,-13.792662242999896],[-44.188166834999905,-13.658222403999929],[-44.26105133999993,-13.509560888999914],[-44.2852981259999,-13.555503362999985],[-44.586861078,-13.683908913],[-44.79876413999994,-13.800146461999905],[-44.794724413,-13.82595638799998],[-44.67056691999993,-13.889101217999986],[-44.467804496,-14.032441388999892],[-44.379594270999974,-14.0443999],[-44.277125116,-14.031478558999897],[-44.19512945799992,-13.926390817999987],[-44.107269213999984,-13.985095515999966],[-44.01312095699998,-13.853609195999947],[-44.029045176999944,-13.792662242999896]]]},"properties":{"CD_MUN":"2909109","NM_MUN":"Coribe","SIGLA":"BA","AREA_KM2":2662.819,"auxiliary_":null,"auxiliar_1":null,"REGIAO_MAR":"BA","BASE_RC":null,"ALLCON_TOT":0}},
{"type":"Feature","geometry":{"type":"Polygon","coordinates":[[[-44.70663376999992,-13.083423365999955],[-44.787255431999924,-12.989951453999957],[-44.940674611999945,-13.025874376999944],[-45.194632511,-13.124498488],[-45.556020482999955,-13.192180842999921],[-45.609042332999934,-13.184969453999926],[-45.93157795699991,-13.296538733000016],[-46.20896393199995,-13.465562768999959],[-46.24725712099995,-13.521688686999909],[-46.21639791799998,-13.63598573599992],[-46.277495100999936,-13.790881452999901],[-46.23247472399996,-13.848607374999986],[-46.264190331999906,-13.947435088999924],[-46.212120911999946,-14.01012035],[-46.00944697999997,-13.93601267999994],[-45.86138354399997,-13.827254228999983],[-45.67385627199993,-13.739320924999952],[-45.532808447999976,-13.7674866249999],[-45.337054258999935,-13.72122680199995],[-45.24063721299997,-13.744945822999952],[-45.11599773999998,-13.67409675199994],[-44.89249850399998,-13.671374677999957],[-44.72392076999993,-13.586019816000015],[-44.66739096999996,-13.536533216999977],[-44.51111408699992,-13.511104635999924],[-44.482523505999986,-13.422762790000018],[-44.33116390099993,-13.396983540999905],[-44.48279242899994,-13.383015890999914],[-44.54549540799999,-13.349881774999925],[-44.58385923899996,-13.22919759],[-44.70663376999992,-13.083423365999955]]]},"properties":{"CD_MUN":"2909307","NM_MUN":"Correntina","SIGLA":"BA","AREA_KM2":11504.314,"auxiliary_":null,"auxiliar_1":null,"REGIAO_MAR":"BA","BASE_RC":null,"ALLCON_TOT":94}},
{"type":"Feature","geometry":{"type":"Polygon","coordinates":[[[-43.83696375199994,-11.35305669899994],[-43.97522235299995,-11.375029310999949],[-44.21524761699997,-11.469261415999963],[-44.3320954,-11.48298725199993],[-44.417472116999974,-11.363514385999949],[-44.49584913799997,-11.402683018999902],[-44.68537524499993,-11.40782829899992],[-44.685370397999975,-11.659608704999922],[-44.662330079,-11.748269786999952],[-44.34853981399993,-12.080544699999916],[-44.34539619999997,-12.102712873999941],[-44.22118137599995,-12.1183965829999],[-44.11367815999993,-12.04639644999995],[-44.027006508999925,-11.929246485999965],[-44.01197731599994,-11.808173609999937],[-44.14900329200002,-11.736756439],[-44.15069122299997,-11.607278081999937],[-44.03266608499995,-11.546881974999987],[-43.94027465499992,-11.438346527999919],[-43.87022723399998,-11.442952054999953],[-43.83696375199994,-11.35305669899994]]]},"properties":{"CD_MUN":"2909406","NM_MUN":"Cotegipe","SIGLA":"BA","AREA_KM2":4282.775,"auxiliary_":null,"auxiliar_1":null,"REGIAO_MAR":"BA","BASE_RC":null,"ALLCON_TOT":0}},
{"type":"Feature","geometry":{"type":"Polygon","coordinates":[[[-43.95823774199991,-12.238271430999923],[-44.04796241299992,-12.076366941999925],[-44.11367815999993,-12.04639644999995],[-44.22118137599995,-12.1183965829999],[-44.34539619999997,-12.102712873999941],[-44.443481,-12.092953],[-44.46605200899995,-12.144082779999952],[-44.500570528,-12.22227707799993],[-44.53512730799993,-12.300558051999886],[-44.39642482499996,-12.287704135999942],[-44.312600000999964,-12.306574],[-44.244087675999936,-12.264886075999968],[-43.95824394899998,-12.238268619999957],[-43.95823774199991,-12.238271430999923]]]},"properties":{"CD_MUN":"2909703","NM_MUN":"Cristópolis","SIGLA":"BA","AREA_KM2":1052.837,"auxiliary_":null,"auxiliar_1":null,"REGIAO_MAR":"BA","BASE_RC":null,"ALLCON_TOT":0}},
{"type":"Feature","geometry":{"type":"Polygon","coordinates":[[[-44.107269213999984,-13.985095515999966],[-44.19512945799992,-13.926390817999987],[-44.277125116,-14.031478558999897],[-44.379594270999974,-14.0443999],[-44.461683730999916,-14.194450400999923],[-44.411781952,-14.28158428199989],[-44.34059577999997,-14.249400292999912],[-44.20912270999999,-14.246671852999935],[-44.045681544999944,-14.28377401499997],[-44.06560753599999,-14.138981220999955],[-44.02900900499997,-14.093260707999953],[-44.107269213999984,-13.985095515999966]]]},"properties":{"CD_MUN":"2910776","NM_MUN":"Feira da Mata","SIGLA":"BA","AREA_KM2":1176.111,"auxiliary_":null,"auxiliar_1":null,"REGIAO_MAR":"BA","BASE_RC":null,"ALLCON_TOT":0}},
{"type":"Feature","geometry":{"type":"Polygon","coordinates":[[[-44.944694560999935,-10.918999598999921],[-45.082113256999904,-10.839502941999921],[-45.24596740999993,-10.8224831069999],[-45.35821896699998,-10.732207538999958],[-45.43732817399999,-10.615566336999969],[-45.44741116199999,-10.509355226999926],[-45.40026885799994,-10.463074348999921],[-45.43032251899996,-10.359463019999957],[-45.514360556000014,-10.289836598999944],[-45.60317609399995,-10.107982174999961],[-45.69017594699993,-10.155400438999926],[-45.72688958699997,-10.312535662999931],[-45.798184587000016,-10.323247328],[-45.82021125599997,-10.456053996000012],[-46.06076518799995,-10.600178508999889],[-46.127612926,-10.620600656999954],[-46.15034625999989,-10.691553989999889],[-46.260537040999964,-10.812037365],[-46.26726626499995,-10.934802322999957],[-46.34155793099996,-10.93901231999995],[-46.552202936999905,-11.262798985999964],[-46.5236662739999,-11.463630652999921],[-46.43931794299993,-11.521045654999948],[-46.35037294399994,-11.506228990999965],[-46.209512946,-11.585268993999929],[-46.11280627999996,-11.6060356639999],[-46.109126930999906,-11.559634567999986],[-45.87380186799994,-11.523632301999918],[-45.85367705799996,-11.490972970999955],[-45.658740951999924,-11.436962179999952],[-45.557071263999944,-11.477239854999919],[-45.38094363699995,-11.384053412999915],[-45.18486012899993,-11.40257017399998],[-44.992699293999934,-11.362135324999976],[-44.95951670499993,-11.214593328999953],[-45.008440893999975,-11.121620173999922],[-44.959313777999924,-11.069626515999929],[-44.98047762599999,-10.969316406],[-44.944694560999935,-10.918999598999921]]]},"properties":{"CD_MUN":"2911105","NM_MUN":"Formosa do Rio Preto","SIGLA":"BA","AREA_KM2":15634.328,"auxiliary_":null,"auxiliar_1":null,"REGIAO_MAR":"BA","BASE_RC":null,"ALLCON_TOT":48}},
{"type":"Feature","geometry":{"type":"Polygon","coordinates":[[[-44.22487669799999,-13.427620064999921],[-44.33116390099993,-13.396983540999905],[-44.482523505999986,-13.422762790000018],[-44.51111408699992,-13.511104635999924],[-44.66739096999996,-13.536533216999977],[-44.72392076999993,-13.586019816000015],[-44.89249850399998,-13.671374677999957],[-45.11599773999998,-13.67409675199994],[-45.24063721299997,-13.744945822999952],[-45.337054258999935,-13.72122680199995],[-45.532808447999976,-13.7674866249999],[-45.67385627199993,-13.739320924999952],[-45.86138354399997,-13.827254228999983],[-46.00944697999997,-13.93601267999994],[-46.212120911999946,-14.01012035],[-46.22153010199998,-14.1067597979999],[-46.11629598499995,-14.161603279999966],[-46.029590910999936,-14.25952949299992],[-45.96440328799993,-14.284311275999926],[-45.93166528399994,-14.408977130999965],[-46.000073395999955,-14.446622188999978],[-45.981449088999966,-14.53189786299994],[-46.010516442,-14.662189969999915],[-46.00258411699995,-14.79583901699991],[-46.03757491499991,-14.874656162999909],[-45.85886746599989,-14.696671556999927],[-45.417764486999985,-14.316612366999912],[-45.37496100299993,-14.257417743999987],[-45.267543528,-14.202162703999974],[-45.19222312899995,-14.12733240799998],[-44.91567980499999,-14.004753002],[-44.90348157599994,-13.925253901999977],[-44.794724413,-13.82595638799998],[-44.79876413999994,-13.800146461999905],[-44.586861078,-13.683908913],[-44.2852981259999,-13.555503362999985],[-44.26105133999993,-13.509560888999914],[-44.22487669799999,-13.427620064999921]]]},"properties":{"CD_MUN":"2917359","NM_MUN":"Jaborandi","SIGLA":"BA","AREA_KM2":9955.113,"auxiliary_":null,"auxiliar_1":null,"REGIAO_MAR":"BA","BASE_RC":null,"ALLCON_TOT":22}},
{"type":"Feature","geometry":{"type":"Polygon","coordinates":[[[-45.76475289199992,-12.41134470499997],[-45.66100440499998,-11.91435537999995],[-45.76647722299995,-11.86871702],[-45.945492303000016,-11.864400048999943],[-46.148009265999974,-12.033310919999938],[-46.38893914999997,-12.048834113999938],[-46.39245620199991,-12.170621059999984],[-46.34914631499997,-12.29912325399992],[-46.370316817999964,-12.347538087],[-46.19827197499992,-12.504074030999988],[-46.100195610999975,-12.527580674],[-45.76475289199992,-12.41134470499997]]]},"properties":{"CD_MUN":"2919553","NM_MUN":"Luís Eduardo Magalhães","SIGLA":"BA","AREA_KM2":4036.094,"auxiliary_":-45.68707888322539,"auxiliar_1":-13.936692145520306,"REGIAO_MAR":"BA","BASE_RC":"PENINHA","ALLCON_TOT":20}},
{"type":"Feature","geometry":{"type":"Polygon","coordinates":[[[-43.900710898999954,-10.857066801000013],[-43.94114135299995,-10.716505826999931],[-43.99703476099994,-10.640527316999968],[-44.08342857499996,-10.58908998999991],[-44.165540127999954,-10.642901249999923],[-44.10821315299992,-10.808320008],[-44.16160791999994,-10.956213838999904],[-44.27177086699993,-11.163431921999987],[-44.34678802299993,-11.224084085999984],[-44.49584913799997,-11.402683018999902],[-44.417472116999974,-11.363514385999949],[-44.3320954,-11.48298725199993],[-44.21524761699997,-11.469261415999963],[-43.97522235299995,-11.375029310999949],[-43.83696375199994,-11.35305669899994],[-43.829885922999985,-11.348972030999924],[-43.90806334299999,-11.124314607999928],[-44.025228778,-10.955721277999917],[-43.900710898999954,-10.857066801000013]]]},"properties":{"CD_MUN":"2920452","NM_MUN":"Mansidão","SIGLA":"BA","AREA_KM2":3129.588,"auxiliary_":null,"auxiliar_1":null,"REGIAO_MAR":"BA","BASE_RC":null,"ALLCON_TOT":0}},
{"type":"Feature","geometry":{"type":"Polygon","coordinates":[[[-43.34809766199996,-11.735740280999938],[-43.460917642999966,-11.806705361999956],[-43.51115683899992,-11.93149471399991],[-43.631774827999976,-11.93149470799991],[-43.66165586299992,-11.86522787399996],[-43.76010021699994,-12.003691357999955],[-43.79552644499995,-12.09173394599997],[-43.92890478600002,-12.243164234999924],[-43.78177625900001,-12.258036458999975],[-43.707406709999944,-12.370777318999924],[-43.553544991999985,-12.506503309],[-43.443597710999896,-12.551435499999961],[-43.23897770499993,-12.63037944299997],[-43.222141521999916,-12.690841246999938],[-43.18758438099996,-12.620048748999988],[-43.286478819,-12.331037056999925],[-43.26343028899996,-12.220902249999952],[-43.299022665999956,-12.0559409869999],[-43.34909802299995,-12.016361401999962],[-43.352720752999936,-11.904419658999963],[-43.315363214999905,-11.875152288999988],[-43.34809766199996,-11.735740280999938]]]},"properties":{"CD_MUN":"2922250","NM_MUN":"Muquém do São Francisco","SIGLA":"BA","AREA_KM2":3852.111,"auxiliary_":null,"auxiliar_1":null,"REGIAO_MAR":"BA","BASE_RC":null,"ALLCON_TOT":6}},
{"type":"Feature","geometry":{"type":"Polygon","coordinates":[[[-42.71801996999997,-9.652458162999942],[-42.76652472599995,-9.725205226999964],[-42.837548474999934,-9.746189002999959],[-42.91679955599996,-9.826901726999946],[-43.183399288999986,-9.724498265],[-43.37723668899997,-9.732217731999935],[-43.407728056999964,-9.624582926999956],[-43.511308670999966,-9.429080319999947],[-43.60601525899998,-9.351571521999933],[-43.68914379899992,-9.41968275199999],[-43.78424771699995,-9.454772890999905],[-43.85258131899993,-9.562138369999982],[-43.78492181599995,-9.762385011999939],[-43.664845737999975,-9.823654789999967],[-43.70903534299996,-9.91321951299998],[-43.66517311699997,-9.99102796999992],[-43.69095136299991,-10.072770946999974],[-43.75922851599993,-10.074605175999949],[-43.83692162499992,-10.302204972999949],[-43.915889373999946,-10.393084827999886],[-43.77079233199998,-10.393088142999982],[-43.58366754699993,-10.248231347999912],[-43.38471599299993,-10.239955968999901],[-43.27925555599991,-10.236994443999912],[-42.619205030999936,-10.56864359699997],[-42.56999934199996,-10.470351279999921],[-42.464486343999944,-10.382194428999956],[-42.40464669599994,-10.253079334999935],[-42.435469167999976,-10.130306048],[-42.35502950999994,-10.032236684999916],[-42.22649701899998,-10.028894039999923],[-42.355318511999954,-9.910187852999961],[-42.506855134,-9.858495522999942],[-42.618623015999916,-9.721499933999986],[-42.71801996999997,-9.652458162999942]]]},"properties":{"CD_MUN":"2924405","NM_MUN":"Pilão Arcado","SIGLA":"BA","AREA_KM2":11597.923,"auxiliary_":null,"auxiliar_1":null,"REGIAO_MAR":"BA","BASE_RC":null,"ALLCON_TOT":10}},
{"type":"Feature","geometry":{"type":"Polygon","coordinates":[[[-41.90314465399993,-9.704350549],[-41.854662014,-9.240668932999938],[-41.972266227,-9.24863813599993],[-42.31607656799998,-9.316612335999928],[-42.49309177599995,-9.494900445999974],[-42.590358743999985,-9.498351978999917],[-42.69009303899997,-9.54590845099995],[-42.71801996999997,-9.652458162999942],[-42.618623015999916,-9.721499933999986],[-42.506855134,-9.858495522999942],[-42.355318511999954,-9.910187852999961],[-42.22649701899998,-10.028894039999923],[-42.074686319,-9.803283463999932],[-42.04113112399998,-9.670108505],[-41.90314465399993,-9.704350549]]]},"properties":{"CD_MUN":"2926004","NM_MUN":"Remanso","SIGLA":"BA","AREA_KM2":4573.505,"auxiliary_":null,"auxiliar_1":null,"REGIAO_MAR":"BA","BASE_RC":null,"ALLCON_TOT":0}},
{"type":"Feature","geometry":{"type":"Polygon","coordinates":[[[-44.68537524499993,-11.40782829899992],[-44.77102253999991,-11.421917140999902],[-44.87245517799991,-11.34643981699993],[-44.992699293999934,-11.362135324999976],[-45.18486012899993,-11.40257017399998],[-45.38094363699995,-11.384053412999915],[-45.557071263999944,-11.477239854999919],[-45.658740951999924,-11.436962179999952],[-45.85367705799996,-11.490972970999955],[-45.87380186799994,-11.523632301999918],[-46.109126930999906,-11.559634567999986],[-46.11280627999996,-11.6060356639999],[-46.080894206,-11.624011156999945],[-45.86009809099993,-11.64558892499997],[-45.823285474999956,-11.687162975],[-45.63778389100001,-11.789727640999956],[-45.35270803899991,-11.738617557999884],[-45.28085697699994,-11.741386727999945],[-45.167552921999935,-11.833292],[-45.09400907899989,-11.85750642199995],[-44.92918206300002,-12.007295984999953],[-44.8198097499999,-11.881607071999909],[-44.753467049999976,-11.865956179],[-44.662330079,-11.748269786999952],[-44.685370397999975,-11.659608704999922],[-44.68537524499993,-11.40782829899992]]]},"properties":{"CD_MUN":"2926202","NM_MUN":"Riachão das Neves","SIGLA":"BA","AREA_KM2":5977.931,"auxiliary_":null,"auxiliar_1":null,"REGIAO_MAR":"BA","BASE_RC":null,"ALLCON_TOT":45}},
{"type":"Feature","geometry":{"type":"Polygon","coordinates":[[[-44.34210616799989,-13.118305388999971],[-44.55058757699996,-12.942845498999898],[-44.70663376999992,-13.083423365999955],[-44.58385923899996,-13.22919759],[-44.54549540799999,-13.349881774999925],[-44.48279242899994,-13.383015890999914],[-44.33116390099993,-13.396983540999905],[-44.22487669799999,-13.427620064999921],[-44.000783122000016,-13.31411069999998],[-43.99275577699992,-13.253505040999922],[-44.10649808799995,-13.229449975999916],[-44.23923251299994,-13.195212783999963],[-44.34210616799989,-13.118305388999971]]]},"properties":{"CD_MUN":"2928109","NM_MUN":"Santa Maria da Vitória","SIGLA":"BA","AREA_KM2":1984.91,"auxiliary_":null,"auxiliar_1":null,"REGIAO_MAR":"BA","BASE_RC":null,"ALLCON_TOT":0}},
{"type":"Feature","geometry":{"type":"Polygon","coordinates":[[[-43.686357023,-12.933187133999944],[-43.83072703399994,-12.986323806],[-44.002762081999975,-12.852854936],[-44.06561146399996,-12.87497639599998],[-44.17144186299994,-12.85239262699994],[-44.23773619799995,-12.885564768999966],[-44.256177667,-12.981262420999915],[-44.201906492999946,-12.988675960999938],[-44.09755260299992,-13.074816555999966],[-44.10649808799995,-13.229449975999916],[-43.99275577699992,-13.253505040999922],[-44.000783122000016,-13.31411069999998],[-43.85716466,-13.262054441999958],[-43.70606799799994,-13.187841878999915],[-43.6402445539999,-13.184751280999905],[-43.68155493999996,-13.115881003999927],[-43.686357023,-12.933187133999944]]]},"properties":{"CD_MUN":"2928208","NM_MUN":"Santana","SIGLA":"BA","AREA_KM2":1909.353,"auxiliary_":null,"auxiliar_1":null,"REGIAO_MAR":"BA","BASE_RC":null,"ALLCON_TOT":0}},
{"type":"Feature","geometry":{"type":"Polygon","coordinates":[[[-44.165540127999954,-10.642901249999923],[-44.26665544199999,-10.62315303499993],[-44.31454715499996,-10.557362990999906],[-44.45175172499997,-10.60663700899994],[-44.50050515299992,-10.649701880999949],[-44.57777943099998,-10.62676877099996],[-44.66879740099998,-10.687087217999967],[-44.662782848999974,-10.750561773999987],[-44.78806191699995,-10.808521575999972],[-44.808329149999985,-10.86614948299994],[-44.944694560999935,-10.918999598999921],[-44.98047762599999,-10.969316406],[-44.959313777999924,-11.069626515999929],[-45.008440893999975,-11.121620173999922],[-44.95951670499993,-11.214593328999953],[-44.992699293999934,-11.362135324999976],[-44.87245517799991,-11.34643981699993],[-44.77102253999991,-11.421917140999902],[-44.68537524499993,-11.40782829899992],[-44.49584913799997,-11.402683018999902],[-44.34678802299993,-11.224084085999984],[-44.27177086699993,-11.163431921999987],[-44.16160791999994,-10.956213838999904],[-44.10821315299992,-10.808320008],[-44.165540127999954,-10.642901249999923]]]},"properties":{"CD_MUN":"2928406","NM_MUN":"Santa Rita de Cássia","SIGLA":"BA","AREA_KM2":6030.491,"auxiliary_":null,"auxiliar_1":null,"REGIAO_MAR":"BA","BASE_RC":null,"ALLCON_TOT":0}},
{"type":"Feature","geometry":{"type":"Polygon","coordinates":[[[-44.737851706999905,-12.408843121999933],[-44.827526,-12.394465],[-44.92726879699999,-12.293111273999955],[-45.077907559,-12.334503910999981],[-45.12541298099998,-12.322826586999955],[-45.283769647999975,-12.422015829999964],[-45.40585059599992,-12.37019451099993],[-45.57820016399995,-12.400472136999916],[-45.76475289199992,-12.41134470499997],[-46.100195610999975,-12.527580674],[-46.19827197499992,-12.504074030999988],[-46.269936175999966,-12.550930238999989],[-46.30705575300002,-12.63669918899991],[-46.268080457999986,-12.716156811999966],[-46.310505451,-12.79554189199997],[-46.30789314099994,-12.941713740999958],[-46.27553375900001,-13.020213308999882],[-46.299610135,-13.128128629999889],[-46.292486944999936,-13.316930098999933],[-46.10321942899997,-13.25751018999993],[-46.07333963399995,-13.311368946999966],[-46.20896393199995,-13.465562768999959],[-45.93157795699991,-13.296538733000016],[-45.609042332999934,-13.184969453999926],[-45.556020482999955,-13.192180842999921],[-45.194632511,-13.124498488],[-44.940674611999945,-13.025874376999944],[-44.787255431999924,-12.989951453999957],[-44.70663376999992,-13.083423365999955],[-44.55058757699996,-12.942845498999898],[-44.6105262689999,-12.721709266999923],[-44.62501647699996,-12.572185837999914],[-44.715625885999906,-12.518491836999921],[-44.737851706999905,-12.408843121999933]]]},"properties":{"CD_MUN":"2928901","NM_MUN":"São Desidério","SIGLA":"BA","AREA_KM2":15156.712,"auxiliary_":null,"auxiliar_1":null,"REGIAO_MAR":"BA","BASE_RC":null,"ALLCON_TOT":66}},
{"type":"Feature","geometry":{"type":"Polygon","coordinates":[[[-43.81428966599998,-13.708354139999965],[-43.933136185,-13.656276635999962],[-43.82148658099993,-13.48914079799993],[-43.90768935899995,-13.430610146999964],[-43.85716466,-13.262054441999958],[-44.000783122000016,-13.31411069999998],[-44.22487669799999,-13.427620064999921],[-44.26105133999993,-13.509560888999914],[-44.188166834999905,-13.658222403999929],[-44.029045176999944,-13.792662242999896],[-43.967562761,-13.835299977],[-43.81428966599998,-13.708354139999965]]]},"properties":{"CD_MUN":"2929057","NM_MUN":"São Félix do Coribe","SIGLA":"BA","AREA_KM2":1751.671,"auxiliary_":null,"auxiliar_1":null,"REGIAO_MAR":"BA","BASE_RC":null,"ALLCON_TOT":0}},
{"type":"Feature","geometry":{"type":"Polygon","coordinates":[[[-43.70606799799994,-13.187841878999915],[-43.85716466,-13.262054441999958],[-43.90768935899995,-13.430610146999964],[-43.82148658099993,-13.48914079799993],[-43.933136185,-13.656276635999962],[-43.81428966599998,-13.708354139999965],[-43.586623056999954,-13.806289252999946],[-43.556756795,-13.64450703699994],[-43.46052325100002,-13.562178886999963],[-43.43132873599995,-13.446983181999936],[-43.4632987749999,-13.332477797],[-43.44043234299992,-13.25600317199994],[-43.705012165999975,-13.289556632999986],[-43.70606799799994,-13.187841878999915]]]},"properties":{"CD_MUN":"2930154","NM_MUN":"Serra do Ramalho","SIGLA":"BA","AREA_KM2":2340.684,"auxiliary_":null,"auxiliar_1":null,"REGIAO_MAR":"BA","BASE_RC":null,"ALLCON_TOT":0}},
{"type":"Feature","geometry":{"type":"Polygon","coordinates":[[[-43.53642204499996,-12.636858747999966],[-43.94515043699993,-12.704830934999976],[-44.08138169299997,-12.770151719999898],[-44.179168298,-12.741215612999977],[-44.17144186299994,-12.85239262699994],[-44.06561146399996,-12.87497639599998],[-44.002762081999975,-12.852854936],[-43.83072703399994,-12.986323806],[-43.686357023,-12.933187133999944],[-43.57126336599998,-12.914771220999963],[-43.55148301,-12.862582631999917],[-43.53642204499996,-12.636858747999966]]]},"properties":{"CD_MUN":"2930303","NM_MUN":"Serra Dourada","SIGLA":"BA","AREA_KM2":1592.245,"auxiliary_":null,"auxiliar_1":null,"REGIAO_MAR":"BA","BASE_RC":null,"ALLCON_TOT":0}},
{"type":"Feature","geometry":{"type":"Polygon","coordinates":[[[-43.222141521999916,-12.690841246999938],[-43.23897770499993,-12.63037944299997],[-43.443597710999896,-12.551435499999961],[-43.53642204499996,-12.636858747999966],[-43.55148301,-12.862582631999917],[-43.57126336599998,-12.914771220999963],[-43.686357023,-12.933187133999944],[-43.68155493999996,-13.115881003999927],[-43.6402445539999,-13.184751280999905],[-43.59107629399991,-13.146649962999977],[-43.46310847099996,-13.133283949999939],[-43.454149253999944,-13.03983159399996],[-43.40614576099996,-12.997895195999973],[-43.39495201899998,-12.873149623],[-43.222141521999916,-12.690841246999938]]]},"properties":{"CD_MUN":"2930758","NM_MUN":"Sítio do Mato","SIGLA":"BA","AREA_KM2":1627.806,"auxiliary_":null,"auxiliar_1":null,"REGIAO_MAR":"BA","BASE_RC":null,"ALLCON_TOT":0}},
{"type":"Feature","geometry":{"type":"Polygon","coordinates":[[[-43.94515043699993,-12.704830934999976],[-44.067944653,-12.697365765999944],[-44.07055652299993,-12.471255716999927],[-44.02048109299994,-12.407479658999918],[-43.95824394899998,-12.238268619999957],[-44.244087675999936,-12.264886075999968],[-44.312600000999964,-12.306574],[-44.314902380999946,-12.523387309999965],[-44.233392626999915,-12.57062475899998],[-44.26521537299994,-12.634548457999948],[-44.179168298,-12.741215612999977],[-44.08138169299997,-12.770151719999898],[-43.94515043699993,-12.704830934999976]]]},"properties":{"CD_MUN":"2930907","NM_MUN":"Tabocas do Brejo Velho","SIGLA":"BA","AREA_KM2":1437.189,"auxiliary_":null,"auxiliar_1":null,"REGIAO_MAR":"BA","BASE_RC":null,"ALLCON_TOT":0}},
{"type":"Feature","geometry":{"type":"Polygon","coordinates":[[[-43.66165586299992,-11.86522787399996],[-43.77052020499993,-11.586989445],[-43.829885922999985,-11.348972030999924],[-43.83696375199994,-11.35305669899994],[-43.87022723399998,-11.442952054999953],[-43.94027465499992,-11.438346527999919],[-44.03266608499995,-11.546881974999987],[-44.15069122299997,-11.607278081999937],[-44.14900329200002,-11.736756439],[-44.01197731599994,-11.808173609999937],[-44.027006508999925,-11.929246485999965],[-44.11367815999993,-12.04639644999995],[-44.04796241299992,-12.076366941999925],[-43.95823774199991,-12.238271430999923],[-43.92890478600002,-12.243164234999924],[-43.79552644499995,-12.09173394599997],[-43.76010021699994,-12.003691357999955],[-43.66165586299992,-11.86522787399996]]]},"properties":{"CD_MUN":"2933455","NM_MUN":"Wanderley","SIGLA":"BA","AREA_KM2":2920.579,"auxiliary_":null,"auxiliar_1":null,"REGIAO_MAR":"BA","BASE_RC":null,"ALLCON_TOT":0}}
]}