{"type":"FeatureCollection", "features": [
{"type":"Feature","geometry":{"type":"Polygon","coordinates":[[[-56.12934853899995,-15.096986779999941],[-56.24225608200001,-14.976465211999965],[-56.466060757999976,-15.096455835999976],[-56.45052400299992,-15.143602811999965],[-56.451445442999955,-15.26790614099994],[-56.35552265299994,-15.412305833999937],[-56.27874758899998,-15.340120788999965],[-56.27531525099993,-15.210168615999962],[-56.12934853899995,-15.096986779999941]]]},"properties":{"CD_MUN":"5100102","NM_MUN":"Acorizal","SIGLA":"MT","AREA_KM2":850.763,"auxiliary_":null,"auxiliar_1":null,"REGIAO_MAR":"MT CENTRO","BASE_RC":null,"ALLCON_TOT":0}},
{"type":"Feature","geometry":{"type":"Polygon","coordinates":[[[-55.83222617599992,-9.736460945000012],[-55.93393599599993,-9.608541338999963],[-55.867197081,-9.434279606],[-56.27232522499998,-9.400843742999907],[-56.25331793999992,-9.472008564999932],[-56.33996003499996,-9.631446451999945],[-56.32833203899993,-9.809802282],[-56.3793142,-9.919451899999974],[-56.89771719999996,-9.948134799999906],[-56.93800345299992,-9.936336984999947],[-56.903665814999925,-10.041385852999927],[-56.96202534599994,-10.114231284999917],[-56.9310654029999,-10.276058624999926],[-56.869612168999964,-10.373965500999969],[-56.71528275999995,-10.492329866999981],[-56.628450728,-10.596692385999926],[-56.43372845999998,-10.682695023999909],[-56.40898093299997,-10.57956763699993],[-56.264956136,-10.579255831999976],[-56.24078330000002,-10.492117446],[-56.28179302399998,-10.405952564999907],[-56.06394347099999,-10.340286979999966],[-56.196911895999975,-10.201991472000014],[-56.10109260599991,-10.112023054],[-56.002825269999974,-10.124280912999915],[-55.89580345599991,-10.03726753599997],[-55.83222617599992,-9.736460945000012]]]},"properties":{"CD_MUN":"5100250","NM_MUN":"Alta Floresta","SIGLA":"MT","AREA_KM2":8955.41,"auxiliary_":null,"auxiliar_1":null,"REGIAO_MAR":"MT CENTRO","BASE_RC":null,"ALLCON_TOT":12}},
{"type":"Feature","geometry":{"type":"Polygon","coordinates":[[[-56.47839490899999,-14.664276247999961],[-56.40794194199998,-14.463823127999973],[-56.55246549799992,-14.393020631999907],[-56.54386598299992,-14.452406096],[-56.64488486199996,-14.498619714999936],[-56.72585172299993,-14.649109412999959],[-56.92696496299991,-14.93663647499993],[-56.85892184299998,-15.01333310599998],[-56.81949846299992,-15.145096578999926],[-56.70782479299998,-14.98134362499993],[-56.582183427999965,-14.849927406999939],[-56.42443089199995,-14.742554083999924],[-56.47839490899999,-14.664276247999961]]]},"properties":{"CD_MUN":"5100508","NM_MUN":"Alto Paraguai","SIGLA":"MT","AREA_KM2":1847.354,"auxiliary_":null,"auxiliar_1":null,"REGIAO_MAR":"MT CENTRO","BASE_RC":null,"ALLCON_TOT":12}},
{"type":"Feature","geometry":{"type":"Polygon","coordinates":[[[-56.72585172299993,-14.649109412999959],[-56.81592127399996,-14.44417926099991],[-56.88731135799998,-14.36087757299994],[-56.9773269089999,-14.435624665999978],[-56.94970763099995,-14.502994339999962],[-56.906675992999936,-14.591804215999957],[-56.72585172299993,-14.649109412999959]]]},"properties":{"CD_MUN":"5101308","NM_MUN":"Arenápolis","SIGLA":"MT","AREA_KM2":417.337,"auxiliary_":null,"auxiliar_1":null,"REGIAO_MAR":"MT CENTRO","BASE_RC":null,"ALLCON_TOT":4}},
{"type":"Feature","geometry":{"type":"Polygon","coordinates":[[[-55.60390029999997,-17.366706287999953],[-55.493744880999984,-16.389174758999978],[-55.69468626499996,-16.298000655999942],[-55.888600170999965,-16.123082128999986],[-55.94888756099998,-16.16631245699992],[-56.06574583399998,-16.314242621999906],[-56.30110117699998,-16.397012203],[-56.506979489999964,-16.72489294099991],[-56.61885562099995,-16.8718044249999],[-56.63208467899993,-16.980054166999956],[-56.587592146999924,-17.04931228699996],[-56.723271946,-17.308479614],[-56.672520541000026,-17.334575044999987],[-56.450877607999956,-17.326391599999944],[-56.33587364799999,-17.289948513999907],[-56.25134481799991,-17.219023089999972],[-56.044119322999926,-17.171395114999974],[-56.012037712999984,-17.23668179],[-55.60390029999997,-17.366706287999953]]]},"properties":{"CD_MUN":"5101605","NM_MUN":"Barão de Melgaço","SIGLA":"MT","AREA_KM2":11374.872,"auxiliary_":null,"auxiliar_1":null,"REGIAO_MAR":"MT CENTRO","BASE_RC":null,"ALLCON_TOT":0}},
{"type":"Feature","geometry":{"type":"Polygon","coordinates":[[[-55.557629948999946,-10.057007949999939],[-55.57488986899994,-9.951266279999924],[-55.670930021999894,-9.89874077899998],[-55.733296987999935,-9.787998563999931],[-55.83222617599992,-9.736460945000012],[-55.89580345599991,-10.03726753599997],[-56.002825269999974,-10.124280912999915],[-56.10109260599991,-10.112023054],[-56.196911895999975,-10.201991472000014],[-56.06394347099999,-10.340286979999966],[-55.94190762799995,-10.38218517399999],[-55.80804769,-10.240251478999927],[-55.69030906599998,-10.249398748999958],[-55.591797641000014,-10.220851043999932],[-55.56999253899992,-10.126594722999958],[-55.557629948999946,-10.057007949999939]]]},"properties":{"CD_MUN":"5102793","NM_MUN":"Carlinda","SIGLA":"MT","AREA_KM2":2421.788,"auxiliary_":null,"auxiliar_1":null,"REGIAO_MAR":"MT CENTRO","BASE_RC":null,"ALLCON_TOT":12}},
{"type":"Feature","geometry":{"type":"Polygon","coordinates":[[[-54.88140897099997,-15.066261975],[-55.01655068199993,-15.002196775999952],[-55.10973045299991,-14.999772874999948],[-55.168273362,-14.792610474999943],[-55.353723343999945,-14.821026108999966],[-55.53748247299996,-14.875113089999967],[-55.64124942699992,-14.809099530000012],[-55.51272428799996,-14.749629978999987],[-55.396691066,-14.56783297699996],[-55.860244313999914,-14.837937049999947],[-56.01530291299996,-14.904722352999986],[-55.94263064599991,-15.034659959999939],[-56.24225608200001,-14.976465211999965],[-56.12934853899995,-15.096986779999941],[-55.92268529799995,-15.102828573999947],[-55.88858419099998,-15.27215366299993],[-55.80085155599994,-15.329108581999904],[-55.85953982899998,-15.41353269599993],[-55.82858220999995,-15.477849863999946],[-55.650726483999975,-15.481975647999988],[-55.50199525099997,-15.625019362999968],[-55.38195489099992,-15.633710993999959],[-55.40354216599994,-15.50920474099998],[-55.306091873999925,-15.515825935999903],[-55.26599442399995,-15.403562625999943],[-55.33378506299995,-15.35313647099997],[-55.16921612299994,-15.205489224999944],[-55.09860742099992,-15.10607962599991],[-54.88140897099997,-15.066261975]]]},"properties":{"CD_MUN":"5103007","NM_MUN":"Chapada dos Guimarães","SIGLA":"MT","AREA_KM2":6603.252,"auxiliary_":null,"auxiliar_1":null,"REGIAO_MAR":"MT CENTRO","BASE_RC":null,"ALLCON_TOT":26}},
{"type":"Feature","geometry":{"type":"Polygon","coordinates":[[[-54.921718573,-11.17587338799991],[-55.105713931999944,-11.212358942],[-55.17263651799997,-11.266343532999965],[-55.28341362099997,-11.278248396999988],[-55.38177521799998,-11.146076285999982],[-55.434633331,-11.193603063999955],[-55.46279453499993,-11.355331204000016],[-55.41260366299998,-11.490973585999917],[-55.31047914699993,-11.53075646299989],[-55.28545075699995,-11.666237514999942],[-55.067056824999945,-11.696919552999905],[-55.00804040899993,-11.669286035999935],[-54.862033882999945,-11.750764661999966],[-54.77479969799994,-11.758602068999977],[-54.727947983999954,-11.6491530119999],[-54.70168192999998,-11.452455800999903],[-54.69856302499993,-11.255733249999942],[-54.86399176299994,-11.287301928],[-54.921718573,-11.17587338799991]]]},"properties":{"CD_MUN":"5103056","NM_MUN":"Cláudia","SIGLA":"MT","AREA_KM2":3843.561,"auxiliary_":null,"auxiliar_1":null,"REGIAO_MAR":"MT CENTRO","BASE_RC":null,"ALLCON_TOT":32}},
{"type":"Feature","geometry":{"type":"Polygon","coordinates":[[[-55.33033692199993,-10.501577960999917],[-55.43107561999997,-10.431763137999948],[-55.516959549,-10.160846658999976],[-55.56999253899992,-10.126594722999958],[-55.591797641000014,-10.220851043999932],[-55.69030906599998,-10.249398748999958],[-55.707003892999936,-10.29606340499992],[-55.62379835799993,-10.526513096],[-55.67476969199998,-10.816737848999889],[-55.616726305,-10.96127430300001],[-55.445909291999946,-11.013511953999942],[-55.39360851699995,-10.923579451999963],[-55.27424710799995,-10.87469272999991],[-55.168700433,-10.779491324999988],[-55.16196859899998,-10.723384036999981],[-55.23980035099997,-10.565991868999944],[-55.33033692199993,-10.501577960999917]]]},"properties":{"CD_MUN":"5103205","NM_MUN":"Colíder","SIGLA":"MT","AREA_KM2":3112.091,"auxiliary_":null,"auxiliar_1":null,"REGIAO_MAR":"MT CENTRO","BASE_RC":null,"ALLCON_TOT":8}},
{"type":"Feature","geometry":{"type":"Polygon","coordinates":[[[-55.38195489099992,-15.633710993999959],[-55.50199525099997,-15.625019362999968],[-55.650726483999975,-15.481975647999988],[-55.82858220999995,-15.477849863999946],[-55.85953982899998,-15.41353269599993],[-55.80085155599994,-15.329108581999904],[-55.88858419099998,-15.27215366299993],[-55.92268529799995,-15.102828573999947],[-56.12934853899995,-15.096986779999941],[-56.27531525099993,-15.210168615999962],[-56.27874758899998,-15.340120788999965],[-56.13468073499998,-15.620605972999932],[-56.07019427399999,-15.644290752999943],[-56.14592193099998,-15.769688935],[-55.89297970299995,-15.69869198600001],[-55.708754736999936,-15.705097639999952],[-55.5702145449999,-15.776384969999988],[-55.54756004199996,-15.861539177999937],[-55.371400815999934,-16.040000222999904],[-55.38159934399991,-16.109807823999986],[-55.47493221199994,-16.179567413],[-55.51909866399997,-16.30896782599992],[-55.34715492099995,-16.317498871999945],[-55.38099752999994,-16.402730389999896],[-55.284724806000014,-16.48312306799996],[-55.28486355799995,-16.483400570999915],[-55.18059160399994,-16.529340288999936],[-55.15763730299998,-16.442455985000013],[-55.200073441000015,-16.453498811999943],[-55.303086807999975,-15.897471573],[-55.41317759799995,-15.761749330999972],[-55.38195489099992,-15.633710993999959]]]},"properties":{"CD_MUN":"5103403","NM_MUN":"Cuiabá","SIGLA":"MT","AREA_KM2":5077.181,"auxiliary_":null,"auxiliar_1":null,"REGIAO_MAR":"MT CENTRO","BASE_RC":null,"ALLCON_TOT":0}},
{"type":"Feature","geometry":{"type":"Polygon","coordinates":[[[-56.72585172299993,-14.649109412999959],[-56.906675992999936,-14.591804215999957],[-56.94970763099995,-14.502994339999962],[-56.94970845999993,-14.502995375999959],[-57.110575656,-14.607972213999929],[-57.14764933199998,-14.802156231],[-56.92696496299991,-14.93663647499993],[-56.72585172299993,-14.649109412999959]]]},"properties":{"CD_MUN":"5103452","NM_MUN":"Denise","SIGLA":"MT","AREA_KM2":1273.178,"auxiliary_":null,"auxiliar_1":null,"REGIAO_MAR":"MT CENTRO","BASE_RC":null,"ALLCON_TOT":12}},
{"type":"Feature","geometry":{"type":"Polygon","coordinates":[[[-57.28026503699992,-13.807625968999968],[-57.353339935999976,-13.738245243999945],[-57.36567720299998,-13.586444858999922],[-57.628139482999984,-13.963441191],[-57.69096408199996,-14.087494465999981],[-57.68536609599997,-14.211445604999948],[-57.732865919999924,-14.303413108],[-57.58910981699998,-14.194339543999988],[-57.50812975599999,-14.22247451399997],[-57.377005612999916,-14.155626544999986],[-57.334761186999934,-14.18635881200002],[-57.14627531199998,-14.162362914999935],[-57.0636067409999,-14.19852555199995],[-56.93923484399994,-14.164723575999947],[-56.768905584,-14.15072674599994],[-56.537242033999945,-14.26172971399998],[-56.55246549799992,-14.393020631999907],[-56.40794194199998,-14.463823127999973],[-56.47839490899999,-14.664276247999961],[-56.35641888000002,-14.613044664999961],[-56.27212100199996,-14.631974705999937],[-56.208243602,-14.535780484999936],[-56.05067384899993,-14.421146812999961],[-55.97675272399993,-14.2917660919999],[-56.02861880399993,-14.22296113499991],[-56.06172710100001,-14.143800369],[-56.201854790999946,-14.166528219999961],[-56.26823585399993,-14.126043290999988],[-56.36135519299998,-13.90713943099998],[-56.41136403399997,-13.838421131999965],[-56.55796943799995,-13.89437823299998],[-56.69614991199998,-13.845988364999915],[-56.67203981299995,-13.697150549999968],[-56.74221016699994,-13.648246366999981],[-56.818270335,-13.745276632999968],[-57.05961630799996,-13.853979489999944],[-57.327424686999976,-13.876140309999894],[-57.28026503699992,-13.807625968999968]]]},"properties":{"CD_MUN":"5103502","NM_MUN":"Diamantino","SIGLA":"MT","AREA_KM2":8263.397,"auxiliary_":-57.0481073864465,"auxiliar_1":-15.104549115104424,"REGIAO_MAR":"MT CENTRO","BASE_RC":null,"ALLCON_TOT":29}},
{"type":"Feature","geometry":{"type":"Polygon","coordinates":[[[-54.99558517400003,-9.505339154999923],[-54.957178157999934,-9.67696063799993],[-54.995184674000015,-9.820844592999975],[-55.05061600299996,-9.88551001499994],[-55.03264988199998,-9.968479202999934],[-55.13777308999998,-10.045990066999941],[-54.668530823,-10.055279838999951],[-54.63884887899992,-9.981532978999983],[-54.46891376699991,-9.999483151999886],[-54.267459173999924,-9.975133806999956],[-54.255707175999945,-9.852599203999954],[-54.15830317999994,-9.792510557999954],[-54.13669742099991,-9.588041476999951],[-54.10679651799992,-9.571907913999986],[-54.99558517400003,-9.505339154999923]]]},"properties":{"CD_MUN":"5104104","NM_MUN":"Guarantã do Norte","SIGLA":"MT","AREA_KM2":4725.281,"auxiliary_":null,"auxiliar_1":null,"REGIAO_MAR":"MT CENTRO","BASE_RC":null,"ALLCON_TOT":10}},
{"type":"Feature","geometry":{"type":"Polygon","coordinates":[[[-55.73336267499995,-11.725867969999957],[-55.81378278499997,-11.497520622999922],[-55.780128228,-11.445988769999946],[-55.86214045699995,-11.579258917999944],[-55.964544809999964,-11.6159189279999],[-56.07243836099995,-11.691776628],[-56.09945855099998,-11.82514171499994],[-56.21098807999998,-11.918104435],[-56.32232770099998,-12.11852898399993],[-56.38900619899998,-12.18456050199995],[-56.415336225,-12.247756811999952],[-56.35655503799992,-12.266114421999905],[-56.24417784499995,-12.441498247],[-56.18996383599992,-12.381959515999927],[-56.0597355859999,-12.428593561999932],[-55.903380934,-12.161693530999926],[-55.908625425999965,-12.033715068999982],[-55.82730229799992,-11.751900147999947],[-55.73336267499995,-11.725867969999957]]]},"properties":{"CD_MUN":"5104526","NM_MUN":"Ipiranga do Norte","SIGLA":"MT","AREA_KM2":3422.016,"auxiliary_":null,"auxiliar_1":null,"REGIAO_MAR":"MT CENTRO","BASE_RC":null,"ALLCON_TOT":10}},
{"type":"Feature","geometry":{"type":"Polygon","coordinates":[[[-56.38900619899998,-12.18456050199995],[-56.46128281799997,-11.995333374999948],[-56.56667320799997,-11.960906211999909],[-56.68865342899993,-11.988583490999947],[-56.78688841299994,-11.913816894999982],[-57.14491917699995,-12.006687966999916],[-57.007764219999956,-12.283634875999958],[-56.95615608999997,-12.299166755999966],[-56.84657601599998,-12.371687364],[-56.68634373199996,-12.318263131999938],[-56.62674736299992,-12.36748750299995],[-56.528969072999956,-12.348227636999951],[-56.415336225,-12.247756811999952],[-56.38900619899998,-12.18456050199995]]]},"properties":{"CD_MUN":"5104542","NM_MUN":"Itanhangá","SIGLA":"MT","AREA_KM2":2909.745,"auxiliary_":null,"auxiliar_1":null,"REGIAO_MAR":"MT CENTRO","BASE_RC":null,"ALLCON_TOT":35}},
{"type":"Feature","geometry":{"type":"Polygon","coordinates":[[[-55.616726305,-10.96127430300001],[-55.76466598199998,-10.98564058099992],[-55.882928333999985,-10.873246159999947],[-56.320957075,-11.092705100999964],[-55.835914183999975,-11.310994997999977],[-55.616459377999945,-11.32100545199993],[-55.51197929399996,-11.404760414999924],[-55.46279453499993,-11.355331204000016],[-55.434633331,-11.193603063999955],[-55.38177521799998,-11.146076285999982],[-55.28341362099997,-11.278248396999988],[-55.17263651799997,-11.266343532999965],[-55.105713931999944,-11.212358942],[-54.921718573,-11.17587338799991],[-54.942071496999944,-11.036317041],[-55.07572013999999,-11.005580016999925],[-55.27424710799995,-10.87469272999991],[-55.39360851699995,-10.923579451999963],[-55.445909291999946,-11.013511953999942],[-55.616726305,-10.96127430300001]]]},"properties":{"CD_MUN":"5104559","NM_MUN":"Itaúba","SIGLA":"MT","AREA_KM2":4521.79,"auxiliary_":null,"auxiliar_1":null,"REGIAO_MAR":"MT CENTRO","BASE_RC":null,"ALLCON_TOT":4}},
{"type":"Feature","geometry":{"type":"Polygon","coordinates":[[[-56.45052400299992,-15.143602811999965],[-56.5404511789999,-15.137785075],[-56.89433125299993,-15.469294939999898],[-56.93700533899994,-15.540672274],[-56.904755157,-15.516974197999964],[-56.78199875099993,-15.395347374000021],[-56.68302411599992,-15.479229989],[-56.50267061299996,-15.510519510999963],[-56.408822710000024,-15.434308572999953],[-56.35552265299994,-15.412305833999937],[-56.451445442999955,-15.26790614099994],[-56.45052400299992,-15.143602811999965]]]},"properties":{"CD_MUN":"5104906","NM_MUN":"Jangada","SIGLA":"MT","AREA_KM2":1114.302,"auxiliary_":null,"auxiliar_1":null,"REGIAO_MAR":"MT CENTRO","BASE_RC":null,"ALLCON_TOT":0}},
{"type":"Feature","geometry":{"type":"Polygon","coordinates":[[[-56.116675783,-12.638163010999968],[-56.26848277600003,-12.702065807999894],[-56.401553092,-12.888984311999927],[-56.50226018300002,-12.88322610499991],[-56.61087183,-13.021191364999893],[-56.45990933599993,-13.046021203999967],[-56.345627196999914,-13.111395048999928],[-56.16560491199991,-13.392332422],[-55.97715278499999,-13.453400538999958],[-55.96744805199993,-13.330374536999976],[-55.879159574,-13.256601159999946],[-55.89028355899998,-13.046138425999985],[-55.992932388999975,-12.873415189999946],[-56.04163493599998,-12.69863036299995],[-56.116675783,-12.638163010999968]]]},"properties":{"CD_MUN":"5105259","NM_MUN":"Lucas do Rio Verde","SIGLA":"MT","AREA_KM2":3674.596,"auxiliary_":-57.01028359599458,"auxiliar_1":-13.130924701027602,"REGIAO_MAR":"MT CENTRO","BASE_RC":"CARLOS","ALLCON_TOT":18}},
{"type":"Feature","geometry":{"type":"Polygon","coordinates":[[[-53.58905246199994,-9.611007689999926],[-54.10679651799992,-9.571907913999986],[-54.13669742099991,-9.588041476999951],[-54.15830317999994,-9.792510557999954],[-54.255707175999945,-9.852599203999954],[-54.267459173999924,-9.975133806999956],[-54.46891376699991,-9.999483151999886],[-54.63884887899992,-9.981532978999983],[-54.668530823,-10.055279838999951],[-55.13777308999998,-10.045990066999941],[-55.17022630499994,-10.190704888999988],[-55.242154751,-10.146146313999935],[-55.166334569999904,-10.217930430999953],[-55.15393372399997,-10.225803750999916],[-55.055908306999974,-10.130102880999967],[-54.91644874099998,-10.248288272],[-54.85718236399998,-10.239844890999947],[-54.655176364999946,-10.354246301999979],[-54.525420940999965,-10.38990246799992],[-54.341234980999985,-10.283885108999922],[-54.1434622259999,-10.237712785999928],[-54.113023568999914,-10.094699565999985],[-54.00546811500001,-9.975134126999894],[-53.943849061999956,-9.850469322999942],[-53.838990574,-9.84080071199994],[-53.76124173199994,-9.710320050999908],[-53.599868265999916,-9.649169898],[-53.58905246199994,-9.611007689999926]]]},"properties":{"CD_MUN":"5105606","NM_MUN":"Matupá","SIGLA":"MT","AREA_KM2":5228.272,"auxiliary_":-54.537198365083306,"auxiliar_1":-10.254043360087426,"REGIAO_MAR":"MT CENTRO","BASE_RC":null,"ALLCON_TOT":10}},
{"type":"Feature","geometry":{"type":"Polygon","coordinates":[[[-55.38212996299993,-14.143743458999989],[-55.55106826899998,-14.021763070999924],[-55.66477245499996,-14.017380305999936],[-55.71264516399996,-14.114809429999973],[-56.02861880399993,-14.22296113499991],[-55.97675272399993,-14.2917660919999],[-56.05067384899993,-14.421146812999961],[-56.208243602,-14.535780484999936],[-56.27212100199996,-14.631974705999937],[-56.35641888000002,-14.613044664999961],[-56.47839490899999,-14.664276247999961],[-56.42443089199995,-14.742554083999924],[-56.298410382,-14.766187488999947],[-56.249765929999924,-14.696867777],[-56.13836374099998,-14.652134893],[-56.100772701,-14.697192355999942],[-55.8473080049999,-14.648197235999891],[-55.825567363,-14.51553533399995],[-55.60655483099996,-14.442514385],[-55.431199567999926,-14.32236974399995],[-55.221728353999936,-14.288180241999946],[-55.24122688499997,-14.239930081999983],[-55.307098525,-14.242640048999942],[-55.38212996299993,-14.143743458999989]]]},"properties":{"CD_MUN":"5105903","NM_MUN":"Nobres","SIGLA":"MT","AREA_KM2":3908.739,"auxiliary_":null,"auxiliar_1":null,"REGIAO_MAR":"MT CENTRO","BASE_RC":null,"ALLCON_TOT":11}},
{"type":"Feature","geometry":{"type":"Polygon","coordinates":[[[-56.55246549799992,-14.393020631999907],[-56.537242033999945,-14.26172971399998],[-56.768905584,-14.15072674599994],[-56.93923484399994,-14.164723575999947],[-56.86667710999995,-14.263453962],[-56.88731135799998,-14.36087757299994],[-56.81592127399996,-14.44417926099991],[-56.72585172299993,-14.649109412999959],[-56.64488486199996,-14.498619714999936],[-56.54386598299992,-14.452406096],[-56.55246549799992,-14.393020631999907]]]},"properties":{"CD_MUN":"5106000","NM_MUN":"Nortelândia","SIGLA":"MT","AREA_KM2":1336.754,"auxiliary_":null,"auxiliar_1":null,"REGIAO_MAR":"MT CENTRO","BASE_RC":null,"ALLCON_TOT":7}},
{"type":"Feature","geometry":{"type":"Polygon","coordinates":[[[-56.408822710000024,-15.434308572999953],[-56.50267061299996,-15.510519510999963],[-56.68302411599992,-15.479229989],[-56.82095406099991,-15.471364247999961],[-56.904755157,-15.516974197999964],[-56.93700533899994,-15.540672274],[-56.975288618,-15.465194413],[-57.092802069999955,-15.583726480999935],[-57.22479700599996,-15.85087516999991],[-57.00874289599993,-15.741468396999956],[-57.00745397899995,-15.803708435999972],[-56.91231026299992,-15.763974043999927],[-56.864303129,-15.818939977],[-56.726450690999926,-15.799206875000014],[-56.44804614999998,-15.697684895],[-56.56515739099996,-15.882660645999955],[-56.560787534999974,-15.941124649999914],[-56.389628502999955,-16.046738671999936],[-56.45524983299996,-16.280451989999953],[-56.215988709000015,-16.187720026999983],[-56.30110117699998,-16.397012203],[-56.06574583399998,-16.314242621999906],[-55.94888756099998,-16.16631245699992],[-56.09331439899991,-15.930445732999985],[-56.09656997799989,-15.784915441999967],[-56.14592193099998,-15.769688935],[-56.24534663400002,-15.759989044999898],[-56.215051820999946,-15.616980092999952],[-56.38981936899994,-15.52381585499992],[-56.408822710000024,-15.434308572999953]]]},"properties":{"CD_MUN":"5106109","NM_MUN":"Nossa Senhora do Livramento","SIGLA":"MT","AREA_KM2":5537.413,"auxiliary_":null,"auxiliar_1":null,"REGIAO_MAR":"MT CENTRO","BASE_RC":null,"ALLCON_TOT":0}},
{"type":"Feature","geometry":{"type":"Polygon","coordinates":[[[-54.60840819199994,-10.592793048999969],[-54.63991957099996,-10.537408387999978],[-54.67206195799996,-10.594015415999944],[-54.79796800699994,-10.61991322499992],[-54.88301873899994,-10.72829457699994],[-55.16196859899998,-10.723384036999981],[-55.168700433,-10.779491324999988],[-55.27424710799995,-10.87469272999991],[-55.07572013999999,-11.005580016999925],[-54.942071496999944,-11.036317041],[-54.921718573,-11.17587338799991],[-54.86399176299994,-11.287301928],[-54.69856302499993,-11.255733249999942],[-54.620600863999975,-11.180964032999938],[-54.67378714999997,-11.115756148999942],[-54.893671038999976,-10.968514285999973],[-54.810355819999955,-10.894463298999977],[-54.71874701699992,-10.720312935999985],[-54.60840819199994,-10.592793048999969]]]},"properties":{"CD_MUN":"5106190","NM_MUN":"Nova Santa Helena","SIGLA":"MT","AREA_KM2":2385.611,"auxiliary_":null,"auxiliar_1":null,"REGIAO_MAR":"MT CENTRO","BASE_RC":null,"ALLCON_TOT":4}},
{"type":"Feature","geometry":{"type":"Polygon","coordinates":[[[-54.528290955999935,-14.779593948999956],[-54.625101054,-14.735506537999985],[-54.74734550899997,-14.796188985999912],[-54.92389529899999,-14.79385266099996],[-54.90689681699996,-14.651551436999952],[-54.92970519700002,-14.41941400299994],[-55.04695470599998,-14.544168535999944],[-55.23283440999995,-14.635026660999948],[-55.396691066,-14.56783297699996],[-55.51272428799996,-14.749629978999987],[-55.64124942699992,-14.809099530000012],[-55.53748247299996,-14.875113089999967],[-55.353723343999945,-14.821026108999966],[-55.168273362,-14.792610474999943],[-55.10973045299991,-14.999772874999948],[-55.01655068199993,-15.002196775999952],[-54.88140897099997,-15.066261975],[-54.84375795399991,-15.066481976999988],[-54.647565997999976,-14.91575485699995],[-54.498329048999956,-14.863030571999989],[-54.528290955999935,-14.779593948999956]]]},"properties":{"CD_MUN":"5106208","NM_MUN":"Nova Brasilândia","SIGLA":"MT","AREA_KM2":3290.032,"auxiliary_":null,"auxiliar_1":null,"REGIAO_MAR":"MT CENTRO","BASE_RC":null,"ALLCON_TOT":2}},
{"type":"Feature","geometry":{"type":"Polygon","coordinates":[[[-55.69030906599998,-10.249398748999958],[-55.80804769,-10.240251478999927],[-55.94190762799995,-10.38218517399999],[-56.06394347099999,-10.340286979999966],[-56.28179302399998,-10.405952564999907],[-56.24078330000002,-10.492117446],[-56.264956136,-10.579255831999976],[-56.40898093299997,-10.57956763699993],[-56.43372845999998,-10.682695023999909],[-56.40363917399995,-10.799817908999962],[-56.57057471499993,-10.950203464999984],[-56.59175872899997,-11.024882851999926],[-56.50869723699998,-11.095112489999934],[-56.320957075,-11.092705100999964],[-55.882928333999985,-10.873246159999947],[-55.76466598199998,-10.98564058099992],[-55.616726305,-10.96127430300001],[-55.67476969199998,-10.816737848999889],[-55.62379835799993,-10.526513096],[-55.707003892999936,-10.29606340499992],[-55.69030906599998,-10.249398748999958]]]},"properties":{"CD_MUN":"5106216","NM_MUN":"Nova Canaã do Norte","SIGLA":"MT","AREA_KM2":5953.099,"auxiliary_":null,"auxiliar_1":null,"REGIAO_MAR":"MT CENTRO","BASE_RC":null,"ALLCON_TOT":6}},
{"type":"Feature","geometry":{"type":"Polygon","coordinates":[[[-56.50226018300002,-12.88322610499991],[-56.773283404000026,-12.834847984999929],[-56.73993966800001,-12.954677095999987],[-56.725236888999945,-13.118790307999948],[-56.64355910799996,-13.253620777],[-56.611469109999945,-13.400141996999935],[-56.507294584,-13.532457897999937],[-56.41774320799995,-13.587700552999902],[-56.38312090299992,-13.716478024999965],[-56.41136403399997,-13.838421131999965],[-56.36135519299998,-13.90713943099998],[-56.26823585399993,-14.126043290999988],[-56.201854790999946,-14.166528219999961],[-56.06172710100001,-14.143800369],[-56.02861880399993,-14.22296113499991],[-55.71264516399996,-14.114809429999973],[-55.66477245499996,-14.017380305999936],[-55.55106826899998,-14.021763070999924],[-55.38212996299993,-14.143743458999989],[-55.5377393169999,-13.903863899999944],[-55.52870476299995,-13.813990789999906],[-55.60551743900001,-13.695366065999934],[-55.60229496899993,-13.614412176999977],[-55.692053684,-13.414297748999946],[-55.76937722599997,-13.342451189],[-55.879159574,-13.256601159999946],[-55.96744805199993,-13.330374536999976],[-55.97715278499999,-13.453400538999958],[-56.16560491199991,-13.392332422],[-56.345627196999914,-13.111395048999928],[-56.45990933599993,-13.046021203999967],[-56.61087183,-13.021191364999893],[-56.50226018300002,-12.88322610499991]]]},"properties":{"CD_MUN":"5106224","NM_MUN":"Nova Mutum","SIGLA":"MT","AREA_KM2":9536.814,"auxiliary_":-56.124903150293314,"auxiliar_1":-13.765351036869438,"REGIAO_MAR":"MT CENTRO","BASE_RC":null,"ALLCON_TOT":26}},
{"type":"Feature","geometry":{"type":"Polygon","coordinates":[[[-57.14764933199998,-14.802156231],[-57.110575656,-14.607972213999929],[-57.16973915899992,-14.664515644999963],[-57.41020335799993,-14.702756823999916],[-57.437337067999934,-14.740251466999919],[-57.662541764,-14.753877668],[-57.72434333499998,-14.785062702999916],[-57.747933474999975,-14.912746201999969],[-57.627710145999984,-14.925178955999971],[-57.495178518999985,-14.877678031999917],[-57.315193814999986,-14.956610223999931],[-57.23320394699993,-14.819312594999943],[-57.14764933199998,-14.802156231]]]},"properties":{"CD_MUN":"5106232","NM_MUN":"Nova Olímpia","SIGLA":"MT","AREA_KM2":1327.266,"auxiliary_":null,"auxiliar_1":null,"REGIAO_MAR":"MT CENTRO","BASE_RC":null,"ALLCON_TOT":6}},
{"type":"Feature","geometry":{"type":"Polygon","coordinates":[[[-54.99558517400003,-9.505339154999923],[-55.867197081,-9.434279606],[-55.93393599599993,-9.608541338999963],[-55.83222617599992,-9.736460945000012],[-55.733296987999935,-9.787998563999931],[-55.670930021999894,-9.89874077899998],[-55.57488986899994,-9.951266279999924],[-55.557629948999946,-10.057007949999939],[-55.35174634599997,-10.187255094999923],[-55.242154751,-10.146146313999935],[-55.17022630499994,-10.190704888999988],[-55.13777308999998,-10.045990066999941],[-55.03264988199998,-9.968479202999934],[-55.05061600299996,-9.88551001499994],[-54.995184674000015,-9.820844592999975],[-54.957178157999934,-9.67696063799993],[-54.99558517400003,-9.505339154999923]]]},"properties":{"CD_MUN":"5106265","NM_MUN":"Novo Mundo","SIGLA":"MT","AREA_KM2":5800.759,"auxiliary_":null,"auxiliar_1":null,"REGIAO_MAR":"MT CENTRO","BASE_RC":null,"ALLCON_TOT":10}},
{"type":"Feature","geometry":{"type":"Polygon","coordinates":[[[-57.139001747,-11.317655670999969],[-57.282454345999966,-11.284157154999939],[-57.55661919799994,-11.326086027000013],[-57.40810634199997,-11.493876287000013],[-57.27977465899993,-11.501980422999978],[-57.21317983599994,-11.425047590999924],[-57.125269084,-11.459598894999932],[-57.060145635999966,-11.359149539999933],[-57.139001747,-11.317655670999969]]]},"properties":{"CD_MUN":"5106273","NM_MUN":"Novo Horizonte do Norte","SIGLA":"MT","AREA_KM2":920.048,"auxiliary_":null,"auxiliar_1":null,"REGIAO_MAR":"MT CENTRO","BASE_RC":null,"ALLCON_TOT":2}},
{"type":"Feature","geometry":{"type":"Polygon","coordinates":[[[-56.27232522499998,-9.400843742999907],[-56.67188268199992,-9.367396943999982],[-56.77232361899993,-9.390959299999988],[-56.820108799999964,-9.246340380999971],[-57.100450296999945,-9.216542318999963],[-57.081324168,-9.392767825999968],[-57.132082284,-9.416760785999898],[-56.94156201899993,-9.593779518999987],[-56.853036476999925,-9.815589958999968],[-56.93800345299992,-9.936336984999947],[-56.89771719999996,-9.948134799999906],[-56.3793142,-9.919451899999974],[-56.32833203899993,-9.809802282],[-56.33996003499996,-9.631446451999945],[-56.25331793999992,-9.472008564999932],[-56.27232522499998,-9.400843742999907]]]},"properties":{"CD_MUN":"5106299","NM_MUN":"Paranaíta","SIGLA":"MT","AREA_KM2":4814.149,"auxiliary_":null,"auxiliar_1":null,"REGIAO_MAR":"MT CENTRO","BASE_RC":null,"ALLCON_TOT":14}},
{"type":"Feature","geometry":{"type":"Polygon","coordinates":[[[-54.60840819199994,-10.592793048999969],[-54.429313602999954,-10.542551728000014],[-54.351081798999985,-10.455198585999934],[-54.245919972999985,-10.433293971999955],[-54.077557,-10.450304],[-53.92492089999996,-10.564833499999935],[-53.659114299999914,-10.51580719999988],[-53.319291005999965,-10.643165317999923],[-53.12697629999994,-10.773952199999979],[-53.08433912199996,-10.710485499999987],[-53.08300700299996,-10.499757291],[-53.02143995499995,-10.322828935999926],[-52.958926192999925,-10.302457043999933],[-52.97940323999992,-10.056100005999955],[-52.776001580999946,-9.83252033699996],[-52.65702390599991,-9.781938142999955],[-52.619354665999936,-9.68224643799994],[-53.58905246199994,-9.611007689999926],[-53.599868265999916,-9.649169898],[-53.76124173199994,-9.710320050999908],[-53.838990574,-9.84080071199994],[-53.943849061999956,-9.850469322999942],[-54.00546811500001,-9.975134126999894],[-54.113023568999914,-10.094699565999985],[-54.1434622259999,-10.237712785999928],[-54.341234980999985,-10.283885108999922],[-54.525420940999965,-10.38990246799992],[-54.655176364999946,-10.354246301999979],[-54.85718236399998,-10.239844890999947],[-54.91644874099998,-10.248288272],[-55.055908306999974,-10.130102880999967],[-55.15393372399997,-10.225803750999916],[-55.03285002099993,-10.302680021],[-54.655392816,-10.443900152],[-54.63991957099996,-10.537408387999978],[-54.60840819199994,-10.592793048999969]]]},"properties":{"CD_MUN":"5106422","NM_MUN":"Peixoto de Azevedo","SIGLA":"MT","AREA_KM2":14433.775,"auxiliary_":null,"auxiliar_1":null,"REGIAO_MAR":"MT CENTRO","BASE_RC":null,"ALLCON_TOT":8}},
{"type":"Feature","geometry":{"type":"Polygon","coordinates":[[[-54.528290955999935,-14.779593948999956],[-54.33751067999994,-14.732816741],[-54.39870397299995,-14.531796910999937],[-54.54998579599996,-14.476404830999954],[-54.595941722,-14.398546024999934],[-54.70862605799997,-14.320191128],[-54.815014711999964,-14.294047237],[-54.92970519700002,-14.41941400299994],[-54.90689681699996,-14.651551436999952],[-54.92389529899999,-14.79385266099996],[-54.74734550899997,-14.796188985999912],[-54.625101054,-14.735506537999985],[-54.528290955999935,-14.779593948999956]]]},"properties":{"CD_MUN":"5106455","NM_MUN":"Planalto da Serra","SIGLA":"MT","AREA_KM2":2437.59,"auxiliary_":null,"auxiliar_1":null,"REGIAO_MAR":"MT CENTRO","BASE_RC":null,"ALLCON_TOT":2}},
{"type":"Feature","geometry":{"type":"Polygon","coordinates":[[[-56.30110117699998,-16.397012203],[-56.215988709000015,-16.187720026999983],[-56.45524983299996,-16.280451989999953],[-56.389628502999955,-16.046738671999936],[-56.560787534999974,-15.941124649999914],[-56.56515739099996,-15.882660645999955],[-56.44804614999998,-15.697684895],[-56.726450690999926,-15.799206875000014],[-56.864303129,-15.818939977],[-56.91231026299992,-15.763974043999927],[-57.00745397899995,-15.803708435999972],[-57.15350716899998,-16.00081439699995],[-57.071739978999965,-16.26786166099997],[-57.07560648899996,-16.419433449999907],[-57.15123346899997,-16.434729792999967],[-57.188015852999925,-16.527753434],[-57.40294778699992,-16.638169782],[-57.36340392999992,-16.823033862999957],[-57.432288618999934,-16.9205659739999],[-57.33464102499994,-17.207155150999895],[-57.33759530499995,-17.358706181999892],[-57.426355289,-17.41874579300001],[-57.500778485999966,-17.535586628],[-57.67776865799991,-17.604982101],[-57.68461313099992,-17.716481508],[-57.609308838999965,-17.797541499999934],[-57.48527439599995,-17.862228093999963],[-57.225243501999955,-17.78284290599995],[-57.101495464,-17.772186335999915],[-56.87596746299992,-17.53297218699995],[-56.82440695599997,-17.42307894699998],[-56.723271946,-17.308479614],[-56.587592146999924,-17.04931228699996],[-56.63208467899993,-16.980054166999956],[-56.61885562099995,-16.8718044249999],[-56.506979489999964,-16.72489294099991],[-56.30110117699998,-16.397012203]]]},"properties":{"CD_MUN":"5106505","NM_MUN":"Poconé","SIGLA":"MT","AREA_KM2":17156.759,"auxiliary_":null,"auxiliar_1":null,"REGIAO_MAR":"MT CENTRO","BASE_RC":null,"ALLCON_TOT":0}},
{"type":"Feature","geometry":{"type":"Polygon","coordinates":[[[-55.964544809999964,-11.6159189279999],[-56.19189074099992,-11.63985991699997],[-56.43304384999992,-11.547721491999905],[-56.534966594999965,-11.561943947999929],[-56.66414777499995,-11.522118185999961],[-56.85384612399994,-11.507692706999926],[-56.93981550099993,-11.390567725999965],[-57.060145635999966,-11.359149539999933],[-57.125269084,-11.459598894999932],[-57.21317983599994,-11.425047590999924],[-57.27977465899993,-11.501980422999978],[-57.40810634199997,-11.493876287000013],[-57.442904235999954,-11.563586738999962],[-57.40572055599992,-11.719825861999897],[-57.370653581999974,-11.709141067999926],[-57.196382219,-11.845726563999968],[-57.14491917699995,-12.006687966999916],[-56.78688841299994,-11.913816894999982],[-56.68865342899993,-11.988583490999947],[-56.56667320799997,-11.960906211999909],[-56.46128281799997,-11.995333374999948],[-56.38900619899998,-12.18456050199995],[-56.32232770099998,-12.11852898399993],[-56.21098807999998,-11.918104435],[-56.09945855099998,-11.82514171499994],[-56.07243836099995,-11.691776628],[-55.964544809999964,-11.6159189279999]]]},"properties":{"CD_MUN":"5106802","NM_MUN":"Porto dos Gaúchos","SIGLA":"MT","AREA_KM2":6846.668,"auxiliary_":null,"auxiliar_1":null,"REGIAO_MAR":"MT CENTRO","BASE_RC":null,"ALLCON_TOT":8}},
{"type":"Feature","geometry":{"type":"Polygon","coordinates":[[[-56.98058076099991,-15.38208842199996],[-57.06061861099993,-15.270289094999931],[-57.138275096,-15.232629234999937],[-57.296294344999964,-15.336338977999961],[-57.32075108799998,-15.465630046999976],[-57.44896790099993,-15.571839650999983],[-57.51717194199994,-15.71684403599992],[-57.45079920800002,-15.754846117999897],[-57.349396983999966,-15.725222663999947],[-57.312219462,-15.810042827999968],[-57.22479700599996,-15.85087516999991],[-57.092802069999955,-15.583726480999935],[-56.975288618,-15.465194413],[-56.98058076099991,-15.38208842199996]]]},"properties":{"CD_MUN":"5106851","NM_MUN":"Porto Estrela","SIGLA":"MT","AREA_KM2":2045.467,"auxiliary_":null,"auxiliar_1":null,"REGIAO_MAR":"MT CENTRO","BASE_RC":null,"ALLCON_TOT":0}},
{"type":"Feature","geometry":{"type":"Polygon","coordinates":[[[-55.12550885599998,-12.177594577000015],[-55.05644119299993,-12.15416270899997],[-55.012670302999936,-12.245539798000014],[-54.93159480299995,-12.13019728499992],[-54.802284215000014,-12.117879155999987],[-54.486348633,-12.00222365199993],[-54.40130387699995,-11.995368296],[-54.312092689999965,-11.87624496399998],[-54.56012424099994,-11.861658584999955],[-54.67243362599998,-11.666543084999912],[-54.727947983999954,-11.6491530119999],[-54.77479969799994,-11.758602068999977],[-54.862033882999945,-11.750764661999966],[-55.00804040899993,-11.669286035999935],[-55.067056824999945,-11.696919552999905],[-55.12133697299994,-11.804596607999915],[-55.19928355399994,-11.808078366999961],[-55.27176633799995,-11.90395804999996],[-55.37910839199995,-11.96757820699995],[-55.37935824399993,-12.04756354199997],[-55.30693235400001,-12.089635071999947],[-55.141038733999906,-12.120394393],[-55.12550885599998,-12.177594577000015]]]},"properties":{"CD_MUN":"5107248","NM_MUN":"Santa Carmem","SIGLA":"MT","AREA_KM2":3812.09,"auxiliary_":null,"auxiliar_1":null,"REGIAO_MAR":"MT CENTRO","BASE_RC":null,"ALLCON_TOT":8}},
{"type":"Feature","geometry":{"type":"Polygon","coordinates":[[[-56.9773269089999,-14.435624665999978],[-57.288927321999964,-14.419468582000015],[-57.39280940399995,-14.350896234999908],[-57.509151741,-14.326232779999923],[-57.6173718589999,-14.39641017399996],[-57.71982257099994,-14.375372222999925],[-57.71353437999995,-14.493010889999933],[-57.626103304,-14.544055982999957],[-57.503822777999964,-14.439815427999978],[-57.432298510999956,-14.493743210999952],[-57.329670210999964,-14.49646451499996],[-57.282744689999916,-14.556531087999911],[-56.94970845999993,-14.502995375999959],[-56.94970763099995,-14.502994339999962],[-56.9773269089999,-14.435624665999978]]]},"properties":{"CD_MUN":"5107263","NM_MUN":"Santo Afonso","SIGLA":"MT","AREA_KM2":1166.382,"auxiliary_":null,"auxiliar_1":null,"REGIAO_MAR":"MT CENTRO","BASE_RC":null,"ALLCON_TOT":2}},
{"type":"Feature","geometry":{"type":"Polygon","coordinates":[[[-56.41136403399997,-13.838421131999965],[-56.38312090299992,-13.716478024999965],[-56.41774320799995,-13.587700552999902],[-56.507294584,-13.532457897999937],[-56.611469109999945,-13.400141996999935],[-56.64355910799996,-13.253620777],[-56.725236888999945,-13.118790307999948],[-56.73993966800001,-12.954677095999987],[-56.82932139899998,-13.042483249999979],[-56.870792389,-13.161477869999914],[-56.951736012,-13.23307745999994],[-57.017446091999986,-13.366665200999925],[-56.995234191999984,-13.519134214999937],[-57.10269415499997,-13.579354065999958],[-57.140769611999986,-13.661341333999886],[-57.22033089099991,-13.703556841999962],[-57.28026503699992,-13.807625968999968],[-57.327424686999976,-13.876140309999894],[-57.05961630799996,-13.853979489999944],[-56.818270335,-13.745276632999968],[-56.74221016699994,-13.648246366999981],[-56.67203981299995,-13.697150549999968],[-56.69614991199998,-13.845988364999915],[-56.55796943799995,-13.89437823299998],[-56.41136403399997,-13.838421131999965]]]},"properties":{"CD_MUN":"5107305","NM_MUN":"São José do Rio Claro","SIGLA":"MT","AREA_KM2":4525.304,"auxiliary_":null,"auxiliar_1":null,"REGIAO_MAR":"MT CENTRO","BASE_RC":null,"ALLCON_TOT":17}},
{"type":"Feature","geometry":{"type":"MultiPolygon","coordinates":[[[[-56.68302411599992,-15.479229989],[-56.78199875099993,-15.395347374000021],[-56.904755157,-15.516974197999964],[-56.82095406099991,-15.471364247999961],[-56.68302411599992,-15.479229989]]],[[[-54.87526740199995,-14.211476428000012],[-55.02783753399997,-14.249703175000015],[-55.068681684999916,-14.205360266999953],[-55.24122688499997,-14.239930081999983],[-55.221728353999936,-14.288180241999946],[-55.431199567999926,-14.32236974399995],[-55.60655483099996,-14.442514385],[-55.825567363,-14.51553533399995],[-55.8473080049999,-14.648197235999891],[-56.100772701,-14.697192355999942],[-56.13836374099998,-14.652134893],[-56.249765929999924,-14.696867777],[-56.298410382,-14.766187488999947],[-56.42443089199995,-14.742554083999924],[-56.582183427999965,-14.849927406999939],[-56.70782479299998,-14.98134362499993],[-56.81949846299992,-15.145096578999926],[-56.98058076099991,-15.38208842199996],[-56.975288618,-15.465194413],[-56.93700533899994,-15.540672274],[-56.89433125299993,-15.469294939999898],[-56.5404511789999,-15.137785075],[-56.45052400299992,-15.143602811999965],[-56.466060757999976,-15.096455835999976],[-56.24225608200001,-14.976465211999965],[-55.94263064599991,-15.034659959999939],[-56.01530291299996,-14.904722352999986],[-55.860244313999914,-14.837937049999947],[-55.396691066,-14.56783297699996],[-55.23283440999995,-14.635026660999948],[-55.04695470599998,-14.544168535999944],[-54.92970519700002,-14.41941400299994],[-54.815014711999964,-14.294047237],[-54.87526740199995,-14.211476428000012]]]]},"properties":{"CD_MUN":"5107701","NM_MUN":"Rosário Oeste","SIGLA":"MT","AREA_KM2":7339.443,"auxiliary_":null,"auxiliar_1":null,"REGIAO_MAR":"MT CENTRO","BASE_RC":null,"ALLCON_TOT":23}},
{"type":"Feature","geometry":{"type":"Polygon","coordinates":[[[-55.08510993299993,-13.663392353999946],[-55.32688962099998,-13.564400485999926],[-55.391575185999926,-13.420980793999924],[-55.500485841999954,-13.33399344],[-55.587170817999905,-13.311495947],[-55.64429249499991,-13.379210402],[-55.76937722599997,-13.342451189],[-55.692053684,-13.414297748999946],[-55.60229496899993,-13.614412176999977],[-55.60551743900001,-13.695366065999934],[-55.52870476299995,-13.813990789999906],[-55.5377393169999,-13.903863899999944],[-55.38212996299993,-14.143743458999989],[-55.307098525,-14.242640048999942],[-55.24122688499997,-14.239930081999983],[-55.068681684999916,-14.205360266999953],[-55.02783753399997,-14.249703175000015],[-54.87526740199995,-14.211476428000012],[-54.9268023,-14.091596734999943],[-54.91105232099997,-13.96579548899993],[-54.97509313499995,-13.926854419999888],[-55.08510993299993,-13.663392353999946]]]},"properties":{"CD_MUN":"5107768","NM_MUN":"Santa Rita do Trivelato","SIGLA":"MT","AREA_KM2":4747.042,"auxiliary_":null,"auxiliar_1":null,"REGIAO_MAR":"MT CENTRO","BASE_RC":null,"ALLCON_TOT":6}},
{"type":"Feature","geometry":{"type":"Polygon","coordinates":[[[-55.284724806000014,-16.48312306799996],[-55.38099752999994,-16.402730389999896],[-55.34715492099995,-16.317498871999945],[-55.51909866399997,-16.30896782599992],[-55.47493221199994,-16.179567413],[-55.38159934399991,-16.109807823999986],[-55.371400815999934,-16.040000222999904],[-55.54756004199996,-15.861539177999937],[-55.5702145449999,-15.776384969999988],[-55.708754736999936,-15.705097639999952],[-55.89297970299995,-15.69869198600001],[-56.14592193099998,-15.769688935],[-56.09656997799989,-15.784915441999967],[-56.09331439899991,-15.930445732999985],[-55.94888756099998,-16.16631245699992],[-55.888600170999965,-16.123082128999986],[-55.69468626499996,-16.298000655999942],[-55.493744880999984,-16.389174758999978],[-55.60390029999997,-17.366706287999953],[-55.53098154799996,-17.328302692999973],[-55.360872649999955,-17.36029594499998],[-55.22045721300002,-17.267598073999988],[-55.02448545899991,-17.103302455999945],[-54.94719822399993,-17.107450729999982],[-54.93216831399998,-16.904234548],[-54.88692232299998,-16.83596981699994],[-54.94287589499997,-16.752615288999948],[-54.96989066899991,-16.470641038999965],[-55.15763730299998,-16.442455985000013],[-55.18059160399994,-16.529340288999936],[-55.28486355799995,-16.483400570999915],[-55.284724806000014,-16.48312306799996]]]},"properties":{"CD_MUN":"5107800","NM_MUN":"Santo Antônio do Leverger","SIGLA":"MT","AREA_KM2":9469.139,"auxiliary_":null,"auxiliar_1":null,"REGIAO_MAR":"MT CENTRO","BASE_RC":null,"ALLCON_TOT":35}},
{"type":"Feature","geometry":{"type":"Polygon","coordinates":[[[-55.46279453499993,-11.355331204000016],[-55.51197929399996,-11.404760414999924],[-55.616459377999945,-11.32100545199993],[-55.835914183999975,-11.310994997999977],[-55.780128228,-11.445988769999946],[-55.81378278499997,-11.497520622999922],[-55.73336267499995,-11.725867969999957],[-55.674731348,-11.80516224699991],[-55.65337738899993,-11.961433638999939],[-55.57816960999997,-12.114216246999963],[-55.521156422999965,-12.153147537999907],[-55.39158217599997,-12.158980984999932],[-55.30693235400001,-12.089635071999947],[-55.37935824399993,-12.04756354199997],[-55.37910839199995,-11.96757820699995],[-55.27176633799995,-11.90395804999996],[-55.19928355399994,-11.808078366999961],[-55.12133697299994,-11.804596607999915],[-55.067056824999945,-11.696919552999905],[-55.28545075699995,-11.666237514999942],[-55.31047914699993,-11.53075646299989],[-55.41260366299998,-11.490973585999917],[-55.46279453499993,-11.355331204000016]]]},"properties":{"CD_MUN":"5107909","NM_MUN":"Sinop","SIGLA":"MT","AREA_KM2":3990.87,"auxiliary_":null,"auxiliar_1":null,"REGIAO_MAR":"MT CENTRO","BASE_RC":null,"ALLCON_TOT":38}},
{"type":"Feature","geometry":{"type":"Polygon","coordinates":[[[-55.73336267499995,-11.725867969999957],[-55.82730229799992,-11.751900147999947],[-55.908625425999965,-12.033715068999982],[-55.903380934,-12.161693530999926],[-56.0597355859999,-12.428593561999932],[-56.116675783,-12.638163010999968],[-56.04163493599998,-12.69863036299995],[-55.992932388999975,-12.873415189999946],[-55.89028355899998,-13.046138425999985],[-55.879159574,-13.256601159999946],[-55.76937722599997,-13.342451189],[-55.64429249499991,-13.379210402],[-55.587170817999905,-13.311495947],[-55.500485841999954,-13.33399344],[-55.391575185999926,-13.420980793999924],[-55.32688962099998,-13.564400485999926],[-55.08510993299993,-13.663392353999946],[-55.147391226999986,-13.535818452999901],[-55.145425276999944,-13.443016780999937],[-55.32362296299997,-13.254475696999943],[-55.29534059399996,-13.123358041999964],[-55.351465171999976,-12.994954050999983],[-55.456669103,-12.856226671999913],[-55.447180131999936,-12.772272963],[-55.55948156799994,-12.646695573999942],[-55.579404675999925,-12.538867231999937],[-55.52356313299997,-12.417649319999988],[-55.588504525999944,-12.265938852999945],[-55.521156422999965,-12.153147537999907],[-55.57816960999997,-12.114216246999963],[-55.65337738899993,-11.961433638999939],[-55.674731348,-11.80516224699991],[-55.73336267499995,-11.725867969999957]]]},"properties":{"CD_MUN":"5107925","NM_MUN":"Sorriso","SIGLA":"MT","AREA_KM2":9293.629,"auxiliary_":-55.53462168006796,"auxiliar_1":-13.162800749147166,"REGIAO_MAR":"MT CENTRO","BASE_RC":null,"ALLCON_TOT":28}},
{"type":"Feature","geometry":{"type":"Polygon","coordinates":[[[-56.43372845999998,-10.682695023999909],[-56.628450728,-10.596692385999926],[-56.71528275999995,-10.492329866999981],[-56.782417031,-10.56922863599997],[-56.80294245399999,-10.781663215000012],[-56.73225158099992,-10.865519894999984],[-56.786673191,-10.983584291999957],[-56.93425616999994,-10.942402853],[-57.07479386499996,-10.994043010999963],[-57.025831484999955,-11.055248153999973],[-57.05083232999996,-11.252615049999957],[-57.139001747,-11.317655670999969],[-57.060145635999966,-11.359149539999933],[-56.93981550099993,-11.390567725999965],[-56.85384612399994,-11.507692706999926],[-56.66414777499995,-11.522118185999961],[-56.534966594999965,-11.561943947999929],[-56.43304384999992,-11.547721491999905],[-56.19189074099992,-11.63985991699997],[-55.964544809999964,-11.6159189279999],[-55.86214045699995,-11.579258917999944],[-55.780128228,-11.445988769999946],[-55.835914183999975,-11.310994997999977],[-56.320957075,-11.092705100999964],[-56.50869723699998,-11.095112489999934],[-56.59175872899997,-11.024882851999926],[-56.57057471499993,-10.950203464999984],[-56.40363917399995,-10.799817908999962],[-56.43372845999998,-10.682695023999909]]]},"properties":{"CD_MUN":"5107941","NM_MUN":"Tabaporã","SIGLA":"MT","AREA_KM2":8439.05,"auxiliary_":null,"auxiliar_1":null,"REGIAO_MAR":"MT CENTRO","BASE_RC":null,"ALLCON_TOT":21}},
{"type":"Feature","geometry":{"type":"Polygon","coordinates":[[[-56.0597355859999,-12.428593561999932],[-56.18996383599992,-12.381959515999927],[-56.24417784499995,-12.441498247],[-56.35655503799992,-12.266114421999905],[-56.415336225,-12.247756811999952],[-56.528969072999956,-12.348227636999951],[-56.62674736299992,-12.36748750299995],[-56.68634373199996,-12.318263131999938],[-56.84657601599998,-12.371687364],[-56.95615608999997,-12.299166755999966],[-56.95307552099999,-12.46995471999993],[-56.773283404000026,-12.834847984999929],[-56.50226018300002,-12.88322610499991],[-56.401553092,-12.888984311999927],[-56.26848277600003,-12.702065807999894],[-56.116675783,-12.638163010999968],[-56.0597355859999,-12.428593561999932]]]},"properties":{"CD_MUN":"5108006","NM_MUN":"Tapurah","SIGLA":"MT","AREA_KM2":4492.539,"auxiliary_":-56.54603100904695,"auxiliar_1":-12.595278634435566,"REGIAO_MAR":"MT CENTRO","BASE_RC":null,"ALLCON_TOT":11}},
{"type":"Feature","geometry":{"type":"Polygon","coordinates":[[[-54.63991957099996,-10.537408387999978],[-54.655392816,-10.443900152],[-55.03285002099993,-10.302680021],[-55.15393372399997,-10.225803750999916],[-55.166334569999904,-10.217930430999953],[-55.16777081,-10.354457891999989],[-55.28110747499994,-10.514319682999904],[-55.33033692199993,-10.501577960999917],[-55.23980035099997,-10.565991868999944],[-55.16196859899998,-10.723384036999981],[-54.88301873899994,-10.72829457699994],[-54.79796800699994,-10.61991322499992],[-54.67206195799996,-10.594015415999944],[-54.63991957099996,-10.537408387999978]]]},"properties":{"CD_MUN":"5108055","NM_MUN":"Terra Nova do Norte","SIGLA":"MT","AREA_KM2":2399.736,"auxiliary_":null,"auxiliar_1":null,"REGIAO_MAR":"MT CENTRO","BASE_RC":null,"ALLCON_TOT":14}},
{"type":"Feature","geometry":{"type":"Polygon","coordinates":[[[-56.14592193099998,-15.769688935],[-56.07019427399999,-15.644290752999943],[-56.13468073499998,-15.620605972999932],[-56.27874758899998,-15.340120788999965],[-56.35552265299994,-15.412305833999937],[-56.408822710000024,-15.434308572999953],[-56.38981936899994,-15.52381585499992],[-56.215051820999946,-15.616980092999952],[-56.24534663400002,-15.759989044999898],[-56.14592193099998,-15.769688935]]]},"properties":{"CD_MUN":"5108402","NM_MUN":"Várzea Grande","SIGLA":"MT","AREA_KM2":724.279,"auxiliary_":null,"auxiliar_1":null,"REGIAO_MAR":"MT CENTRO","BASE_RC":null,"ALLCON_TOT":0}},
{"type":"Feature","geometry":{"type":"MultiPolygon","coordinates":[[[[-55.08510993299993,-13.663392353999946],[-55.145425276999944,-13.443016780999937],[-55.147391226999986,-13.535818452999901],[-55.08510993299993,-13.663392353999946]]],[[[-55.12550885599998,-12.177594577000015],[-55.141038733999906,-12.120394393],[-55.30693235400001,-12.089635071999947],[-55.39158217599997,-12.158980984999932],[-55.521156422999965,-12.153147537999907],[-55.588504525999944,-12.265938852999945],[-55.52356313299997,-12.417649319999988],[-55.579404675999925,-12.538867231999937],[-55.55948156799994,-12.646695573999942],[-55.447180131999936,-12.772272963],[-55.456669103,-12.856226671999913],[-55.23201825599992,-12.598638055999931],[-55.157145730999986,-12.576249665999981],[-55.07161881900002,-12.366725964999912],[-55.12550885599998,-12.177594577000015]]]]},"properties":{"CD_MUN":"5108501","NM_MUN":"Vera","SIGLA":"MT","AREA_KM2":3058.364,"auxiliary_":null,"auxiliar_1":null,"REGIAO_MAR":"MT CENTRO","BASE_RC":null,"ALLCON_TOT":18}},
{"type":"Feature","geometry":{"type":"Polygon","coordinates":[[[-55.242154751,-10.146146313999935],[-55.35174634599997,-10.187255094999923],[-55.557629948999946,-10.057007949999939],[-55.56999253899992,-10.126594722999958],[-55.516959549,-10.160846658999976],[-55.43107561999997,-10.431763137999948],[-55.33033692199993,-10.501577960999917],[-55.28110747499994,-10.514319682999904],[-55.16777081,-10.354457891999989],[-55.166334569999904,-10.217930430999953],[-55.242154751,-10.146146313999935]]]},"properties":{"CD_MUN":"5108808","NM_MUN":"Nova Guarita","SIGLA":"MT","AREA_KM2":1121.928,"auxiliary_":null,"auxiliar_1":null,"REGIAO_MAR":"MT CENTRO","BASE_RC":null,"ALLCON_TOT":8}},
{"type":"Feature","geometry":{"type":"Polygon","coordinates":[[[-56.93923484399994,-14.164723575999947],[-57.0636067409999,-14.19852555199995],[-57.14627531199998,-14.162362914999935],[-57.334761186999934,-14.18635881200002],[-57.377005612999916,-14.155626544999986],[-57.50812975599999,-14.22247451399997],[-57.58910981699998,-14.194339543999988],[-57.732865919999924,-14.303413108],[-57.71982257099994,-14.375372222999925],[-57.6173718589999,-14.39641017399996],[-57.509151741,-14.326232779999923],[-57.39280940399995,-14.350896234999908],[-57.288927321999964,-14.419468582000015],[-56.9773269089999,-14.435624665999978],[-56.88731135799998,-14.36087757299994],[-56.86667710999995,-14.263453962],[-56.93923484399994,-14.164723575999947]]]},"properties":{"CD_MUN":"5108857","NM_MUN":"Nova Marilândia","SIGLA":"MT","AREA_KM2":1905.744,"auxiliary_":null,"auxiliar_1":null,"REGIAO_MAR":"MT CENTRO","BASE_RC":null,"ALLCON_TOT":2}},
{"type":"Feature","geometry":{"type":"Polygon","coordinates":[[[-57.14491917699995,-12.006687966999916],[-57.196382219,-11.845726563999968],[-57.370653581999974,-11.709141067999926],[-57.40572055599992,-11.719825861999897],[-57.43102832499993,-11.864282557],[-57.42297448999995,-12.055336509999979],[-57.54355231799997,-12.066256005999918],[-57.72342590499992,-12.198644134999945],[-57.641225229000014,-12.25950082599999],[-57.62590384199992,-12.34086171499996],[-57.44134886799996,-12.46618595599994],[-57.441509347,-12.578383446999961],[-57.37043987699997,-12.851319578999973],[-57.292739517,-12.925923463999975],[-57.327115617,-13.044256969999921],[-57.48657570299997,-13.15633670899997],[-57.61880249999997,-13.340844021999896],[-57.543167362,-13.582043352999982],[-57.36567720299998,-13.586444858999922],[-57.353339935999976,-13.738245243999945],[-57.28026503699992,-13.807625968999968],[-57.22033089099991,-13.703556841999962],[-57.140769611999986,-13.661341333999886],[-57.10269415499997,-13.579354065999958],[-56.995234191999984,-13.519134214999937],[-57.017446091999986,-13.366665200999925],[-56.951736012,-13.23307745999994],[-56.870792389,-13.161477869999914],[-56.82932139899998,-13.042483249999979],[-56.73993966800001,-12.954677095999987],[-56.773283404000026,-12.834847984999929],[-56.95307552099999,-12.46995471999993],[-56.95615608999997,-12.299166755999966],[-57.007764219999956,-12.283634875999958],[-57.14491917699995,-12.006687966999916]]]},"properties":{"CD_MUN":"5108907","NM_MUN":"Nova Maringá","SIGLA":"MT","AREA_KM2":11553.479,"auxiliary_":null,"auxiliar_1":null,"REGIAO_MAR":"MT CENTRO","BASE_RC":null,"ALLCON_TOT":8}}
]}