{"type":"FeatureCollection", "features": [
{"type":"Feature","geometry":{"type":"Polygon","coordinates":[[[-60.60640094199991,3.448455746000029],[-60.63224966699991,3.529874882000023],[-60.85006674999997,3.631954572],[-60.877754545999906,3.843386234000015],[-60.956509624,4.021885816000065],[-61.140843097999934,4.020856210000048],[-61.23979463499991,4.082363890000046],[-61.247318897999946,4.211525560000013],[-61.348212240999906,4.325385460000092],[-61.508294002,4.321845772000046],[-61.56190137100001,4.251015007000042],[-61.75050987199999,4.255179362999989],[-61.81885057599993,4.167672820000092],[-61.99329432899995,4.174899417000105],[-62.14802148899993,4.079066973000103],[-62.43774064099991,4.182951960000061],[-62.53301784599998,4.047397558000071],[-62.736074256999984,4.039896672000012],[-62.81023829699991,3.732676090000048],[-62.986071951,3.609900091000057],[-63.20524784899996,3.948790240000072],[-63.39329716699994,3.980449490000062],[-63.51108074499996,3.847122149000043],[-63.700527616999935,3.944340563000054],[-63.85024750799994,3.949901168000061],[-63.96858367799993,3.878505126000093],[-64.17191393399995,4.128788995000079],[-64.43163723299998,4.134623827000041],[-64.56050439599991,4.10156680300004],[-64.68469858799992,4.239341280000048],[-64.81052731599989,4.174616635000064],[-64.47858257299998,3.783229975000019],[-64.28914039899995,3.699621976000103],[-64.18440015000002,3.489314514000021],[-64.000528313,3.433506017000049],[-63.84775144400001,3.454343869000049],[-63.74079830499994,3.56989768400004],[-63.71302043799993,3.69795471],[-63.569971383999956,3.728231495],[-63.39469294999997,3.615729636000026],[-63.15329945799989,3.60573457400001],[-63.174405738,3.523508134000011],[-63.00051203399992,3.344356145000077],[-62.82159079499998,3.246572180000079],[-62.63635426099994,3.248512961000074],[-62.249403456,3.137403849000044],[-62.12578973699989,3.233509850000118],[-61.82162100999992,3.32267904600009],[-61.59801453399993,3.311570343000042],[-61.31662425199995,3.356847325000025],[-61.21884592199997,3.449621994000069],[-61.00053690599998,3.447938363000027],[-60.74314782199998,3.498323271000054],[-60.60640094199991,3.448455746000029]]]},"properties":{"CD_MUN":"1400027","NM_MUN":"Amajari","SIGLA":"RR","AREA_KM2":28473.45,"auxiliary_":null,"auxiliar_1":null,"REGIAO_MAR":"RR","BASE_RC":null,"ALLCON_TOT":0}},
{"type":"Feature","geometry":{"type":"Polygon","coordinates":[[[-61.00053690599998,3.447938363000027],[-61.21884592199997,3.449621994000069],[-61.31662425199995,3.356847325000025],[-61.59801453399993,3.311570343000042],[-61.82162100999992,3.32267904600009],[-62.12578973699989,3.233509850000118],[-62.249403456,3.137403849000044],[-62.63635426099994,3.248512961000074],[-62.82159079499998,3.246572180000079],[-63.00051203399992,3.344356145000077],[-63.174405738,3.523508134000011],[-63.15329945799989,3.60573457400001],[-63.39469294999997,3.615729636000026],[-63.569971383999956,3.728231495],[-63.71302043799993,3.69795471],[-63.74079830499994,3.56989768400004],[-63.84775144400001,3.454343869000049],[-64.000528313,3.433506017000049],[-64.18440015000002,3.489314514000021],[-64.12171692600002,3.278652452000088],[-64.21387659199998,3.090481691],[-64.01469323999997,2.812169947000015],[-63.986153590999905,2.648668703000062],[-64.04770295499998,2.518392080000034],[-63.960078181999975,2.473129002000043],[-63.66986781599994,2.597416310000028],[-63.5239,2.5725],[-63.461,2.7614],[-63.2441,2.818],[-62.9125,2.7617],[-62.66423224599997,2.703003961],[-62.407319870999984,2.782565509000037],[-62.08338442499992,2.745734674000069],[-61.97377105000001,2.688917155000098],[-61.775936913999914,2.720231498000061],[-61.704194309999956,2.852274008000094],[-61.579676355999894,2.948405064000021],[-61.37051131899993,2.827124981000075],[-61.29290961599995,2.67316418700009],[-61.00051145199991,2.681668145000096],[-61.00053690599998,3.447938363000027]]]},"properties":{"CD_MUN":"1400050","NM_MUN":"Alto Alegre","SIGLA":"RR","AREA_KM2":25454.297,"auxiliary_":null,"auxiliar_1":null,"REGIAO_MAR":"RR","BASE_RC":null,"ALLCON_TOT":30}},
{"type":"Feature","geometry":{"type":"Polygon","coordinates":[[[-60.41023470099997,3.580172378],[-60.492093099999984,3.581346367000066],[-60.60640094199991,3.448455746000029],[-60.74314782199998,3.498323271000054],[-61.00053690599998,3.447938363000027],[-61.00051145199991,2.681668145000096],[-60.94439224199989,2.521290276000023],[-60.83661695999993,2.437681946000083],[-60.82439614399996,2.54685223700001],[-60.64939640899995,2.834903081000064],[-60.56828594699992,2.884907821000077],[-60.37439309899996,3.170731645000075],[-60.406340497,3.289344272000022],[-60.32134388199994,3.369070655000023],[-60.285783758999955,3.449624506],[-60.41023470099997,3.580172378]]]},"properties":{"CD_MUN":"1400100","NM_MUN":"Boa Vista","SIGLA":"RR","AREA_KM2":5687.037,"auxiliary_":-59.12038369626088,"auxiliar_1":2.828918666517934,"REGIAO_MAR":"RR","BASE_RC":"NABOR","ALLCON_TOT":26}},
{"type":"Feature","geometry":{"type":"Polygon","coordinates":[[[-59.87269864899993,3.563843968000086],[-60.05244755099996,3.527123787000036],[-60.197169399999964,3.406850137000056],[-60.32134388199994,3.369070655000023],[-60.406340497,3.289344272000022],[-60.37439309899996,3.170731645000075],[-60.56828594699992,2.884907821000077],[-60.357170334999935,2.792705975000089],[-60.312445969999935,2.646730605000108],[-60.221752735999985,2.593617564000041],[-60.15761024199995,2.159140318],[-60.15663900699997,1.999641611000094],[-59.734444195,1.999634094],[-59.72075417999997,2.236553330000071],[-59.89890416299996,2.362882339000052],[-59.897612227999915,2.482251680000083],[-59.988375613999985,2.679823455000054],[-59.98440123299994,2.928834412000064],[-59.91227293699996,3.195519859000079],[-59.806428546999975,3.353944894000044],[-59.805160991,3.50980284900006],[-59.87269864899993,3.563843968000086]]]},"properties":{"CD_MUN":"1400159","NM_MUN":"Bonfim","SIGLA":"RR","AREA_KM2":8079.914,"auxiliary_":null,"auxiliar_1":null,"REGIAO_MAR":"RR","BASE_RC":null,"ALLCON_TOT":24}},
{"type":"Feature","geometry":{"type":"Polygon","coordinates":[[[-60.15663900699997,1.999641611000094],[-60.15761024199995,2.159140318],[-60.221752735999985,2.593617564000041],[-60.312445969999935,2.646730605000108],[-60.357170334999935,2.792705975000089],[-60.56828594699992,2.884907821000077],[-60.64939640899995,2.834903081000064],[-60.82439614399996,2.54685223700001],[-60.83661695999993,2.437681946000083],[-60.845784280999936,2.313515945000105],[-60.938266228,2.215277092000036],[-61.05299230099998,2.062935783000022],[-61.022117919,1.999631246000035],[-60.74240007299993,1.999479022000052],[-60.739618077999964,1.897307592000033],[-60.58981227899995,1.85121101900009],[-60.52775267299994,1.723001073],[-60.39003098199995,1.737973764000103],[-60.15663900699997,1.999641611000094]]]},"properties":{"CD_MUN":"1400175","NM_MUN":"Cantá","SIGLA":"RR","AREA_KM2":7664.831,"auxiliary_":null,"auxiliar_1":null,"REGIAO_MAR":"RR","BASE_RC":null,"ALLCON_TOT":2}},
{"type":"Feature","geometry":{"type":"Polygon","coordinates":[[[-61.022117919,1.999631246000035],[-61.200346755999945,1.971770994000046],[-61.47900754999995,2.013104181000038],[-61.6151,1.9384],[-61.9584,1.9141],[-62.2857,1.7585],[-62.6711,1.5353],[-62.736349324999914,1.529629589000017],[-62.63996476799997,1.438238306000045],[-62.521087891999926,1.083815878000074],[-62.44273541599991,0.958533913000039],[-62.46302607899993,0.77686878300009],[-62.53829053099997,0.675195542000075],[-62.53300861699992,0.508808359000085],[-62.446371344999925,0.379113798000077],[-62.45274362599994,0.207414178],[-62.325902798999984,-0.002913771999907],[-62.18862313399997,-0.322319165999971],[-62.28041369699994,-0.450705732999928],[-62.286717121999956,-0.632372981999971],[-62.501073155,-0.781466097],[-62.017460275,-1.141743980999941],[-61.8966239069999,-1.395355256999906],[-61.83993764099995,-1.401059577999902],[-61.88078810399997,-1.117573555999982],[-61.867736543000014,-0.723967172999949],[-61.810236322999955,-0.608414208999939],[-61.844678807000015,-0.388691362999936],[-61.790793594999926,-0.106471803],[-61.758850755,0.309635312000047],[-61.68384777099993,0.489634431000091],[-61.31745880299999,0.995186323999988],[-61.12801236199996,0.943802044000059],[-61.01272876999994,1.097965660000035],[-60.82050489299996,1.064079061000051],[-60.71384428299994,0.867136926000036],[-60.56134387199991,0.939075838000072],[-60.39994884199997,1.131579144000078],[-60.26709108799999,1.12813963100006],[-60.09050060199998,1.10074321700008],[-59.98244941599992,1.135468199000073],[-59.77939245799996,1.276027402000096],[-59.81772502800002,1.489631219000067],[-59.76467207899995,1.606300527000073],[-59.63050454699996,1.624073897000095],[-59.412719909,1.551575987999989],[-59.533554109,1.716296464000017],[-59.69022250299993,1.75629858300001],[-59.75939149899993,1.90046684700004],[-59.734444195,1.999634094],[-60.15663900699997,1.999641611000094],[-60.39003098199995,1.737973764000103],[-60.52775267299994,1.723001073],[-60.58981227899995,1.85121101900009],[-60.739618077999964,1.897307592000033],[-60.74240007299993,1.999479022000052],[-61.022117919,1.999631246000035]]]},"properties":{"CD_MUN":"1400209","NM_MUN":"Caracaraí","SIGLA":"RR","AREA_KM2":47379.903,"auxiliary_":null,"auxiliar_1":null,"REGIAO_MAR":"RR","BASE_RC":null,"ALLCON_TOT":0}},
{"type":"Feature","geometry":{"type":"Polygon","coordinates":[[[-59.412719909,1.551575987999989],[-59.63050454699996,1.624073897000095],[-59.76467207899995,1.606300527000073],[-59.81772502800002,1.489631219000067],[-59.77939245799996,1.276027402000096],[-59.73903215599991,1.075884570000021],[-59.81461106399994,0.618325112000079],[-59.743527716,0.5421779280001],[-59.59425246099991,0.563590796000071],[-59.46438890699996,0.428121376],[-59.43355367199993,0.263540311000057],[-58.89546481899998,0.263510276000062],[-58.89549794199997,1.227693838000071],[-58.91854937199998,1.316578461000034],[-59.253279998,1.388247822000061],[-59.412719909,1.551575987999989]]]},"properties":{"CD_MUN":"1400233","NM_MUN":"Caroebe","SIGLA":"RR","AREA_KM2":12065.896,"auxiliary_":null,"auxiliar_1":null,"REGIAO_MAR":"RR","BASE_RC":null,"ALLCON_TOT":0}},
{"type":"Feature","geometry":{"type":"Polygon","coordinates":[[[-62.9125,2.7617],[-63.2441,2.818],[-63.461,2.7614],[-63.5239,2.5725],[-63.66986781599994,2.597416310000028],[-63.960078181999975,2.473129002000043],[-63.371911778999944,2.426379648],[-63.359791172,2.197101555000053],[-63.14633944199991,2.173258556000093],[-63.02377614999994,2.014679362999985],[-62.838571475999956,2.016386356000091],[-62.72958383499996,1.960549351000068],[-62.736349324999914,1.529629589000017],[-62.6711,1.5353],[-62.2857,1.7585],[-61.9584,1.9141],[-61.6151,1.9384],[-61.47900754999995,2.013104181000038],[-61.200346755999945,1.971770994000046],[-61.022117919,1.999631246000035],[-61.05299230099998,2.062935783000022],[-60.938266228,2.215277092000036],[-61.051060245,2.298049642000016],[-61.33871277799996,2.263672222],[-61.411549167,2.409086389],[-61.507891943999944,2.450165555000034],[-61.72102363299993,2.436832141000025],[-61.931489921999926,2.260406609],[-62.34044648999994,2.192857081000049],[-62.423,2.1102],[-62.5835,2.1519],[-62.6124,2.2425],[-62.8219,2.2701],[-63.0732,2.4834],[-63.0327,2.6588],[-62.9125,2.7617]]]},"properties":{"CD_MUN":"1400282","NM_MUN":"Iracema","SIGLA":"RR","AREA_KM2":14011.695,"auxiliary_":null,"auxiliar_1":null,"REGIAO_MAR":"RR","BASE_RC":null,"ALLCON_TOT":0}},
{"type":"Feature","geometry":{"type":"Polygon","coordinates":[[[-61.00051145199991,2.681668145000096],[-61.29290961599995,2.67316418700009],[-61.37051131899993,2.827124981000075],[-61.579676355999894,2.948405064000021],[-61.704194309999956,2.852274008000094],[-61.775936913999914,2.720231498000061],[-61.97377105000001,2.688917155000098],[-62.08338442499992,2.745734674000069],[-62.407319870999984,2.782565509000037],[-62.66423224599997,2.703003961],[-62.9125,2.7617],[-63.0327,2.6588],[-63.0732,2.4834],[-62.8219,2.2701],[-62.6124,2.2425],[-62.5835,2.1519],[-62.423,2.1102],[-62.34044648999994,2.192857081000049],[-61.931489921999926,2.260406609],[-61.72102363299993,2.436832141000025],[-61.507891943999944,2.450165555000034],[-61.411549167,2.409086389],[-61.33871277799996,2.263672222],[-61.051060245,2.298049642000016],[-60.938266228,2.215277092000036],[-60.845784280999936,2.313515945000105],[-60.83661695999993,2.437681946000083],[-60.94439224199989,2.521290276000023],[-61.00051145199991,2.681668145000096]]]},"properties":{"CD_MUN":"1400308","NM_MUN":"Mucajaí","SIGLA":"RR","AREA_KM2":12337.851,"auxiliary_":null,"auxiliar_1":null,"REGIAO_MAR":"RR","BASE_RC":null,"ALLCON_TOT":0}},
{"type":"Feature","geometry":{"type":"Polygon","coordinates":[[[-59.70903644399989,4.161896739000021],[-60.04509128699997,4.303541345000056],[-60.20150359300003,4.181338012000019],[-60.33014907099991,4.160485391000037],[-60.53971125999997,4.210480366000041],[-60.43939527399991,4.036010770000104],[-60.493287121,3.938235488000025],[-60.486898678999985,3.74295763600005],[-60.41023470099997,3.580172378],[-60.285783758999955,3.449624506],[-60.32134388199994,3.369070655000023],[-60.197169399999964,3.406850137000056],[-60.05244755099996,3.527123787000036],[-59.87269864899993,3.563843968000086],[-59.668307076999945,3.70361204400011],[-59.51615887400001,3.946170905000059],[-59.70903644399989,4.161896739000021]]]},"properties":{"CD_MUN":"1400407","NM_MUN":"Normandia","SIGLA":"RR","AREA_KM2":6959.868,"auxiliary_":null,"auxiliar_1":null,"REGIAO_MAR":"RR","BASE_RC":null,"ALLCON_TOT":0}},
{"type":"Feature","geometry":{"type":"Polygon","coordinates":[[[-60.53971125999997,4.210480366000041],[-60.64022927699996,4.616840195000051],[-60.652448981999925,4.884623333000029],[-60.72087944399993,4.777383889],[-60.89940416699992,4.718194167000028],[-60.997879721999944,4.515604722000027],[-61.26704204,4.537648757000085],[-61.35162296499993,4.418786706000013],[-61.44828950599994,4.439065902000067],[-61.508294002,4.321845772000046],[-61.348212240999906,4.325385460000092],[-61.247318897999946,4.211525560000013],[-61.23979463499991,4.082363890000046],[-61.140843097999934,4.020856210000048],[-60.956509624,4.021885816000065],[-60.877754545999906,3.843386234000015],[-60.85006674999997,3.631954572],[-60.63224966699991,3.529874882000023],[-60.60640094199991,3.448455746000029],[-60.492093099999984,3.581346367000066],[-60.41023470099997,3.580172378],[-60.486898678999985,3.74295763600005],[-60.493287121,3.938235488000025],[-60.43939527399991,4.036010770000104],[-60.53971125999997,4.210480366000041]]]},"properties":{"CD_MUN":"1400456","NM_MUN":"Pacaraima","SIGLA":"RR","AREA_KM2":8025.045,"auxiliary_":null,"auxiliar_1":null,"REGIAO_MAR":"RR","BASE_RC":null,"ALLCON_TOT":0}},
{"type":"Feature","geometry":{"type":"Polygon","coordinates":[[[-60.26709108799999,1.12813963100006],[-60.39994884199997,1.131579144000078],[-60.56134387199991,0.939075838000072],[-60.71384428299994,0.867136926000036],[-60.82050489299996,1.064079061000051],[-61.01272876999994,1.097965660000035],[-61.12801236199996,0.943802044000059],[-61.31745880299999,0.995186323999988],[-61.68384777099993,0.489634431000091],[-61.758850755,0.309635312000047],[-61.790793594999926,-0.106471803],[-61.844678807000015,-0.388691362999936],[-61.810236322999955,-0.608414208999939],[-61.867736543000014,-0.723967172999949],[-61.88078810399997,-1.117573555999982],[-61.83993764099995,-1.401059577999902],[-61.604954677999956,-1.448131455999899],[-61.62690314000001,-1.293970042999923],[-61.542864184999964,-1.062203851999897],[-61.58078245800002,-0.977976097999949],[-61.53563234899997,-0.754401249999908],[-61.45813443399996,-0.654726739999987],[-61.079049426,-0.506139727999916],[-60.806194219999924,-0.740085386999972],[-60.76090973499994,-0.863515336999981],[-60.663499839999986,-0.881201965999928],[-60.30535295099996,-0.666465475999942],[-60.40009977100002,-0.517487881999976],[-60.30496204099995,-0.260324081999968],[-60.037968645999946,0.263545517000047],[-60.153006851,0.563521061000074],[-60.29594680299992,0.775864850000069],[-60.201643841,0.87970758200008],[-60.30652270699994,1.041021935000103],[-60.26709108799999,1.12813963100006]]]},"properties":{"CD_MUN":"1400472","NM_MUN":"Rorainópolis","SIGLA":"RR","AREA_KM2":33579.739,"auxiliary_":null,"auxiliar_1":null,"REGIAO_MAR":"RR","BASE_RC":null,"ALLCON_TOT":0}},
{"type":"Feature","geometry":{"type":"Polygon","coordinates":[[[-59.43355367199993,0.263540311000057],[-59.46438890699996,0.428121376],[-59.59425246099991,0.563590796000071],[-59.743527716,0.5421779280001],[-59.81461106399994,0.618325112000079],[-59.73903215599991,1.075884570000021],[-59.77939245799996,1.276027402000096],[-59.98244941599992,1.135468199000073],[-59.98106369399993,0.999638688000054],[-60.05022958599994,0.899357613000035],[-60.069191108999945,0.611986605],[-60.153006851,0.563521061000074],[-60.037968645999946,0.263545517000047],[-59.43355367199993,0.263540311000057]]]},"properties":{"CD_MUN":"1400506","NM_MUN":"São João da Baliza","SIGLA":"RR","AREA_KM2":4284.505,"auxiliary_":null,"auxiliar_1":null,"REGIAO_MAR":"RR","BASE_RC":null,"ALLCON_TOT":0}},
{"type":"Feature","geometry":{"type":"Polygon","coordinates":[[[-60.153006851,0.563521061000074],[-60.069191108999945,0.611986605],[-60.05022958599994,0.899357613000035],[-59.98106369399993,0.999638688000054],[-59.98244941599992,1.135468199000073],[-60.09050060199998,1.10074321700008],[-60.26709108799999,1.12813963100006],[-60.30652270699994,1.041021935000103],[-60.201643841,0.87970758200008],[-60.29594680299992,0.775864850000069],[-60.153006851,0.563521061000074]]]},"properties":{"CD_MUN":"1400605","NM_MUN":"São Luiz","SIGLA":"RR","AREA_KM2":1526.898,"auxiliary_":null,"auxiliar_1":null,"REGIAO_MAR":"RR","BASE_RC":null,"ALLCON_TOT":0}},
{"type":"Feature","geometry":{"type":"Polygon","coordinates":[[[-59.70903644399989,4.161896739000021],[-59.73587526099992,4.423748827000068],[-60.16149611499994,4.517764007000075],[-60.025859752,4.705652471000072],[-59.971977738,5.074879048000049],[-60.09578260599994,5.140726822000055],[-60.212453524,5.271841077000019],[-60.32828613799996,5.20545399700007],[-60.69717718699998,5.228783738000104],[-60.58412419999996,4.955732021000117],[-60.652448981999925,4.884623333000029],[-60.64022927699996,4.616840195000051],[-60.53971125999997,4.210480366000041],[-60.33014907099991,4.160485391000037],[-60.20150359300003,4.181338012000019],[-60.04509128699997,4.303541345000056],[-59.70903644399989,4.161896739000021]]]},"properties":{"CD_MUN":"1400704","NM_MUN":"Uiramutã","SIGLA":"RR","AREA_KM2":8113.598,"auxiliary_":null,"auxiliar_1":null,"REGIAO_MAR":"RR","BASE_RC":null,"ALLCON_TOT":4}}
]}