{"type":"FeatureCollection", "features": [
{"type":"Feature","geometry":{"type":"Polygon","coordinates":[[[-62.050437770999984,-11.867351740999919],[-62.20670117299997,-11.831993477999934],[-62.23248611399994,-11.90877615599991],[-62.45309669599994,-11.968510165999966],[-62.610913648999954,-12.086212888999945],[-62.64252287399998,-12.237183121999937],[-62.394683750999945,-12.343479920999965],[-62.291429873999974,-12.318825662999942],[-62.26782381899991,-12.50977051299996],[-62.462788123999964,-12.746667378999952],[-62.665263312999926,-12.906181129999936],[-62.892156443,-12.858840960999949],[-62.734020566999966,-13.02186675799991],[-62.41771128100002,-13.118941887999966],[-62.25184509799996,-13.078398324999938],[-62.040571794,-12.907758693999902],[-62.00060051099997,-12.79212925799996],[-62.00806377299994,-12.13378513499995],[-61.888435335999965,-11.96571112799992],[-61.890526971000014,-11.906811841],[-62.050437770999984,-11.867351740999919]]]},"properties":{"CD_MUN":"1100015","NM_MUN":"Alta Floresta D'Oeste","SIGLA":"RO","AREA_KM2":7067.127,"auxiliary_":null,"auxiliar_1":null,"REGIAO_MAR":"MT OESTE_RO","BASE_RC":null,"ALLCON_TOT":4}},
{"type":"Feature","geometry":{"type":"Polygon","coordinates":[[[-62.422616686,-9.804615643999934],[-62.55475563399992,-9.670769376999964],[-62.67708913199989,-9.84340429899989],[-62.83689931599998,-9.751063510999955],[-63.10159253999991,-9.75255912999998],[-63.49908003599991,-9.833391774999942],[-63.59697286799994,-10.000382257999938],[-63.113106343,-10.000414646999953],[-63.209265442999936,-10.167011106999944],[-62.83250185099993,-10.16744509899997],[-62.67077469099995,-10.287775618999948],[-62.66994362400002,-10.288206376999973],[-62.42317447699996,-9.805825316999925],[-62.422616686,-9.804615643999934]]]},"properties":{"CD_MUN":"1100023","NM_MUN":"Ariquemes","SIGLA":"RO","AREA_KM2":4426.571,"auxiliary_":null,"auxiliar_1":null,"REGIAO_MAR":"MT OESTE_RO","BASE_RC":null,"ALLCON_TOT":0}},
{"type":"Feature","geometry":{"type":"Polygon","coordinates":[[[-60.70931488799991,-13.693003363999932],[-60.686037860999974,-13.625227428],[-60.387919629999956,-13.454695110999957],[-60.371617772000015,-13.31858975299994],[-60.705181922999984,-13.324738151],[-60.91898388199992,-13.548326039999967],[-60.70931488799991,-13.693003363999932]]]},"properties":{"CD_MUN":"1100031","NM_MUN":"Cabixi","SIGLA":"RO","AREA_KM2":1314.352,"auxiliary_":null,"auxiliar_1":null,"REGIAO_MAR":"MT OESTE_RO","BASE_RC":null,"ALLCON_TOT":18}},
{"type":"Feature","geometry":{"type":"Polygon","coordinates":[[[-61.21172189,-11.529102473],[-61.00103201199991,-11.39836117099998],[-61.000594913999976,-10.992239290999937],[-61.429002122999975,-10.987534212999925],[-61.500802991999954,-11.114327961],[-61.501205534999954,-11.333509219999947],[-61.74229951999994,-11.33347502199996],[-61.79579824599994,-11.397832320999921],[-61.61421863699996,-11.583829056999981],[-61.54897651999997,-11.619107856999964],[-61.352695028,-11.617451121999931],[-61.21172189,-11.529102473]]]},"properties":{"CD_MUN":"1100049","NM_MUN":"Cacoal","SIGLA":"RO","AREA_KM2":3793,"auxiliary_":null,"auxiliar_1":null,"REGIAO_MAR":"MT OESTE_RO","BASE_RC":null,"ALLCON_TOT":0}},
{"type":"Feature","geometry":{"type":"Polygon","coordinates":[[[-60.74295829899994,-13.122352814999925],[-61.181372159999924,-13.109921664999966],[-61.500996260999955,-13.004329819],[-61.64034074799993,-13.05841627499996],[-61.59185002899996,-13.303013032999953],[-61.36141092499996,-13.22837274899996],[-61.35366917499995,-13.363705603],[-61.039263597999955,-13.361743488999931],[-60.74155470699998,-13.324922679999904],[-60.74295829899994,-13.122352814999925]]]},"properties":{"CD_MUN":"1100056","NM_MUN":"Cerejeiras","SIGLA":"RO","AREA_KM2":2783.3,"auxiliary_":null,"auxiliar_1":null,"REGIAO_MAR":"MT OESTE_RO","BASE_RC":null,"ALLCON_TOT":10}},
{"type":"Feature","geometry":{"type":"Polygon","coordinates":[[[-60.333170291999956,-13.257979218999925],[-60.420607689,-13.01485496],[-60.61265560399997,-12.992386761999928],[-60.65201512399991,-12.981308098999964],[-60.74295829899994,-13.122352814999925],[-60.74155470699998,-13.324922679999904],[-60.705181922999984,-13.324738151],[-60.371617772000015,-13.31858975299994],[-60.333170291999956,-13.257979218999925]]]},"properties":{"CD_MUN":"1100064","NM_MUN":"Colorado do Oeste","SIGLA":"RO","AREA_KM2":1451.06,"auxiliary_":null,"auxiliar_1":null,"REGIAO_MAR":"MT OESTE_RO","BASE_RC":null,"ALLCON_TOT":0}},
{"type":"Feature","geometry":{"type":"Polygon","coordinates":[[[-60.65201512399991,-12.981308098999964],[-60.65983656599993,-12.85663598199994],[-61.167622281,-12.753118788999949],[-61.33806863399995,-12.626561821999935],[-61.42545072800003,-12.730457058999942],[-61.500996260999955,-13.004329819],[-61.181372159999924,-13.109921664999966],[-60.74295829899994,-13.122352814999925],[-60.65201512399991,-12.981308098999964]]]},"properties":{"CD_MUN":"1100072","NM_MUN":"Corumbiara","SIGLA":"RO","AREA_KM2":3060.321,"auxiliary_":null,"auxiliar_1":null,"REGIAO_MAR":"MT OESTE_RO","BASE_RC":null,"ALLCON_TOT":26}},
{"type":"Feature","geometry":{"type":"Polygon","coordinates":[[[-63.67991986799996,-11.644414846999904],[-64.07733302900003,-11.770322174999901],[-64.42269162999993,-12.115067084999929],[-64.59455387999996,-12.21569896499993],[-64.40616761,-12.447048136],[-63.96336189999998,-12.529698247999885],[-63.78630346699998,-12.427945031],[-63.684757934999965,-12.45305680999996],[-63.79888815499994,-12.198561099999914],[-64.03095016599993,-12.22475568499993],[-63.991143058,-12.026291737999948],[-63.78806924799997,-11.838737293999966],[-63.581094609999965,-11.839042617999915],[-63.546795578999955,-11.727270303],[-63.67991986799996,-11.644414846999904]]]},"properties":{"CD_MUN":"1100080","NM_MUN":"Costa Marques","SIGLA":"RO","AREA_KM2":4987.177,"auxiliary_":null,"auxiliar_1":null,"REGIAO_MAR":"MT OESTE_RO","BASE_RC":null,"ALLCON_TOT":0}},
{"type":"Feature","geometry":{"type":"Polygon","coordinates":[[[-60.46005013199995,-10.989856219999936],[-61.000594913999976,-10.992239290999937],[-61.00103201199991,-11.39836117099998],[-61.21172189,-11.529102473],[-60.92521373599997,-11.747375073999908],[-60.67160837899996,-11.695103514000014],[-60.46333386799995,-11.464882185],[-60.52788272599996,-11.116717922999939],[-60.46005013199995,-10.989856219999936]]]},"properties":{"CD_MUN":"1100098","NM_MUN":"Espigão D'Oeste","SIGLA":"RO","AREA_KM2":4518.038,"auxiliary_":null,"auxiliar_1":null,"REGIAO_MAR":"MT OESTE_RO","BASE_RC":null,"ALLCON_TOT":0}},
{"type":"Feature","geometry":{"type":"Polygon","coordinates":[[[-63.70673925899999,-10.839986861999904],[-64.13737931999998,-10.86044383499992],[-64.22154374499993,-10.760232925999933],[-64.40965766299993,-10.823516036999923],[-64.65943456599999,-10.761506734],[-64.74312783499994,-10.45648905699995],[-64.97311006399997,-10.512779048999974],[-65.29788087399997,-10.541831454000015],[-65.38149957599997,-10.429074152999949],[-65.429747332,-10.480948481999928],[-65.34816982799995,-10.778442546999898],[-65.25085903699994,-10.984545507999908],[-65.35147072199996,-11.121723844999973],[-65.30491927199995,-11.501599987999942],[-65.22897009400002,-11.515630149999954],[-65.18297333199997,-11.721703504999912],[-65.090525597,-11.707777411999896],[-65.02891222299995,-11.997637135999959],[-64.839586819,-12.010679252999932],[-64.71294475099995,-12.173579896000017],[-64.59455387999996,-12.21569896499993],[-64.42269162999993,-12.115067084999929],[-64.07733302900003,-11.770322174999901],[-63.67991986799996,-11.644414846999904],[-63.60483620699996,-11.602058013999947],[-63.580563438999974,-11.031151755999922],[-63.62701692399996,-11.005017749999944],[-63.57707299399992,-10.831576416],[-63.70673925899999,-10.839986861999904]]]},"properties":{"CD_MUN":"1100106","NM_MUN":"Guajará-Mirim","SIGLA":"RO","AREA_KM2":24856.877,"auxiliary_":null,"auxiliar_1":null,"REGIAO_MAR":"MT OESTE_RO","BASE_RC":null,"ALLCON_TOT":0}},
{"type":"Feature","geometry":{"type":"Polygon","coordinates":[[[-62.13463918499997,-10.224729594999946],[-62.36269910000003,-10.325205394],[-62.46775939599998,-10.28197160099996],[-62.55819387000001,-10.372630469999908],[-62.66994362400002,-10.288206376999973],[-62.67077469099995,-10.287775618999948],[-62.78805426299991,-10.492481428999909],[-62.619593328999926,-10.556118357999953],[-62.67158718699994,-10.67091687999989],[-62.91190462099998,-10.82739974999992],[-63.14262994799995,-11.071396720999935],[-62.891396412999896,-11.030610016999951],[-62.717148461,-10.87824513399994],[-62.52525875299996,-10.709472721999944],[-62.259661128999895,-10.476848437999973],[-62.122004035,-10.355000762999964],[-62.13463918499997,-10.224729594999946]]]},"properties":{"CD_MUN":"1100114","NM_MUN":"Jaru","SIGLA":"RO","AREA_KM2":2944.128,"auxiliary_":null,"auxiliar_1":null,"REGIAO_MAR":"MT OESTE_RO","BASE_RC":null,"ALLCON_TOT":0}},
{"type":"Feature","geometry":{"type":"Polygon","coordinates":[[[-61.54022951099993,-10.000209387999934],[-61.507913555999956,-9.86108182299997],[-61.574637303999964,-9.717793256999894],[-61.79216568599994,-9.719683951000011],[-61.954417770999925,-9.949679831999934],[-61.97266710099997,-10.06752792799995],[-61.910568956999974,-10.117044983999932],[-61.82781340899999,-10.30310681699996],[-61.90411254099992,-10.33986193899997],[-62.12258034699991,-10.899387828999938],[-62.15601492699997,-11.02598234199995],[-62.144445759999925,-11.030413664999958],[-62.014786406,-11.128003090999936],[-61.94214821500001,-10.986774244999928],[-61.632000928999915,-10.986294254],[-61.55025787299994,-10.986094651],[-61.47961623499995,-10.787696522999966],[-61.46179283699997,-10.419904592999938],[-61.601236392999965,-10.150090131999931],[-61.54022951099993,-10.000209387999934]]]},"properties":{"CD_MUN":"1100122","NM_MUN":"Ji-Paraná","SIGLA":"RO","AREA_KM2":6896.649,"auxiliary_":null,"auxiliar_1":null,"REGIAO_MAR":"MT OESTE_RO","BASE_RC":null,"ALLCON_TOT":0}},
{"type":"Feature","geometry":{"type":"Polygon","coordinates":[[[-61.58313478499997,-8.79868905399995],[-61.74185400599994,-8.69519285999992],[-61.859748620999895,-8.852973303999931],[-61.97913997899997,-8.873244617999951],[-62.124971742999975,-8.801671148999954],[-62.183700535999904,-8.598966511999926],[-62.26888851399998,-8.575758583999935],[-62.24558744499993,-8.680321824999968],[-62.369126901999934,-8.743556928999983],[-62.315174858,-9.298717383999886],[-62.42246385299996,-9.525018773999925],[-62.55475563399992,-9.670769376999964],[-62.422616686,-9.804615643999934],[-62.12461099599997,-9.680292987999959],[-62.016739027,-9.539325839999933],[-61.70096626699994,-9.47588155899993],[-61.61621063300002,-9.326825764999978],[-61.524865085,-9.242855073999987],[-61.55575495999994,-9.092402569999933],[-61.469214048999916,-8.920114292999912],[-61.58313478499997,-8.79868905399995]]]},"properties":{"CD_MUN":"1100130","NM_MUN":"Machadinho D'Oeste","SIGLA":"RO","AREA_KM2":8509.27,"auxiliary_":null,"auxiliar_1":null,"REGIAO_MAR":"MT OESTE_RO","BASE_RC":null,"ALLCON_TOT":0}},
{"type":"Feature","geometry":{"type":"Polygon","coordinates":[[[-62.086120244999975,-11.500541671999951],[-61.95248307599998,-11.290408039999953],[-62.09328952599995,-11.295814776999933],[-62.18342561099998,-11.432734092999972],[-62.290647614,-11.448051539999913],[-62.477802644999976,-11.574928702999951],[-62.45309669599994,-11.968510165999966],[-62.23248611399994,-11.90877615599991],[-62.20670117299997,-11.831993477999934],[-62.172705916999966,-11.547392701999968],[-62.086120244999975,-11.500541671999951]]]},"properties":{"CD_MUN":"1100148","NM_MUN":"Nova Brasilândia D'Oeste","SIGLA":"RO","AREA_KM2":1703.008,"auxiliary_":null,"auxiliar_1":null,"REGIAO_MAR":"MT OESTE_RO","BASE_RC":null,"ALLCON_TOT":0}},
{"type":"Feature","geometry":{"type":"Polygon","coordinates":[[[-62.12258034699991,-10.899387828999938],[-61.90411254099992,-10.33986193899997],[-61.82781340899999,-10.30310681699996],[-61.910568956999974,-10.117044983999932],[-61.95741294399994,-10.163853221999961],[-62.100629391,-10.659522321999901],[-62.24009157099994,-10.61526460099996],[-62.259661128999895,-10.476848437999973],[-62.52525875299996,-10.709472721999944],[-62.35243528599998,-10.893934369999911],[-62.12258034699991,-10.899387828999938]]]},"properties":{"CD_MUN":"1100155","NM_MUN":"Ouro Preto do Oeste","SIGLA":"RO","AREA_KM2":1969.85,"auxiliary_":null,"auxiliar_1":null,"REGIAO_MAR":"MT OESTE_RO","BASE_RC":null,"ALLCON_TOT":0}},
{"type":"Feature","geometry":{"type":"Polygon","coordinates":[[[-60.6499853,-12.261371243999939],[-60.302243164999965,-12.258427441],[-60.38721727099993,-11.988591311999883],[-60.46333386799995,-11.464882185],[-60.67160837899996,-11.695103514000014],[-60.92521373599997,-11.747375073999908],[-61.21172189,-11.529102473],[-61.352695028,-11.617451121999931],[-61.54897651999997,-11.619107856999964],[-61.534584586999955,-11.743169512999927],[-61.41483652899994,-11.74399325899996],[-61.23839524299994,-11.841320156999888],[-61.190167852999906,-12.00050803599991],[-61.18067348100002,-12.167142914999971],[-60.71293382799993,-12.166074652999956],[-60.6499853,-12.261371243999939]]]},"properties":{"CD_MUN":"1100189","NM_MUN":"Pimenta Bueno","SIGLA":"RO","AREA_KM2":6241.016,"auxiliary_":null,"auxiliar_1":null,"REGIAO_MAR":"MT OESTE_RO","BASE_RC":null,"ALLCON_TOT":0}},
{"type":"Feature","geometry":{"type":"Polygon","coordinates":[[[-62.26888851399998,-8.575758583999935],[-62.360803499999946,-8.398549285999977],[-62.65500162299997,-8.229056372999963],[-62.69228013499994,-8.092908286999965],[-62.86661657199996,-7.975868297000019],[-63.62124913599995,-7.976531747999935],[-63.72276144799997,-8.249498971999945],[-63.79123129199995,-8.333215251999935],[-63.9441225209999,-8.33118768499995],[-63.92456870099991,-8.575525415999916],[-64.14306706899994,-8.743031521999942],[-64.14176693799993,-8.945050737999924],[-64.32339962999995,-8.928860604999986],[-64.58796100999999,-9.009509904999966],[-64.80782419299997,-8.985551790999988],[-64.93992979499998,-9.124565832999973],[-64.91968281999993,-9.22028029599998],[-65.14288058199995,-9.44681233899992],[-65.24666142999999,-9.257663551999915],[-65.44021839999996,-9.311745279999926],[-65.50316325099993,-9.469975436999931],[-65.67943521399997,-9.45139289299993],[-65.72996717899998,-9.563072677999926],[-65.97030062399993,-9.413160123999962],[-66.37477644899994,-9.426366145],[-66.50061335999997,-9.633564154999927],[-66.77536361699998,-9.753091303999959],[-66.6267196909999,-9.898101245],[-66.35839264099997,-9.864045276999942],[-66.15202413,-9.785617808999945],[-65.68496939100001,-9.749008087999886],[-65.62369480799994,-9.835979800999937],[-65.39160148399993,-9.68763016399988],[-65.288659195,-9.865726729999977],[-65.33300937999995,-9.94428199199998],[-65.16674437299994,-10.00023187199993],[-64.34116988099998,-10.000381844999904],[-64.31218510899994,-9.85116985],[-63.68529268399989,-9.832985638999912],[-63.58267597899997,-9.410597365999926],[-63.75682748799997,-9.39516523],[-63.79476444799998,-9.128874554999964],[-63.74433880199996,-8.834160375999964],[-63.68694680799997,-8.731604780999955],[-63.53353549599998,-8.645479874999982],[-63.45053259799995,-8.500431787999982],[-62.82233343399996,-8.500356930999917],[-62.74483767599996,-8.612887901],[-62.764135756000016,-8.798063021999933],[-62.50283116899997,-8.731872676],[-62.369126901999934,-8.743556928999983],[-62.24558744499993,-8.680321824999968],[-62.26888851399998,-8.575758583999935]]]},"properties":{"CD_MUN":"1100205","NM_MUN":"Porto Velho","SIGLA":"RO","AREA_KM2":34090.952,"auxiliary_":null,"auxiliar_1":null,"REGIAO_MAR":"MT OESTE_RO","BASE_RC":null,"ALLCON_TOT":82}},
{"type":"Feature","geometry":{"type":"Polygon","coordinates":[[[-61.74229951999994,-11.33347502199996],[-61.66601608199997,-11.240339127999963],[-61.632000928999915,-10.986294254],[-61.94214821500001,-10.986774244999928],[-62.014786406,-11.128003090999936],[-62.144445759999925,-11.030413664999958],[-62.15922520499994,-11.067752994999989],[-62.09328952599995,-11.295814776999933],[-61.95248307599998,-11.290408039999953],[-61.79579824599994,-11.397832320999921],[-61.74229951999994,-11.33347502199996]]]},"properties":{"CD_MUN":"1100254","NM_MUN":"Presidente Médici","SIGLA":"RO","AREA_KM2":1758.465,"auxiliary_":null,"auxiliar_1":null,"REGIAO_MAR":"MT OESTE_RO","BASE_RC":null,"ALLCON_TOT":0}},
{"type":"Feature","geometry":{"type":"Polygon","coordinates":[[[-63.07681028899996,-9.524972848999944],[-63.10159253999991,-9.75255912999998],[-62.83689931599998,-9.751063510999955],[-62.67708913199989,-9.84340429899989],[-62.55475563399992,-9.670769376999964],[-62.42246385299996,-9.525018773999925],[-63.07681028899996,-9.524972848999944]]]},"properties":{"CD_MUN":"1100262","NM_MUN":"Rio Crespo","SIGLA":"RO","AREA_KM2":1717.64,"auxiliary_":null,"auxiliar_1":null,"REGIAO_MAR":"MT OESTE_RO","BASE_RC":null,"ALLCON_TOT":6}},
{"type":"Feature","geometry":{"type":"Polygon","coordinates":[[[-61.54897651999997,-11.619107856999964],[-61.61421863699996,-11.583829056999981],[-61.91377805499993,-11.585023843999984],[-62.050437770999984,-11.867351740999919],[-61.890526971000014,-11.906811841],[-61.832067418999976,-11.856989448999986],[-61.564297668999956,-11.856365505999964],[-61.534584586999955,-11.743169512999927],[-61.54897651999997,-11.619107856999964]]]},"properties":{"CD_MUN":"1100288","NM_MUN":"Rolim de Moura","SIGLA":"RO","AREA_KM2":1457.811,"auxiliary_":null,"auxiliar_1":null,"REGIAO_MAR":"MT OESTE_RO","BASE_RC":null,"ALLCON_TOT":0}},
{"type":"Feature","geometry":{"type":"Polygon","coordinates":[[[-61.530509688999956,-12.088994449999966],[-61.564297668999956,-11.856365505999964],[-61.832067418999976,-11.856989448999986],[-61.890526971000014,-11.906811841],[-61.888435335999965,-11.96571112799992],[-61.74753480399994,-12.199178792999952],[-61.67578459199998,-12.429221468999927],[-61.67861957399998,-12.08970250199993],[-61.530509688999956,-12.088994449999966]]]},"properties":{"CD_MUN":"1100296","NM_MUN":"Santa Luzia D'Oeste","SIGLA":"RO","AREA_KM2":1197.796,"auxiliary_":null,"auxiliar_1":null,"REGIAO_MAR":"MT OESTE_RO","BASE_RC":null,"ALLCON_TOT":0}},
{"type":"Feature","geometry":{"type":"Polygon","coordinates":[[[-59.779372961999954,-12.341452986999943],[-59.88679687299998,-12.245087005999942],[-59.98419555799998,-11.914821329999956],[-60.06588391999996,-11.890824779],[-60.12241108499998,-11.682401686999953],[-60.094160555999935,-11.562847124999962],[-59.93441293299996,-11.423667511999955],[-59.99502236999998,-11.148202985999909],[-60.0750227,-11.105024552999918],[-60.39155408499994,-11.093792628999974],[-60.46005013199995,-10.989856219999936],[-60.52788272599996,-11.116717922999939],[-60.46333386799995,-11.464882185],[-60.38721727099993,-11.988591311999883],[-60.302243164999965,-12.258427441],[-60.6499853,-12.261371243999939],[-60.80917005199994,-12.375481452999946],[-60.446473979999936,-12.536067655999936],[-60.44364862500002,-12.83925475499995],[-60.561809409999974,-12.771176379999947],[-60.61265560399997,-12.992386761999928],[-60.420607689,-13.01485496],[-60.333170291999956,-13.257979218999925],[-60.28437174999992,-13.084844121999915],[-60.07911274599992,-12.881142504],[-60.02894195999994,-12.618567094999964],[-59.947654779999944,-12.599265153999948],[-59.779372961999954,-12.341452986999943]]]},"properties":{"CD_MUN":"1100304","NM_MUN":"Vilhena","SIGLA":"RO","AREA_KM2":11699.15,"auxiliary_":null,"auxiliar_1":null,"REGIAO_MAR":"MT OESTE_RO","BASE_RC":null,"ALLCON_TOT":12}},
{"type":"Feature","geometry":{"type":"Polygon","coordinates":[[[-63.62701692399996,-11.005017749999944],[-63.580563438999974,-11.031151755999922],[-63.60483620699996,-11.602058013999947],[-63.170288182,-11.482297653999982],[-63.00354161199994,-11.552805513999918],[-62.991116861999984,-11.748439419999954],[-62.83762917199997,-11.88506514999995],[-63.117291060999946,-12.079526622999968],[-63.12888162799999,-12.202048200999958],[-62.81393572499995,-12.202156457999944],[-62.64252287399998,-12.237183121999937],[-62.610913648999954,-12.086212888999945],[-62.45309669599994,-11.968510165999966],[-62.477802644999976,-11.574928702999951],[-62.527043133999896,-11.477080005999927],[-62.775763119,-11.386384442999962],[-62.837955609999895,-11.303208303999988],[-63.08512615699995,-11.356816444999893],[-63.1954614969999,-11.103389287999974],[-63.28731914699992,-11.15340973199995],[-63.43309799699998,-11.029951964999949],[-63.62701692399996,-11.005017749999944]]]},"properties":{"CD_MUN":"1100320","NM_MUN":"São Miguel do Guaporé","SIGLA":"RO","AREA_KM2":7460.117,"auxiliary_":null,"auxiliar_1":null,"REGIAO_MAR":"MT OESTE_RO","BASE_RC":null,"ALLCON_TOT":14}},
{"type":"Feature","geometry":{"type":"Polygon","coordinates":[[[-64.34116988099998,-10.000381844999904],[-65.16674437299994,-10.00023187199993],[-65.33300937999995,-9.94428199199998],[-65.28882913699994,-10.219870802999917],[-65.38149957599997,-10.429074152999949],[-65.29788087399997,-10.541831454000015],[-64.97311006399997,-10.512779048999974],[-64.74312783499994,-10.45648905699995],[-64.65943456599999,-10.761506734],[-64.40965766299993,-10.823516036999923],[-64.22154374499993,-10.760232925999933],[-64.13737931999998,-10.86044383499992],[-63.70673925899999,-10.839986861999904],[-63.898792635999975,-10.751066069999968],[-63.9778976929999,-10.513017445999893],[-64.22267991599996,-10.3484154359999],[-64.209181745,-10.19637452999996],[-64.26473393199991,-10.000413360999936],[-64.34116988099998,-10.000381844999904]]]},"properties":{"CD_MUN":"1100338","NM_MUN":"Nova Mamoré","SIGLA":"RO","AREA_KM2":10070.49,"auxiliary_":null,"auxiliar_1":null,"REGIAO_MAR":"MT OESTE_RO","BASE_RC":null,"ALLCON_TOT":0}},
{"type":"Feature","geometry":{"type":"Polygon","coordinates":[[[-62.15922520499994,-11.067752994999989],[-62.26484461799997,-11.172341421999885],[-62.58415213399992,-11.22476961199995],[-62.691317236999936,-11.129814126999946],[-62.887961606,-11.21105064999993],[-63.11238530899993,-11.194640568999912],[-63.19641746599995,-11.082565972999934],[-63.1954614969999,-11.103389287999974],[-63.08512615699995,-11.356816444999893],[-62.837955609999895,-11.303208303999988],[-62.775763119,-11.386384442999962],[-62.527043133999896,-11.477080005999927],[-62.477802644999976,-11.574928702999951],[-62.290647614,-11.448051539999913],[-62.18342561099998,-11.432734092999972],[-62.09328952599995,-11.295814776999933],[-62.15922520499994,-11.067752994999989]]]},"properties":{"CD_MUN":"1100346","NM_MUN":"Alvorada D'Oeste","SIGLA":"RO","AREA_KM2":3029.189,"auxiliary_":null,"auxiliar_1":null,"REGIAO_MAR":"MT OESTE_RO","BASE_RC":null,"ALLCON_TOT":0}},
{"type":"Feature","geometry":{"type":"Polygon","coordinates":[[[-61.888435335999965,-11.96571112799992],[-62.00806377299994,-12.13378513499995],[-62.00060051099997,-12.79212925799996],[-62.040571794,-12.907758693999902],[-62.25184509799996,-13.078398324999938],[-62.41771128100002,-13.118941887999966],[-62.11520860299997,-13.163680632],[-62.057287587,-13.148983992999916],[-61.89671063899997,-12.882940563],[-61.562479907999915,-12.693455235999949],[-61.56614511999996,-12.467403291999943],[-61.67578459199998,-12.429221468999927],[-61.74753480399994,-12.199178792999952],[-61.888435335999965,-11.96571112799992]]]},"properties":{"CD_MUN":"1100379","NM_MUN":"Alto Alegre dos Parecis","SIGLA":"RO","AREA_KM2":3958.273,"auxiliary_":null,"auxiliar_1":null,"REGIAO_MAR":"MT OESTE_RO","BASE_RC":null,"ALLCON_TOT":22}},
{"type":"Feature","geometry":{"type":"Polygon","coordinates":[[[-63.32597593999998,-9.428505047999955],[-63.75682748799997,-9.39516523],[-63.58267597899997,-9.410597365999926],[-63.68529268399989,-9.832985638999912],[-63.76218459899994,-10.000347381999983],[-63.59697286799994,-10.000382257999938],[-63.49908003599991,-9.833391774999942],[-63.10159253999991,-9.75255912999998],[-63.07681028899996,-9.524972848999944],[-63.099557732999955,-9.48077590099997],[-63.32597593999998,-9.428505047999955]]]},"properties":{"CD_MUN":"1100403","NM_MUN":"Alto Paraíso","SIGLA":"RO","AREA_KM2":2651.822,"auxiliary_":null,"auxiliar_1":null,"REGIAO_MAR":"MT OESTE_RO","BASE_RC":null,"ALLCON_TOT":0}},
{"type":"Feature","geometry":{"type":"Polygon","coordinates":[[[-63.68529268399989,-9.832985638999912],[-64.31218510899994,-9.85116985],[-64.34116988099998,-10.000381844999904],[-64.26473393199991,-10.000413360999936],[-64.209181745,-10.19637452999996],[-64.00209570000001,-10.193781202999972],[-63.81310220899998,-10.329930923999928],[-63.69812133699996,-10.249084657],[-63.52430474999997,-10.24964291299991],[-63.59697286799994,-10.000382257999938],[-63.76218459899994,-10.000347381999983],[-63.68529268399989,-9.832985638999912]]]},"properties":{"CD_MUN":"1100452","NM_MUN":"Buritis","SIGLA":"RO","AREA_KM2":3265.809,"auxiliary_":null,"auxiliar_1":null,"REGIAO_MAR":"MT OESTE_RO","BASE_RC":null,"ALLCON_TOT":0}},
{"type":"Feature","geometry":{"type":"Polygon","coordinates":[[[-61.91377805499993,-11.585023843999984],[-62.086120244999975,-11.500541671999951],[-62.172705916999966,-11.547392701999968],[-62.20670117299997,-11.831993477999934],[-62.050437770999984,-11.867351740999919],[-61.91377805499993,-11.585023843999984]]]},"properties":{"CD_MUN":"1100502","NM_MUN":"Novo Horizonte do Oeste","SIGLA":"RO","AREA_KM2":843.446,"auxiliary_":null,"auxiliar_1":null,"REGIAO_MAR":"MT OESTE_RO","BASE_RC":null,"ALLCON_TOT":0}},
{"type":"Feature","geometry":{"type":"Polygon","coordinates":[[[-62.67077469099995,-10.287775618999948],[-62.83250185099993,-10.16744509899997],[-63.209265442999936,-10.167011106999944],[-63.26087684299992,-10.373093693999955],[-63.21364184199993,-10.492324327999967],[-62.78805426299991,-10.492481428999909],[-62.67077469099995,-10.287775618999948]]]},"properties":{"CD_MUN":"1100601","NM_MUN":"Cacaulândia","SIGLA":"RO","AREA_KM2":1961.778,"auxiliary_":null,"auxiliar_1":null,"REGIAO_MAR":"MT OESTE_RO","BASE_RC":null,"ALLCON_TOT":0}},
{"type":"Feature","geometry":{"type":"Polygon","coordinates":[[[-63.52430474999997,-10.24964291299991],[-63.69812133699996,-10.249084657],[-63.81310220899998,-10.329930923999928],[-64.00209570000001,-10.193781202999972],[-64.209181745,-10.19637452999996],[-64.22267991599996,-10.3484154359999],[-63.9778976929999,-10.513017445999893],[-63.898792635999975,-10.751066069999968],[-63.70673925899999,-10.839986861999904],[-63.57707299399992,-10.831576416],[-63.529958947,-10.492606023999915],[-63.45909645299994,-10.397585624999959],[-63.52430474999997,-10.24964291299991]]]},"properties":{"CD_MUN":"1100700","NM_MUN":"Campo Novo de Rondônia","SIGLA":"RO","AREA_KM2":3442.005,"auxiliary_":null,"auxiliar_1":null,"REGIAO_MAR":"MT OESTE_RO","BASE_RC":null,"ALLCON_TOT":0}},
{"type":"Feature","geometry":{"type":"Polygon","coordinates":[[[-62.764135756000016,-8.798063021999933],[-62.74483767599996,-8.612887901],[-62.82233343399996,-8.500356930999917],[-63.45053259799995,-8.500431787999982],[-63.53353549599998,-8.645479874999982],[-63.68694680799997,-8.731604780999955],[-63.74433880199996,-8.834160375999964],[-63.79476444799998,-9.128874554999964],[-63.75682748799997,-9.39516523],[-63.32597593999998,-9.428505047999955],[-63.320814985,-9.290038245999952],[-63.39575531799994,-9.09460263499998],[-63.209564563999905,-9.000501227999944],[-62.99077967899997,-9.000257921999975],[-62.764135756000016,-8.798063021999933]]]},"properties":{"CD_MUN":"1100809","NM_MUN":"Candeias do Jamari","SIGLA":"RO","AREA_KM2":6843.868,"auxiliary_":null,"auxiliar_1":null,"REGIAO_MAR":"MT OESTE_RO","BASE_RC":null,"ALLCON_TOT":14}},
{"type":"Feature","geometry":{"type":"Polygon","coordinates":[[[-61.79579824599994,-11.397832320999921],[-61.95248307599998,-11.290408039999953],[-62.086120244999975,-11.500541671999951],[-61.91377805499993,-11.585023843999984],[-61.61421863699996,-11.583829056999981],[-61.79579824599994,-11.397832320999921]]]},"properties":{"CD_MUN":"1100908","NM_MUN":"Castanheiras","SIGLA":"RO","AREA_KM2":892.841,"auxiliary_":null,"auxiliar_1":null,"REGIAO_MAR":"MT OESTE_RO","BASE_RC":null,"ALLCON_TOT":2}},
{"type":"Feature","geometry":{"type":"Polygon","coordinates":[[[-60.6499853,-12.261371243999939],[-60.71293382799993,-12.166074652999956],[-61.18067348100002,-12.167142914999971],[-61.180781422999985,-12.312032547999916],[-61.34201008900001,-12.62609625099996],[-61.33806863399995,-12.626561821999935],[-61.167622281,-12.753118788999949],[-60.65983656599993,-12.85663598199994],[-60.65201512399991,-12.981308098999964],[-60.61265560399997,-12.992386761999928],[-60.561809409999974,-12.771176379999947],[-60.44364862500002,-12.83925475499995],[-60.446473979999936,-12.536067655999936],[-60.80917005199994,-12.375481452999946],[-60.6499853,-12.261371243999939]]]},"properties":{"CD_MUN":"1100924","NM_MUN":"Chupinguaia","SIGLA":"RO","AREA_KM2":5126.723,"auxiliary_":null,"auxiliar_1":null,"REGIAO_MAR":"MT OESTE_RO","BASE_RC":null,"ALLCON_TOT":7}},
{"type":"Feature","geometry":{"type":"Polygon","coordinates":[[[-62.369126901999934,-8.743556928999983],[-62.50283116899997,-8.731872676],[-62.764135756000016,-8.798063021999933],[-62.66661948999996,-8.887899737999891],[-62.73588554,-9.000523313],[-62.73311569599997,-9.389631046999956],[-63.099557732999955,-9.48077590099997],[-63.07681028899996,-9.524972848999944],[-62.42246385299996,-9.525018773999925],[-62.315174858,-9.298717383999886],[-62.369126901999934,-8.743556928999983]]]},"properties":{"CD_MUN":"1100940","NM_MUN":"Cujubim","SIGLA":"RO","AREA_KM2":3863.946,"auxiliary_":null,"auxiliar_1":null,"REGIAO_MAR":"MT OESTE_RO","BASE_RC":null,"ALLCON_TOT":22}},
{"type":"Feature","geometry":{"type":"Polygon","coordinates":[[[-62.78805426299991,-10.492481428999909],[-63.21364184199993,-10.492324327999967],[-63.529958947,-10.492606023999915],[-63.57707299399992,-10.831576416],[-63.62701692399996,-11.005017749999944],[-63.43309799699998,-11.029951964999949],[-63.28731914699992,-11.15340973199995],[-63.1954614969999,-11.103389287999974],[-63.19641746599995,-11.082565972999934],[-63.14262994799995,-11.071396720999935],[-62.91190462099998,-10.82739974999992],[-62.67158718699994,-10.67091687999989],[-62.619593328999926,-10.556118357999953],[-62.78805426299991,-10.492481428999909]]]},"properties":{"CD_MUN":"1101005","NM_MUN":"Governador Jorge Teixeira","SIGLA":"RO","AREA_KM2":5067.384,"auxiliary_":null,"auxiliar_1":null,"REGIAO_MAR":"MT OESTE_RO","BASE_RC":null,"ALLCON_TOT":0}},
{"type":"Feature","geometry":{"type":"Polygon","coordinates":[[[-62.764135756000016,-8.798063021999933],[-62.99077967899997,-9.000257921999975],[-63.209564563999905,-9.000501227999944],[-63.39575531799994,-9.09460263499998],[-63.320814985,-9.290038245999952],[-63.32597593999998,-9.428505047999955],[-63.099557732999955,-9.48077590099997],[-62.73311569599997,-9.389631046999956],[-62.73588554,-9.000523313],[-62.66661948999996,-8.887899737999891],[-62.764135756000016,-8.798063021999933]]]},"properties":{"CD_MUN":"1101104","NM_MUN":"Itapuã do Oeste","SIGLA":"RO","AREA_KM2":4081.58,"auxiliary_":null,"auxiliar_1":null,"REGIAO_MAR":"MT OESTE_RO","BASE_RC":null,"ALLCON_TOT":0}},
{"type":"Feature","geometry":{"type":"Polygon","coordinates":[[[-61.74229951999994,-11.33347502199996],[-61.501205534999954,-11.333509219999947],[-61.500802991999954,-11.114327961],[-61.429002122999975,-10.987534212999925],[-61.55025787299994,-10.986094651],[-61.632000928999915,-10.986294254],[-61.66601608199997,-11.240339127999963],[-61.74229951999994,-11.33347502199996]]]},"properties":{"CD_MUN":"1101203","NM_MUN":"Ministro Andreazza","SIGLA":"RO","AREA_KM2":798.083,"auxiliary_":null,"auxiliar_1":null,"REGIAO_MAR":"MT OESTE_RO","BASE_RC":null,"ALLCON_TOT":0}},
{"type":"Feature","geometry":{"type":"Polygon","coordinates":[[[-62.54910889599998,-11.0660172249999],[-62.717148461,-10.87824513399994],[-62.891396412999896,-11.030610016999951],[-63.14262994799995,-11.071396720999935],[-63.19641746599995,-11.082565972999934],[-63.11238530899993,-11.194640568999912],[-62.887961606,-11.21105064999993],[-62.691317236999936,-11.129814126999946],[-62.54910889599998,-11.0660172249999]]]},"properties":{"CD_MUN":"1101302","NM_MUN":"Mirante da Serra","SIGLA":"RO","AREA_KM2":1191.875,"auxiliary_":null,"auxiliar_1":null,"REGIAO_MAR":"MT OESTE_RO","BASE_RC":null,"ALLCON_TOT":0}},
{"type":"Feature","geometry":{"type":"Polygon","coordinates":[[[-63.209265442999936,-10.167011106999944],[-63.113106343,-10.000414646999953],[-63.59697286799994,-10.000382257999938],[-63.52430474999997,-10.24964291299991],[-63.45909645299994,-10.397585624999959],[-63.529958947,-10.492606023999915],[-63.21364184199993,-10.492324327999967],[-63.26087684299992,-10.373093693999955],[-63.209265442999936,-10.167011106999944]]]},"properties":{"CD_MUN":"1101401","NM_MUN":"Monte Negro","SIGLA":"RO","AREA_KM2":1931.378,"auxiliary_":null,"auxiliar_1":null,"REGIAO_MAR":"MT OESTE_RO","BASE_RC":null,"ALLCON_TOT":0}},
{"type":"Feature","geometry":{"type":"Polygon","coordinates":[[[-62.49446824099991,-11.026580561999975],[-62.35243528599998,-10.893934369999911],[-62.52525875299996,-10.709472721999944],[-62.717148461,-10.87824513399994],[-62.54910889599998,-11.0660172249999],[-62.49446824099991,-11.026580561999975]]]},"properties":{"CD_MUN":"1101435","NM_MUN":"Nova União","SIGLA":"RO","AREA_KM2":807.125,"auxiliary_":null,"auxiliar_1":null,"REGIAO_MAR":"MT OESTE_RO","BASE_RC":null,"ALLCON_TOT":0}},
{"type":"Feature","geometry":{"type":"Polygon","coordinates":[[[-61.18067348100002,-12.167142914999971],[-61.190167852999906,-12.00050803599991],[-61.33266945499997,-12.000567492999945],[-61.41714734700001,-12.08634628499997],[-61.530509688999956,-12.088994449999966],[-61.67861957399998,-12.08970250199993],[-61.67578459199998,-12.429221468999927],[-61.56614511999996,-12.467403291999943],[-61.38606158299994,-12.487306262999951],[-61.34201008900001,-12.62609625099996],[-61.180781422999985,-12.312032547999916],[-61.18067348100002,-12.167142914999971]]]},"properties":{"CD_MUN":"1101450","NM_MUN":"Parecis","SIGLA":"RO","AREA_KM2":2548.683,"auxiliary_":null,"auxiliar_1":null,"REGIAO_MAR":"MT OESTE_RO","BASE_RC":null,"ALLCON_TOT":0}},
{"type":"Feature","geometry":{"type":"Polygon","coordinates":[[[-61.34201008900001,-12.62609625099996],[-61.38606158299994,-12.487306262999951],[-61.56614511999996,-12.467403291999943],[-61.562479907999915,-12.693455235999949],[-61.89671063899997,-12.882940563],[-62.057287587,-13.148983992999916],[-62.11520860299997,-13.163680632],[-62.11568434799999,-13.258465213],[-61.88742596999994,-13.440774471999948],[-61.86885265,-13.528222080999939],[-61.58562098299997,-13.50062565599993],[-61.46992394099995,-13.555250237999914],[-61.24834405399994,-13.496274093999947],[-60.91898388199992,-13.548326039999967],[-60.705181922999984,-13.324738151],[-60.74155470699998,-13.324922679999904],[-61.039263597999955,-13.361743488999931],[-61.35366917499995,-13.363705603],[-61.36141092499996,-13.22837274899996],[-61.59185002899996,-13.303013032999953],[-61.64034074799993,-13.05841627499996],[-61.500996260999955,-13.004329819],[-61.42545072800003,-12.730457058999942],[-61.33806863399995,-12.626561821999935],[-61.34201008900001,-12.62609625099996]]]},"properties":{"CD_MUN":"1101468","NM_MUN":"Pimenteiras do Oeste","SIGLA":"RO","AREA_KM2":6014.733,"auxiliary_":null,"auxiliar_1":null,"REGIAO_MAR":"MT OESTE_RO","BASE_RC":null,"ALLCON_TOT":20}},
{"type":"Feature","geometry":{"type":"Polygon","coordinates":[[[-61.190167852999906,-12.00050803599991],[-61.23839524299994,-11.841320156999888],[-61.41483652899994,-11.74399325899996],[-61.41714734700001,-12.08634628499997],[-61.33266945499997,-12.000567492999945],[-61.190167852999906,-12.00050803599991]]]},"properties":{"CD_MUN":"1101476","NM_MUN":"Primavera de Rondônia","SIGLA":"RO","AREA_KM2":605.692,"auxiliary_":null,"auxiliar_1":null,"REGIAO_MAR":"MT OESTE_RO","BASE_RC":null,"ALLCON_TOT":0}},
{"type":"Feature","geometry":{"type":"Polygon","coordinates":[[[-61.534584586999955,-11.743169512999927],[-61.564297668999956,-11.856365505999964],[-61.530509688999956,-12.088994449999966],[-61.41714734700001,-12.08634628499997],[-61.41483652899994,-11.74399325899996],[-61.534584586999955,-11.743169512999927]]]},"properties":{"CD_MUN":"1101484","NM_MUN":"São Felipe D'Oeste","SIGLA":"RO","AREA_KM2":541.647,"auxiliary_":null,"auxiliar_1":null,"REGIAO_MAR":"MT OESTE_RO","BASE_RC":null,"ALLCON_TOT":0}},
{"type":"Feature","geometry":{"type":"Polygon","coordinates":[[[-63.12888162799999,-12.202048200999958],[-63.32932442100001,-12.218765129999962],[-63.25646112999996,-12.028817797999967],[-63.36664149999997,-11.839436975999948],[-63.581094609999965,-11.839042617999915],[-63.78806924799997,-11.838737293999966],[-63.991143058,-12.026291737999948],[-64.03095016599993,-12.22475568499993],[-63.79888815499994,-12.198561099999914],[-63.684757934999965,-12.45305680999996],[-63.295544450999955,-12.68185672399996],[-63.16447898799994,-12.615720567999986],[-63.00709821999996,-12.83959599299994],[-62.892156443,-12.858840960999949],[-62.665263312999926,-12.906181129999936],[-62.462788123999964,-12.746667378999952],[-62.26782381899991,-12.50977051299996],[-62.291429873999974,-12.318825662999942],[-62.394683750999945,-12.343479920999965],[-62.64252287399998,-12.237183121999937],[-62.81393572499995,-12.202156457999944],[-63.12888162799999,-12.202048200999958]]]},"properties":{"CD_MUN":"1101492","NM_MUN":"São Francisco do Guaporé","SIGLA":"RO","AREA_KM2":10959.767,"auxiliary_":null,"auxiliar_1":null,"REGIAO_MAR":"MT OESTE_RO","BASE_RC":null,"ALLCON_TOT":0}},
{"type":"Feature","geometry":{"type":"Polygon","coordinates":[[[-63.12888162799999,-12.202048200999958],[-63.117291060999946,-12.079526622999968],[-62.83762917199997,-11.88506514999995],[-62.991116861999984,-11.748439419999954],[-63.00354161199994,-11.552805513999918],[-63.170288182,-11.482297653999982],[-63.60483620699996,-11.602058013999947],[-63.67991986799996,-11.644414846999904],[-63.546795578999955,-11.727270303],[-63.581094609999965,-11.839042617999915],[-63.36664149999997,-11.839436975999948],[-63.25646112999996,-12.028817797999967],[-63.32932442100001,-12.218765129999962],[-63.12888162799999,-12.202048200999958]]]},"properties":{"CD_MUN":"1101500","NM_MUN":"Seringueiras","SIGLA":"RO","AREA_KM2":3773.505,"auxiliary_":null,"auxiliar_1":null,"REGIAO_MAR":"MT OESTE_RO","BASE_RC":null,"ALLCON_TOT":0}},
{"type":"Feature","geometry":{"type":"Polygon","coordinates":[[[-62.15601492699997,-11.02598234199995],[-62.12258034699991,-10.899387828999938],[-62.35243528599998,-10.893934369999911],[-62.49446824099991,-11.026580561999975],[-62.15601492699997,-11.02598234199995]]]},"properties":{"CD_MUN":"1101559","NM_MUN":"Teixeirópolis","SIGLA":"RO","AREA_KM2":459.978,"auxiliary_":null,"auxiliar_1":null,"REGIAO_MAR":"MT OESTE_RO","BASE_RC":null,"ALLCON_TOT":0}},
{"type":"Feature","geometry":{"type":"Polygon","coordinates":[[[-61.954417770999925,-9.949679831999934],[-62.10800505,-10.042445485999938],[-62.21180550099998,-10.030872844999958],[-62.42317447699996,-9.805825316999925],[-62.66994362400002,-10.288206376999973],[-62.55819387000001,-10.372630469999908],[-62.46775939599998,-10.28197160099996],[-62.36269910000003,-10.325205394],[-62.13463918499997,-10.224729594999946],[-61.97266710099997,-10.06752792799995],[-61.954417770999925,-9.949679831999934]]]},"properties":{"CD_MUN":"1101609","NM_MUN":"Theobroma","SIGLA":"RO","AREA_KM2":2197.413,"auxiliary_":null,"auxiliar_1":null,"REGIAO_MAR":"MT OESTE_RO","BASE_RC":null,"ALLCON_TOT":0}},
{"type":"Feature","geometry":{"type":"Polygon","coordinates":[[[-62.15601492699997,-11.02598234199995],[-62.49446824099991,-11.026580561999975],[-62.54910889599998,-11.0660172249999],[-62.691317236999936,-11.129814126999946],[-62.58415213399992,-11.22476961199995],[-62.26484461799997,-11.172341421999885],[-62.15922520499994,-11.067752994999989],[-62.144445759999925,-11.030413664999958],[-62.15601492699997,-11.02598234199995]]]},"properties":{"CD_MUN":"1101708","NM_MUN":"Urupá","SIGLA":"RO","AREA_KM2":831.857,"auxiliary_":null,"auxiliar_1":null,"REGIAO_MAR":"MT OESTE_RO","BASE_RC":null,"ALLCON_TOT":0}},
{"type":"Feature","geometry":{"type":"Polygon","coordinates":[[[-61.574637303999964,-9.717793256999894],[-61.50804292,-9.54046296099996],[-61.61621063300002,-9.326825764999978],[-61.70096626699994,-9.47588155899993],[-62.016739027,-9.539325839999933],[-62.12461099599997,-9.680292987999959],[-62.422616686,-9.804615643999934],[-62.42317447699996,-9.805825316999925],[-62.21180550099998,-10.030872844999958],[-62.10800505,-10.042445485999938],[-61.954417770999925,-9.949679831999934],[-61.79216568599994,-9.719683951000011],[-61.574637303999964,-9.717793256999894]]]},"properties":{"CD_MUN":"1101757","NM_MUN":"Vale do Anari","SIGLA":"RO","AREA_KM2":3135.106,"auxiliary_":null,"auxiliar_1":null,"REGIAO_MAR":"MT OESTE_RO","BASE_RC":null,"ALLCON_TOT":0}},
{"type":"Feature","geometry":{"type":"Polygon","coordinates":[[[-61.910568956999974,-10.117044983999932],[-61.97266710099997,-10.06752792799995],[-62.13463918499997,-10.224729594999946],[-62.122004035,-10.355000762999964],[-62.259661128999895,-10.476848437999973],[-62.24009157099994,-10.61526460099996],[-62.100629391,-10.659522321999901],[-61.95741294399994,-10.163853221999961],[-61.910568956999974,-10.117044983999932]]]},"properties":{"CD_MUN":"1101807","NM_MUN":"Vale do Paraíso","SIGLA":"RO","AREA_KM2":965.676,"auxiliary_":null,"auxiliar_1":null,"REGIAO_MAR":"MT OESTE_RO","BASE_RC":null,"ALLCON_TOT":0}},
{"type":"Feature","geometry":{"type":"Polygon","coordinates":[[[-57.054450123999985,-9.529360081999947],[-57.100450296999945,-9.216542318999963],[-57.039241594,-9.098290013999897],[-57.20377417500002,-8.920819818999934],[-57.416215742999924,-8.858995121],[-57.592938920999984,-8.75647697199998],[-57.68655768999997,-8.407007846999957],[-57.64166889599995,-8.21988153299996],[-57.83186459899998,-7.961515910999903],[-57.896749021999945,-7.677884549999945],[-58.06136156699992,-7.395191152999967],[-58.213059953999945,-7.458534734999986],[-58.20217060600001,-7.620854258999952],[-58.375135512999975,-7.899001267],[-58.29016729299995,-8.135600014],[-58.441947,-8.798715264999899],[-58.55048814099996,-8.940269084999972],[-58.38028214900001,-8.98959968599998],[-58.17034782999998,-9.144441327999928],[-58.07883101600002,-9.337744745999963],[-57.9350567449999,-9.46978446499994],[-57.72875238800001,-9.512671963999928],[-57.66877052099996,-9.717448818],[-57.57240762599995,-9.767996662],[-57.16432296999996,-9.667899662999933],[-57.054450123999985,-9.529360081999947]]]},"properties":{"CD_MUN":"5100805","NM_MUN":"Apiacás","SIGLA":"MT","AREA_KM2":20489.024,"auxiliary_":null,"auxiliar_1":null,"REGIAO_MAR":"MT OESTE_RO","BASE_RC":null,"ALLCON_TOT":0}},
{"type":"Feature","geometry":{"type":"Polygon","coordinates":[[[-58.27962101499999,-15.184251689999915],[-58.52152763299998,-15.099217973999899],[-58.509231574999916,-14.999900051999902],[-58.72227190599999,-15.000000155999924],[-58.72604952499991,-15.155556331999929],[-58.49134364699992,-15.349667472],[-58.48427469499999,-15.514983779999945],[-58.28816285199993,-15.525384271999929],[-58.221059673999974,-15.350383138999977],[-58.27962101499999,-15.184251689999915]]]},"properties":{"CD_MUN":"5101258","NM_MUN":"Araputanga","SIGLA":"MT","AREA_KM2":1639.733,"auxiliary_":null,"auxiliar_1":null,"REGIAO_MAR":"MT OESTE_RO","BASE_RC":null,"ALLCON_TOT":0}},
{"type":"Feature","geometry":{"type":"Polygon","coordinates":[[[-59.02315153399995,-9.979875910999922],[-59.18083945399994,-9.995838460999948],[-59.16761337099993,-9.82120424599998],[-59.43484349899998,-9.768600698999972],[-59.64711316999997,-9.866540051999948],[-59.78524477699995,-9.753072725999932],[-59.83658351699994,-9.617267663999893],[-59.772732565999945,-9.482632297999913],[-59.915359344999985,-9.414465866999908],[-60.16662629699995,-9.400887833999914],[-60.26948746600002,-9.321315143999929],[-60.478316175999964,-9.316500789999935],[-60.62346141899992,-9.365156251999949],[-60.5908850659999,-9.553088796999951],[-60.64729049599997,-9.636561550999954],[-60.68147551899996,-9.73672378999991],[-60.61075230099996,-10.011233136999973],[-60.63735241699996,-10.293162289999955],[-60.52392303499998,-10.470678006999954],[-60.522396957999916,-10.671417846999951],[-60.404168085000016,-10.852547424999912],[-60.26132092799996,-10.919121445999966],[-59.967033570999924,-10.819521759999926],[-59.8833727159999,-10.85778513299994],[-59.661198020999976,-10.741822860999903],[-59.365824565999965,-10.801727012999915],[-59.11432417899995,-10.81216365199996],[-58.93233795199998,-10.736134958000019],[-58.882264564999986,-10.618375491999963],[-58.881444361999975,-10.392709569000012],[-58.79647111099999,-10.281332557999932],[-58.84387906899999,-10.131330147],[-59.02315153399995,-9.979875910999922]]]},"properties":{"CD_MUN":"5101407","NM_MUN":"Aripuanã","SIGLA":"MT","AREA_KM2":24678.135,"auxiliary_":null,"auxiliar_1":null,"REGIAO_MAR":"MT OESTE_RO","BASE_RC":null,"ALLCON_TOT":0}},
{"type":"Feature","geometry":{"type":"MultiPolygon","coordinates":[[[[-57.747933474999975,-14.912746201999969],[-58.15414225399992,-14.715113325999916],[-58.227968768,-14.769959072999903],[-58.01767755199993,-15.000165508999928],[-57.73085092699992,-15.000151161999984],[-57.67685121499994,-15.135828636999946],[-57.508047950999966,-15.510007005000013],[-57.49703694499992,-15.647163742999979],[-57.296294344999964,-15.336338977999961],[-57.138275096,-15.232629234999937],[-56.96670728,-15.35874787699992],[-56.80635582999997,-15.105412091999924],[-56.92696496299991,-14.93663647499993],[-57.077979047999975,-14.916515467999911],[-57.23320394699993,-14.819312594999943],[-57.315193814999986,-14.956610223999931],[-57.495178518999985,-14.877678031999917],[-57.747933474999975,-14.912746201999969]]],[[[-58.61904779699991,-14.828076285999945],[-58.756738576,-14.593749144999943],[-58.854177362999955,-15.000071727999984],[-58.72227190599999,-15.000000155999924],[-58.61904779699991,-14.828076285999945]]]]},"properties":{"CD_MUN":"5101704","NM_MUN":"Barra do Bugres","SIGLA":"MT","AREA_KM2":5976.864,"auxiliary_":null,"auxiliar_1":null,"REGIAO_MAR":"MT OESTE_RO","BASE_RC":null,"ALLCON_TOT":6}},
{"type":"Feature","geometry":{"type":"Polygon","coordinates":[[[-57.734137865,-12.209288143],[-57.879785828,-12.094942340999957],[-57.887601301999965,-11.937574015999939],[-58.076639873,-11.689737479999938],[-58.15526506199993,-11.421558879000013],[-58.12730625499995,-11.28680322299994],[-58.27628027199998,-11.163723425999947],[-58.25132143299997,-11.051604778999966],[-58.343208459000024,-10.950914237999907],[-58.37501637699997,-11.23888266399998],[-58.335392835999954,-11.502030395999938],[-58.41863913699996,-11.61809733300002],[-58.38935769399997,-11.773936299999974],[-58.44813356499998,-11.922239721999937],[-58.527697008,-12.275249621999915],[-58.44406407299998,-12.438271143999966],[-58.397613976999914,-12.798815142],[-58.292259844999904,-12.930367784999905],[-58.18510411299995,-13.025039117999935],[-58.17332904599992,-13.1807923439999],[-58.06245433500001,-13.244333534999928],[-57.9211716999999,-13.207298596999948],[-57.74914978299998,-13.26963066599994],[-57.66996192099995,-13.162072009999957],[-57.486665134,-13.154904762999973],[-57.327115617,-13.044256969999921],[-57.44134886799996,-12.46618595599994],[-57.62590384199992,-12.34086171499996],[-57.734137865,-12.209288143]]]},"properties":{"CD_MUN":"5101902","NM_MUN":"Brasnorte","SIGLA":"MT","AREA_KM2":15968.355,"auxiliary_":null,"auxiliar_1":null,"REGIAO_MAR":"MT OESTE_RO","BASE_RC":null,"ALLCON_TOT":12}},
{"type":"Feature","geometry":{"type":"Polygon","coordinates":[[[-57.49703694499992,-15.647163742999979],[-57.508047950999966,-15.510007005000013],[-57.71224750599997,-15.454502775999988],[-57.69689279099996,-15.599193922999941],[-57.79910369099996,-15.77365888599994],[-57.8898934379999,-15.750228122999985],[-58.13211471399999,-15.847346096999946],[-58.292809704,-15.995873317999951],[-58.39076184099998,-15.884807714999969],[-58.69482506699992,-16.032323602999963],[-58.786190935,-16.306883609999954],[-58.43047135399992,-16.321294987999977],[-58.343858240999964,-16.51772665599994],[-58.46310909299996,-16.65221948999994],[-58.47450728299998,-16.914486826999973],[-58.39700151299995,-17.181551090999978],[-58.12073004800002,-17.44763943599997],[-57.996366996999896,-17.51560331],[-57.883442069,-17.44954203],[-57.67776865799991,-17.604982101],[-57.500778485999966,-17.535586628],[-57.33759530499995,-17.358706181999892],[-57.33464102499994,-17.207155150999895],[-57.432288618999934,-16.9205659739999],[-57.36340392999992,-16.823033862999957],[-57.40294778699992,-16.638169782],[-57.188015852999925,-16.527753434],[-57.07560648899996,-16.419433449999907],[-57.071739978999965,-16.26786166099997],[-57.22479700599996,-15.85087516999991],[-57.49703694499992,-15.647163742999979]]]},"properties":{"CD_MUN":"5102504","NM_MUN":"Cáceres","SIGLA":"MT","AREA_KM2":24538.479,"auxiliary_":null,"auxiliar_1":null,"REGIAO_MAR":"MT OESTE_RO","BASE_RC":null,"ALLCON_TOT":0}},
{"type":"Feature","geometry":{"type":"Polygon","coordinates":[[[-57.486665134,-13.154904762999973],[-57.66996192099995,-13.162072009999957],[-57.74914978299998,-13.26963066599994],[-57.9211716999999,-13.207298596999948],[-58.06245433500001,-13.244333534999928],[-58.17332904599992,-13.1807923439999],[-58.18510411299995,-13.025039117999935],[-58.292259844999904,-12.930367784999905],[-58.28281872599998,-13.186851288999932],[-58.408139555999945,-13.557659349999938],[-58.23672418099994,-13.926293661999942],[-58.08406081699992,-13.999985796],[-58.112494576999936,-14.180396342999888],[-58.23203383699999,-14.385776023999917],[-57.734713051,-14.291604269999922],[-57.628139482999984,-13.963441191],[-57.357386361999936,-13.551988864999895],[-57.543167362,-13.582043352999982],[-57.61880249999997,-13.340844021999896],[-57.486665134,-13.154904762999973]]]},"properties":{"CD_MUN":"5102637","NM_MUN":"Campo Novo do Parecis","SIGLA":"MT","AREA_KM2":9428.586,"auxiliary_":-59.96392273185003,"auxiliar_1":-13.842304470846083,"REGIAO_MAR":"MT OESTE_RO","BASE_RC":"RODRIGO","ALLCON_TOT":12}},
{"type":"Feature","geometry":{"type":"Polygon","coordinates":[[[-59.04562122099996,-13.999961056],[-58.990599647,-13.800218399999906],[-59.03031032999994,-13.600135314999893],[-58.99828323699998,-13.444493470999905],[-59.03737159099995,-13.242858112999976],[-58.96002655599999,-13.126439148999989],[-58.91518408699998,-12.917257509999978],[-58.93113335899997,-12.641477221999917],[-59.228902099000024,-12.920652346999937],[-59.427677663999944,-13.290265296],[-59.388064648,-13.470595039999953],[-59.45670714999995,-13.695678961999889],[-59.370670573,-13.98167947699994],[-59.41918165699997,-14.2445932379999],[-59.31181779599994,-14.510135682999934],[-59.274123232,-14.373845974999941],[-59.090588962999945,-14.276442540999899],[-59.04562122099996,-13.999961056]]]},"properties":{"CD_MUN":"5102686","NM_MUN":"Campos de Júlio","SIGLA":"MT","AREA_KM2":6792.808,"auxiliary_":null,"auxiliar_1":null,"REGIAO_MAR":"MT OESTE_RO","BASE_RC":null,"ALLCON_TOT":6}},
{"type":"Feature","geometry":{"type":"Polygon","coordinates":[[[-58.343208459000024,-10.950914237999907],[-58.331338087999924,-10.795556251999958],[-58.41907421099998,-10.566511783999974],[-58.503734686999934,-10.626525772000015],[-58.83506249499996,-10.716438250999936],[-58.90857998799996,-10.790662478999966],[-58.948037262,-10.993210936999951],[-58.86060615099994,-11.018712313999988],[-58.800456947,-11.176301711999912],[-58.52980862199992,-11.297044525999986],[-58.37501637699997,-11.23888266399998],[-58.343208459000024,-10.950914237999907]]]},"properties":{"CD_MUN":"5102850","NM_MUN":"Castanheira","SIGLA":"MT","AREA_KM2":3713.466,"auxiliary_":null,"auxiliar_1":null,"REGIAO_MAR":"MT OESTE_RO","BASE_RC":null,"ALLCON_TOT":0}},
{"type":"Feature","geometry":{"type":"Polygon","coordinates":[[[-59.12737086799994,-8.803268724999977],[-60.000526507999936,-8.80088533699995],[-61.58313478499997,-8.79868905399995],[-61.469214048999916,-8.920114292999912],[-61.55575495999994,-9.092402569999933],[-61.524865085,-9.242855073999987],[-61.61621063300002,-9.326825764999978],[-61.50804292,-9.54046296099996],[-61.574637303999964,-9.717793256999894],[-61.507913555999956,-9.86108182299997],[-61.54022951099993,-10.000209387999934],[-61.36411775700001,-10.038851535999935],[-61.037069953999904,-9.973468265999905],[-60.876826023,-9.772394934999937],[-60.64729049599997,-9.636561550999954],[-60.5908850659999,-9.553088796999951],[-60.62346141899992,-9.365156251999949],[-60.478316175999964,-9.316500789999935],[-60.26948746600002,-9.321315143999929],[-60.16662629699995,-9.400887833999914],[-59.915359344999985,-9.414465866999908],[-59.772732565999945,-9.482632297999913],[-59.83658351699994,-9.617267663999893],[-59.78524477699995,-9.753072725999932],[-59.64711316999997,-9.866540051999948],[-59.43484349899998,-9.768600698999972],[-59.16761337099993,-9.82120424599998],[-59.18083945399994,-9.995838460999948],[-59.02315153399995,-9.979875910999922],[-58.96561678399996,-9.94391631400001],[-59.03698432699997,-9.57077689399993],[-58.938390253,-9.439376015999965],[-59.03002705399995,-9.160500734999975],[-58.970559484,-9.069282825999956],[-59.017877015999986,-8.87167723899994],[-59.12737086799994,-8.803268724999977]]]},"properties":{"CD_MUN":"5103254","NM_MUN":"Colniza","SIGLA":"MT","AREA_KM2":27960.237,"auxiliary_":null,"auxiliar_1":null,"REGIAO_MAR":"MT OESTE_RO","BASE_RC":null,"ALLCON_TOT":0}},
{"type":"Feature","geometry":{"type":"Polygon","coordinates":[[[-58.86917961299993,-12.213352362999927],[-59.04763607399996,-12.258725155999937],[-59.17083488299994,-12.367523983999948],[-59.35112993399996,-12.280599698999914],[-59.779372961999954,-12.341452986999943],[-59.947654779999944,-12.599265153999948],[-60.02894195999994,-12.618567094999964],[-60.07911274599992,-12.881142504],[-60.28437174999992,-13.084844121999915],[-60.333170291999956,-13.257979218999925],[-60.371617772000015,-13.31858975299994],[-60.387919629999956,-13.454695110999957],[-60.686037860999974,-13.625227428],[-60.70931488799991,-13.693003363999932],[-60.46551553499999,-13.814166200999942],[-60.38306630399994,-13.992959031999916],[-60.31007813799995,-14.060875342999921],[-60.167367080999966,-14.012273507],[-59.96152344499991,-14.045951930999898],[-59.84169373199998,-14.172978774999976],[-59.53524329599997,-14.009666474999936],[-59.370670573,-13.98167947699994],[-59.45670714999995,-13.695678961999889],[-59.388064648,-13.470595039999953],[-59.427677663999944,-13.290265296],[-59.228902099000024,-12.920652346999937],[-58.93113335899997,-12.641477221999917],[-58.846213825,-12.335513386999928],[-58.86917961299993,-12.213352362999927]]]},"properties":{"CD_MUN":"5103304","NM_MUN":"Comodoro","SIGLA":"MT","AREA_KM2":21484.982,"auxiliary_":null,"auxiliar_1":null,"REGIAO_MAR":"MT OESTE_RO","BASE_RC":null,"ALLCON_TOT":16}},
{"type":"Feature","geometry":{"type":"Polygon","coordinates":[[[-59.107707983,-14.661405661999947],[-59.0564795559999,-14.315754002999945],[-59.090588962999945,-14.276442540999899],[-59.274123232,-14.373845974999941],[-59.31181779599994,-14.510135682999934],[-59.542591038999966,-14.457610879999958],[-59.62822572599997,-14.498766972999952],[-59.584349661,-14.81981732099996],[-59.44679726899997,-14.959120293999959],[-59.203348203,-14.825794285999958],[-59.107707983,-14.661405661999947]]]},"properties":{"CD_MUN":"5103361","NM_MUN":"Conquista D'Oeste","SIGLA":"MT","AREA_KM2":2684.676,"auxiliary_":null,"auxiliar_1":null,"REGIAO_MAR":"MT OESTE_RO","BASE_RC":null,"ALLCON_TOT":2}},
{"type":"Feature","geometry":{"type":"Polygon","coordinates":[[[-58.55048814099996,-8.940269084999972],[-58.441947,-8.798715264999899],[-59.12737086799994,-8.803268724999977],[-59.017877015999986,-8.87167723899994],[-58.970559484,-9.069282825999956],[-59.03002705399995,-9.160500734999975],[-58.938390253,-9.439376015999965],[-59.03698432699997,-9.57077689399993],[-58.96561678399996,-9.94391631400001],[-59.02315153399995,-9.979875910999922],[-58.84387906899999,-10.131330147],[-58.323084379999926,-10.128122055999942],[-58.23026655099996,-9.997467066999963],[-58.195462671000016,-9.803257145999975],[-58.29471334399996,-9.445184349999955],[-58.42116690599994,-9.457440283999983],[-58.59983060099998,-9.334208895999971],[-58.65574204199994,-9.189417118999952],[-58.55048814099996,-8.940269084999972]]]},"properties":{"CD_MUN":"5103379","NM_MUN":"Cotriguaçu","SIGLA":"MT","AREA_KM2":9469.957,"auxiliary_":null,"auxiliar_1":null,"REGIAO_MAR":"MT OESTE_RO","BASE_RC":null,"ALLCON_TOT":0}},
{"type":"Feature","geometry":{"type":"Polygon","coordinates":[[[-57.79910369099996,-15.77365888599994],[-57.798885234999915,-15.656171248],[-57.895106804999955,-15.46704297299991],[-57.99066111199995,-15.561703575999939],[-57.8898934379999,-15.750228122999985],[-57.79910369099996,-15.77365888599994]]]},"properties":{"CD_MUN":"5103437","NM_MUN":"Curvelândia","SIGLA":"MT","AREA_KM2":357.128,"auxiliary_":null,"auxiliar_1":null,"REGIAO_MAR":"MT OESTE_RO","BASE_RC":null,"ALLCON_TOT":8}},
{"type":"Feature","geometry":{"type":"Polygon","coordinates":[[[-58.696456042999955,-15.313628783999942],[-58.85564072699998,-15.49652835099998],[-58.85674306099997,-15.60041991899995],[-58.71565374999996,-15.689368139999935],[-58.560444924,-15.692964957],[-58.58147929999993,-15.509828683],[-58.696456042999955,-15.313628783999942]]]},"properties":{"CD_MUN":"5103809","NM_MUN":"Figueirópolis D'Oeste","SIGLA":"MT","AREA_KM2":891.448,"auxiliary_":null,"auxiliar_1":null,"REGIAO_MAR":"MT OESTE_RO","BASE_RC":null,"ALLCON_TOT":0}},
{"type":"Feature","geometry":{"type":"Polygon","coordinates":[[[-58.13211471399999,-15.847346096999946],[-58.247240492999914,-15.708979195999948],[-58.560444924,-15.692964957],[-58.39076184099998,-15.884807714999969],[-58.292809704,-15.995873317999951],[-58.13211471399999,-15.847346096999946]]]},"properties":{"CD_MUN":"5103957","NM_MUN":"Glória D'Oeste","SIGLA":"MT","AREA_KM2":833.13,"auxiliary_":null,"auxiliar_1":null,"REGIAO_MAR":"MT OESTE_RO","BASE_RC":null,"ALLCON_TOT":0}},
{"type":"Feature","geometry":{"type":"Polygon","coordinates":[[[-58.48427469499999,-15.514983779999945],[-58.49134364699992,-15.349667472],[-58.72604952499991,-15.155556331999929],[-58.696456042999955,-15.313628783999942],[-58.58147929999993,-15.509828683],[-58.48427469499999,-15.514983779999945]]]},"properties":{"CD_MUN":"5104500","NM_MUN":"Indiavaí","SIGLA":"MT","AREA_KM2":592.495,"auxiliary_":null,"auxiliar_1":null,"REGIAO_MAR":"MT OESTE_RO","BASE_RC":null,"ALLCON_TOT":0}},
{"type":"Feature","geometry":{"type":"Polygon","coordinates":[[[-58.72604952499991,-15.155556331999929],[-58.72227190599999,-15.000000155999924],[-58.854177362999955,-15.000071727999984],[-58.882979895999924,-15.157646641999953],[-59.01309867199995,-15.418333280999938],[-59.093140063,-15.46685668199995],[-59.08775278999993,-15.477651494999964],[-58.85674306099997,-15.60041991899995],[-58.85564072699998,-15.49652835099998],[-58.696456042999955,-15.313628783999942],[-58.72604952499991,-15.155556331999929]]]},"properties":{"CD_MUN":"5105002","NM_MUN":"Jauru","SIGLA":"MT","AREA_KM2":1345.411,"auxiliary_":null,"auxiliar_1":null,"REGIAO_MAR":"MT OESTE_RO","BASE_RC":null,"ALLCON_TOT":0}},
{"type":"Feature","geometry":{"type":"Polygon","coordinates":[[[-56.96362247400002,-10.284440010999916],[-57.15309304399991,-10.312266139000013],[-57.59959305399997,-10.24950587199994],[-57.683022639999955,-10.345598548999888],[-58.00154852999999,-10.432957317999989],[-58.07027263099995,-10.383868054999965],[-58.337653923999895,-10.409065589],[-58.41907421099998,-10.566511783999974],[-58.331338087999924,-10.795556251999958],[-58.343208459000024,-10.950914237999907],[-58.25132143299997,-11.051604778999966],[-58.27628027199998,-11.163723425999947],[-58.12730625499995,-11.28680322299994],[-58.15526506199993,-11.421558879000013],[-58.076639873,-11.689737479999938],[-57.887601301999965,-11.937574015999939],[-57.879785828,-12.094942340999957],[-57.734137865,-12.209288143],[-57.54355231799997,-12.066256005999918],[-57.42297448999995,-12.055336509999979],[-57.39706021799995,-11.83987793299993],[-57.442904235999954,-11.563586738999962],[-57.410390749999976,-11.478610892999939],[-57.55661919799994,-11.326086027000013],[-57.31906079099993,-11.24878845699989],[-57.114742527999965,-11.309192575999969],[-57.02028475799993,-11.14125943899996],[-57.07479386499996,-10.994043010999963],[-56.93425616999994,-10.942402853],[-56.786673191,-10.983584291999957],[-56.782417031,-10.56922863599997],[-56.717035524000025,-10.498269913999945],[-56.96362247400002,-10.284440010999916]]]},"properties":{"CD_MUN":"5105101","NM_MUN":"Juara","SIGLA":"MT","AREA_KM2":22632.713,"auxiliary_":null,"auxiliar_1":null,"REGIAO_MAR":"MT OESTE_RO","BASE_RC":null,"ALLCON_TOT":12}},
{"type":"Feature","geometry":{"type":"Polygon","coordinates":[[[-58.882264564999986,-10.618375491999963],[-58.93233795199998,-10.736134958000019],[-59.11432417899995,-10.81216365199996],[-59.365824565999965,-10.801727012999915],[-59.661198020999976,-10.741822860999903],[-59.8833727159999,-10.85778513299994],[-59.967033570999924,-10.819521759999926],[-60.26132092799996,-10.919121445999966],[-60.404168085000016,-10.852547424999912],[-60.46005013199995,-10.989856219999936],[-60.39155408499994,-11.093792628999974],[-60.0750227,-11.105024552999918],[-59.99502236999998,-11.148202985999909],[-59.93441293299996,-11.423667511999955],[-60.094160555999935,-11.562847124999962],[-60.12241108499998,-11.682401686999953],[-60.06588391999996,-11.890824779],[-59.98419555799998,-11.914821329999956],[-59.88679687299998,-12.245087005999942],[-59.779372961999954,-12.341452986999943],[-59.35112993399996,-12.280599698999914],[-59.17083488299994,-12.367523983999948],[-59.04763607399996,-12.258725155999937],[-58.86917961299993,-12.213352362999927],[-58.44813356499998,-11.922239721999937],[-58.38935769399997,-11.773936299999974],[-58.41863913699996,-11.61809733300002],[-58.335392835999954,-11.502030395999938],[-58.37501637699997,-11.23888266399998],[-58.52980862199992,-11.297044525999986],[-58.800456947,-11.176301711999912],[-58.86060615099994,-11.018712313999988],[-58.948037262,-10.993210936999951],[-58.90857998799996,-10.790662478999966],[-58.882264564999986,-10.618375491999963]]]},"properties":{"CD_MUN":"5105150","NM_MUN":"Juína","SIGLA":"MT","AREA_KM2":26397.173,"auxiliary_":null,"auxiliar_1":null,"REGIAO_MAR":"MT OESTE_RO","BASE_RC":null,"ALLCON_TOT":20}},
{"type":"Feature","geometry":{"type":"Polygon","coordinates":[[[-58.337653923999895,-10.409065589],[-58.323084379999926,-10.128122055999942],[-58.84387906899999,-10.131330147],[-58.79647111099999,-10.281332557999932],[-58.881444361999975,-10.392709569000012],[-58.882264564999986,-10.618375491999963],[-58.90857998799996,-10.790662478999966],[-58.83506249499996,-10.716438250999936],[-58.503734686999934,-10.626525772000015],[-58.41907421099998,-10.566511783999974],[-58.337653923999895,-10.409065589]]]},"properties":{"CD_MUN":"5105176","NM_MUN":"Juruena","SIGLA":"MT","AREA_KM2":3207.837,"auxiliary_":null,"auxiliar_1":null,"REGIAO_MAR":"MT OESTE_RO","BASE_RC":null,"ALLCON_TOT":0}},
{"type":"Feature","geometry":{"type":"Polygon","coordinates":[[[-57.67685121499994,-15.135828636999946],[-57.822947628999906,-15.141667334999962],[-57.96078265799995,-15.221373363999966],[-58.103496577,-15.406289805],[-58.01828252899998,-15.35878401099998],[-57.895106804999955,-15.46704297299991],[-57.798885234999915,-15.656171248],[-57.79910369099996,-15.77365888599994],[-57.69689279099996,-15.599193922999941],[-57.71224750599997,-15.454502775999988],[-57.508047950999966,-15.510007005000013],[-57.67685121499994,-15.135828636999946]]]},"properties":{"CD_MUN":"5105234","NM_MUN":"Lambari D'Oeste","SIGLA":"MT","AREA_KM2":1810.547,"auxiliary_":null,"auxiliar_1":null,"REGIAO_MAR":"MT OESTE_RO","BASE_RC":null,"ALLCON_TOT":8}},
{"type":"Feature","geometry":{"type":"Polygon","coordinates":[[[-60.38306630399994,-13.992959031999916],[-60.48254204799994,-14.134869911999957],[-60.324099183,-14.602103316],[-60.272147966999974,-14.620292180000014],[-60.244321350999925,-15.096806048999909],[-60.56501893499997,-15.108683604999982],[-60.23860482699998,-15.473851596999975],[-60.171717137,-16.266106137999934],[-59.46918313299997,-16.27957994599992],[-59.47268534399994,-16.14739061099991],[-59.669245770999986,-16.16411202299993],[-59.824837519,-15.957221232999927],[-59.94189344199994,-15.947699324999984],[-60.048252843999904,-15.636804238999922],[-60.015924912999914,-15.561417114999951],[-59.48966552399996,-15.44128025299992],[-59.43240298499994,-15.22723230499997],[-59.57138523299996,-14.977513563999931],[-59.44679726899997,-14.959120293999959],[-59.584349661,-14.81981732099996],[-59.80442331299997,-14.555664367999963],[-60.00692167899999,-14.408632783999984],[-60.107113538,-14.429205604999904],[-60.31007813799995,-14.060875342999921],[-60.38306630399994,-13.992959031999916]]]},"properties":{"CD_MUN":"5105507","NM_MUN":"Vila Bela da Santíssima Trindade","SIGLA":"MT","AREA_KM2":13443.676,"auxiliary_":null,"auxiliar_1":null,"REGIAO_MAR":"MT OESTE_RO","BASE_RC":null,"ALLCON_TOT":10}},
{"type":"Feature","geometry":{"type":"Polygon","coordinates":[[[-57.895106804999955,-15.46704297299991],[-58.01828252899998,-15.35878401099998],[-58.158267328,-15.694882942999975],[-58.247240492999914,-15.708979195999948],[-58.13211471399999,-15.847346096999946],[-57.8898934379999,-15.750228122999985],[-57.99066111199995,-15.561703575999939],[-57.895106804999955,-15.46704297299991]]]},"properties":{"CD_MUN":"5105622","NM_MUN":"Mirassol d'Oeste","SIGLA":"MT","AREA_KM2":1085.486,"auxiliary_":null,"auxiliar_1":null,"REGIAO_MAR":"MT OESTE_RO","BASE_RC":null,"ALLCON_TOT":20}},
{"type":"Feature","geometry":{"type":"Polygon","coordinates":[[[-57.66877052099996,-9.717448818],[-57.72875238800001,-9.512671963999928],[-57.9350567449999,-9.46978446499994],[-58.07883101600002,-9.337744745999963],[-58.17034782999998,-9.144441327999928],[-58.38028214900001,-8.98959968599998],[-58.55048814099996,-8.940269084999972],[-58.65574204199994,-9.189417118999952],[-58.59983060099998,-9.334208895999971],[-58.42116690599994,-9.457440283999983],[-58.29471334399996,-9.445184349999955],[-58.195462671000016,-9.803257145999975],[-58.23026655099996,-9.997467066999963],[-58.323084379999926,-10.128122055999942],[-58.337653923999895,-10.409065589],[-58.07027263099995,-10.383868054999965],[-58.00154852999999,-10.432957317999989],[-57.683022639999955,-10.345598548999888],[-57.59959305399997,-10.24950587199994],[-57.598228532999954,-10.057335754999972],[-57.69358289900001,-9.858372120999945],[-57.66877052099996,-9.717448818]]]},"properties":{"CD_MUN":"5106158","NM_MUN":"Nova Bandeirantes","SIGLA":"MT","AREA_KM2":9556.661,"auxiliary_":null,"auxiliar_1":null,"REGIAO_MAR":"MT OESTE_RO","BASE_RC":null,"ALLCON_TOT":0}},
{"type":"Feature","geometry":{"type":"Polygon","coordinates":[[[-59.370670573,-13.98167947699994],[-59.53524329599997,-14.009666474999936],[-59.84169373199998,-14.172978774999976],[-59.96152344499991,-14.045951930999898],[-60.167367080999966,-14.012273507],[-60.31007813799995,-14.060875342999921],[-60.107113538,-14.429205604999904],[-60.00692167899999,-14.408632783999984],[-59.80442331299997,-14.555664367999963],[-59.584349661,-14.81981732099996],[-59.62822572599997,-14.498766972999952],[-59.542591038999966,-14.457610879999958],[-59.31181779599994,-14.510135682999934],[-59.41918165699997,-14.2445932379999],[-59.370670573,-13.98167947699994]]]},"properties":{"CD_MUN":"5106182","NM_MUN":"Nova Lacerda","SIGLA":"MT","AREA_KM2":4780.41,"auxiliary_":null,"auxiliar_1":null,"REGIAO_MAR":"MT OESTE_RO","BASE_RC":null,"ALLCON_TOT":8}},
{"type":"Feature","geometry":{"type":"Polygon","coordinates":[[[-59.08543033799997,-14.664745192999948],[-59.107707983,-14.661405661999947],[-59.203348203,-14.825794285999958],[-59.44679726899997,-14.959120293999959],[-59.57138523299996,-14.977513563999931],[-59.43240298499994,-15.22723230499997],[-59.48966552399996,-15.44128025299992],[-60.015924912999914,-15.561417114999951],[-60.048252843999904,-15.636804238999922],[-59.94189344199994,-15.947699324999984],[-59.824837519,-15.957221232999927],[-59.669245770999986,-16.16411202299993],[-59.47268534399994,-16.14739061099991],[-59.196896846,-15.764739740999953],[-59.08775278999993,-15.477651494999964],[-59.093140063,-15.46685668199995],[-59.197016672999965,-15.366814362999968],[-59.14894485999993,-15.22908175199996],[-59.01382748099994,-15.23273530599992],[-59.028562638000025,-14.72328890799993],[-59.08543033799997,-14.664745192999948]]]},"properties":{"CD_MUN":"5106752","NM_MUN":"Pontes e Lacerda","SIGLA":"MT","AREA_KM2":8545.292,"auxiliary_":null,"auxiliar_1":null,"REGIAO_MAR":"MT OESTE_RO","BASE_RC":null,"ALLCON_TOT":16}},
{"type":"Feature","geometry":{"type":"Polygon","coordinates":[[[-58.560444924,-15.692964957],[-58.71565374999996,-15.689368139999935],[-58.85674306099997,-15.60041991899995],[-59.08775278999993,-15.477651494999964],[-59.196896846,-15.764739740999953],[-59.47268534399994,-16.14739061099991],[-59.46918313299997,-16.27957994599992],[-58.786190935,-16.306883609999954],[-58.69482506699992,-16.032323602999963],[-58.39076184099998,-15.884807714999969],[-58.560444924,-15.692964957]]]},"properties":{"CD_MUN":"5106828","NM_MUN":"Porto Esperidião","SIGLA":"MT","AREA_KM2":5832.083,"auxiliary_":null,"auxiliar_1":null,"REGIAO_MAR":"MT OESTE_RO","BASE_RC":null,"ALLCON_TOT":0}},
{"type":"Feature","geometry":{"type":"Polygon","coordinates":[[[-58.103496577,-15.406289805],[-58.221059673999974,-15.350383138999977],[-58.28816285199993,-15.525384271999929],[-58.48427469499999,-15.514983779999945],[-58.58147929999993,-15.509828683],[-58.560444924,-15.692964957],[-58.247240492999914,-15.708979195999948],[-58.158267328,-15.694882942999975],[-58.01828252899998,-15.35878401099998],[-58.103496577,-15.406289805]]]},"properties":{"CD_MUN":"5107107","NM_MUN":"São José dos Quatro Marcos","SIGLA":"MT","AREA_KM2":1282.763,"auxiliary_":null,"auxiliar_1":null,"REGIAO_MAR":"MT OESTE_RO","BASE_RC":null,"ALLCON_TOT":0}},
{"type":"Feature","geometry":{"type":"Polygon","coordinates":[[[-58.297926878999924,-14.804214832999971],[-58.480132344,-14.683474423999918],[-58.61904779699991,-14.828076285999945],[-58.72227190599999,-15.000000155999924],[-58.509231574999916,-14.999900051999902],[-58.52152763299998,-15.099217973999899],[-58.27962101499999,-15.184251689999915],[-58.25827712299996,-15.15055038099998],[-58.34548533299994,-14.919511671999928],[-58.297926878999924,-14.804214832999971]]]},"properties":{"CD_MUN":"5107156","NM_MUN":"Reserva do Cabaçal","SIGLA":"MT","AREA_KM2":1331.677,"auxiliary_":null,"auxiliar_1":null,"REGIAO_MAR":"MT OESTE_RO","BASE_RC":null,"ALLCON_TOT":0}},
{"type":"Feature","geometry":{"type":"Polygon","coordinates":[[[-57.96078265799995,-15.221373363999966],[-58.25827712299996,-15.15055038099998],[-58.27962101499999,-15.184251689999915],[-58.221059673999974,-15.350383138999977],[-58.103496577,-15.406289805],[-57.96078265799995,-15.221373363999966]]]},"properties":{"CD_MUN":"5107206","NM_MUN":"Rio Branco","SIGLA":"MT","AREA_KM2":539.287,"auxiliary_":null,"auxiliar_1":null,"REGIAO_MAR":"MT OESTE_RO","BASE_RC":null,"ALLCON_TOT":0}},
{"type":"Feature","geometry":{"type":"Polygon","coordinates":[[[-60.404168085000016,-10.852547424999912],[-60.522396957999916,-10.671417846999951],[-60.52392303499998,-10.470678006999954],[-60.63735241699996,-10.293162289999955],[-60.61075230099996,-10.011233136999973],[-60.68147551899996,-9.73672378999991],[-60.64729049599997,-9.636561550999954],[-60.876826023,-9.772394934999937],[-61.037069953999904,-9.973468265999905],[-61.36411775700001,-10.038851535999935],[-61.54022951099993,-10.000209387999934],[-61.601236392999965,-10.150090131999931],[-61.46179283699997,-10.419904592999938],[-61.47961623499995,-10.787696522999966],[-61.55025787299994,-10.986094651],[-61.429002122999975,-10.987534212999925],[-61.000594913999976,-10.992239290999937],[-60.46005013199995,-10.989856219999936],[-60.404168085000016,-10.852547424999912]]]},"properties":{"CD_MUN":"5107578","NM_MUN":"Rondolândia","SIGLA":"MT","AREA_KM2":12658.341,"auxiliary_":null,"auxiliar_1":null,"REGIAO_MAR":"MT OESTE_RO","BASE_RC":null,"ALLCON_TOT":0}},
{"type":"Feature","geometry":{"type":"Polygon","coordinates":[[[-58.227968768,-14.769959072999903],[-58.297926878999924,-14.804214832999971],[-58.34548533299994,-14.919511671999928],[-58.25827712299996,-15.15055038099998],[-57.96078265799995,-15.221373363999966],[-57.822947628999906,-15.141667334999962],[-57.67685121499994,-15.135828636999946],[-57.73085092699992,-15.000151161999984],[-58.01767755199993,-15.000165508999928],[-58.227968768,-14.769959072999903]]]},"properties":{"CD_MUN":"5107750","NM_MUN":"Salto do Céu","SIGLA":"MT","AREA_KM2":1753.378,"auxiliary_":null,"auxiliar_1":null,"REGIAO_MAR":"MT OESTE_RO","BASE_RC":null,"ALLCON_TOT":0}},
{"type":"Feature","geometry":{"type":"Polygon","coordinates":[[[-58.292259844999904,-12.930367784999905],[-58.397613976999914,-12.798815142],[-58.44406407299998,-12.438271143999966],[-58.527697008,-12.275249621999915],[-58.44813356499998,-11.922239721999937],[-58.86917961299993,-12.213352362999927],[-58.846213825,-12.335513386999928],[-58.93113335899997,-12.641477221999917],[-58.91518408699998,-12.917257509999978],[-58.96002655599999,-13.126439148999989],[-59.03737159099995,-13.242858112999976],[-58.99828323699998,-13.444493470999905],[-59.03031032999994,-13.600135314999893],[-58.990599647,-13.800218399999906],[-59.04562122099996,-13.999961056],[-58.08406081699992,-13.999985796],[-58.23672418099994,-13.926293661999942],[-58.408139555999945,-13.557659349999938],[-58.28281872599998,-13.186851288999932],[-58.292259844999904,-12.930367784999905]]]},"properties":{"CD_MUN":"5107875","NM_MUN":"Sapezal","SIGLA":"MT","AREA_KM2":13614.552,"auxiliary_":-59.47835570883286,"auxiliar_1":-12.340748875369618,"REGIAO_MAR":"MT OESTE_RO","BASE_RC":null,"ALLCON_TOT":6}},
{"type":"Feature","geometry":{"type":"Polygon","coordinates":[[[-58.08406081699992,-13.999985796],[-59.04562122099996,-13.999961056],[-59.090588962999945,-14.276442540999899],[-59.0564795559999,-14.315754002999945],[-59.107707983,-14.661405661999947],[-59.08543033799997,-14.664745192999948],[-58.9625181599999,-14.585849139999905],[-58.756738576,-14.593749144999943],[-58.61904779699991,-14.828076285999945],[-58.480132344,-14.683474423999918],[-58.297926878999924,-14.804214832999971],[-58.227968768,-14.769959072999903],[-58.15414225399992,-14.715113325999916],[-57.747933474999975,-14.912746201999969],[-57.72434333499998,-14.785062702999916],[-57.16973915899992,-14.664515644999963],[-57.17448394900002,-14.54029975999994],[-57.503822777999964,-14.439815427999978],[-57.669066013,-14.556111638999933],[-57.734713051,-14.291604269999922],[-58.23203383699999,-14.385776023999917],[-58.112494576999936,-14.180396342999888],[-58.08406081699992,-13.999985796]]]},"properties":{"CD_MUN":"5107958","NM_MUN":"Tangará da Serra","SIGLA":"MT","AREA_KM2":11636.825,"auxiliary_":-58.506807534318526,"auxiliar_1":-14.518567920550232,"REGIAO_MAR":"MT OESTE_RO","BASE_RC":null,"ALLCON_TOT":18}},
{"type":"Feature","geometry":{"type":"Polygon","coordinates":[[[-58.756738576,-14.593749144999943],[-58.9625181599999,-14.585849139999905],[-59.08543033799997,-14.664745192999948],[-59.028562638000025,-14.72328890799993],[-59.01382748099994,-15.23273530599992],[-59.14894485999993,-15.22908175199996],[-59.197016672999965,-15.366814362999968],[-59.093140063,-15.46685668199995],[-59.01309867199995,-15.418333280999938],[-58.882979895999924,-15.157646641999953],[-58.854177362999955,-15.000071727999984],[-58.756738576,-14.593749144999943]]]},"properties":{"CD_MUN":"5108352","NM_MUN":"Vale de São Domingos","SIGLA":"MT","AREA_KM2":1901.545,"auxiliary_":null,"auxiliar_1":null,"REGIAO_MAR":"MT OESTE_RO","BASE_RC":null,"ALLCON_TOT":0}},
{"type":"Feature","geometry":{"type":"Polygon","coordinates":[[[-57.054450123999985,-9.529360081999947],[-57.16432296999996,-9.667899662999933],[-57.57240762599995,-9.767996662],[-57.66877052099996,-9.717448818],[-57.69358289900001,-9.858372120999945],[-57.598228532999954,-10.057335754999972],[-57.59959305399997,-10.24950587199994],[-57.15309304399991,-10.312266139000013],[-56.96362247400002,-10.284440010999916],[-56.94125330399997,-9.949255824999934],[-56.853036476999925,-9.815589958999968],[-56.94156201899993,-9.593779518999987],[-57.054450123999985,-9.529360081999947]]]},"properties":{"CD_MUN":"5108956","NM_MUN":"Nova Monte Verde","SIGLA":"MT","AREA_KM2":5139.307,"auxiliary_":null,"auxiliar_1":null,"REGIAO_MAR":"MT OESTE_RO","BASE_RC":null,"ALLCON_TOT":0}}
]}