{"type":"FeatureCollection", "features": [
{"type":"Feature","geometry":{"type":"Polygon","coordinates":[[[-51.488166575,-9.760580812999962],[-50.84598729499998,-9.800636807999972],[-50.224806381999905,-9.841153477],[-50.19906653299994,-9.761743180999947],[-50.150036088,-9.692778884999917],[-50.13775293899993,-9.624824195999935],[-50.089562276,-9.54569293899997],[-50.10533763599991,-9.475410491999945],[-50.052833516999954,-9.372673012999897],[-50.037784898999966,-9.289405381999902],[-49.905419886999894,-9.169744793999932],[-49.84258965199999,-9.027325947999962],[-49.767684100999986,-8.933688129],[-49.68435828399997,-8.856474922999933],[-49.59241132799994,-8.839491233999972],[-49.48980043499997,-8.692037352999957],[-49.45147181799997,-8.612496576999948],[-49.40988815999995,-8.580001947999936],[-49.39149739799993,-8.489778481999952],[-49.34940941900001,-8.418376483999932],[-49.28332405199997,-8.37955720899993],[-49.248660262999984,-8.255376361999964],[-49.21585399399994,-8.194211697999929],[-49.16277691799992,-7.900531240999928],[-49.16074007299997,-7.791368960999954],[-49.22116322599994,-7.761599218999979],[-49.335147342,-7.668678115],[-49.381577385,-7.569102906999934],[-49.37799741,-7.496445757999979],[-49.23393700699991,-7.328908591999959],[-49.18528417599994,-7.235171785999981],[-49.19527885299992,-7.026264682999948],[-49.20952811299994,-6.925420568999883],[-49.04377124099996,-6.815771421999948],[-49.018883518999985,-6.784210543],[-48.91385304299993,-6.757369459999971],[-48.82585525699998,-6.754654140999925],[-48.76909815799994,-6.730701561999958],[-48.65196044199999,-6.639951240999906],[-48.66454908199992,-6.567674152999956],[-48.60718501099994,-6.448011071999957],[-48.50021515,-6.350927585],[-48.37529739099999,-6.34674881199993],[-48.41712259599993,-6.298586625999967],[-48.436131987999985,-6.20137159899997],[-48.40827049199998,-6.15340224599997],[-48.32451621799996,-6.132719323999908],[-48.28804732,-6.097563684],[-48.334716312999966,-6.004274753999944],[-48.230125335999944,-5.922518408999942],[-48.29196984199992,-5.836837416000016],[-48.27571002799991,-5.726513364999924],[-48.175983124,-5.712295749999946],[-48.138151993999955,-5.602690142999975],[-48.19473531599991,-5.563093342999942],[-48.27868911699993,-5.54042327699996],[-48.32878699899992,-5.491043815],[-48.347240988999935,-5.435355506999926],[-48.39351038299996,-5.394212592999956],[-48.51390248199998,-5.429819624999915],[-48.59673339899999,-5.422544371999969],[-48.65048806599994,-5.384918221999918],[-48.75515073699994,-5.349165407999976],[-48.373738686999985,-5.052351043999934],[-47.816153021999966,-4.614728475999961],[-47.79256913099996,-4.586410790999956],[-47.682120281999936,-4.606381182999947],[-47.58356680999995,-4.522960067999954],[-47.44204929699995,-4.287425092999939],[-47.372512774,-4.244984031999941],[-47.35020358999994,-4.117820665999936],[-47.31867807,-4.047626457999925],[-47.195186926,-3.985612285999949],[-47.08520511699989,-3.856640015999929],[-47.03920621699994,-3.67281188099998],[-47.03561273099998,-3.573092093999946],[-46.96975937899996,-3.51250073300001],[-46.95632184599995,-3.425877741999948],[-46.883563716,-3.337417629999933],[-46.814861276999956,-3.311465858999938],[-46.76949127999991,-3.198553171999983],[-46.722630939999924,-3.159132009999915],[-46.647429620999965,-2.969811841999942],[-46.67337627499998,-2.893074140999957],[-46.59924995899997,-2.795906284999958],[-46.669613765999976,-2.734604875999977],[-46.622264787999974,-2.644941061999937],[-46.506848599,-2.61687401899998],[-46.47357238199998,-2.546581636999932],[-46.42993704899993,-2.536818499999924],[-46.44215298799993,-2.419411091999955],[-46.43306432999996,-2.300675259999934],[-46.28329692200001,-2.154390115],[-46.22270586599992,-1.910225205999936],[-46.21102742899998,-1.831059277999941],[-46.25891390799996,-1.794967040999978],[-46.31004982699995,-1.806273413999953],[-46.31188221799995,-1.733232530999956],[-46.221191089999905,-1.731278873999962],[-46.155322747999975,-1.675403441999954],[-46.13362724099998,-1.581818316999914],[-46.17613870799994,-1.477384850999961],[-46.114570377,-1.351941],[-46.16157730899994,-1.281888887999969],[-46.13304087599996,-1.210369274999984],[-46.098169366000015,-1.196059128999899],[-46.06340914299995,-1.10618872],[-46.09455209699995,-1.020627302000015],[-46.14129240599995,-1.058160045999976],[-46.21544544499995,-1.026318214999975],[-46.175744434,-0.942806930999978],[-46.20072300099995,-0.886860012999918],[-46.26483065799995,-0.913414639999885],[-46.26667957399999,-0.961282843999953],[-46.32396790300001,-1.02515697],[-46.42837650899995,-1.024125535999914],[-46.464831448,-0.99805312499997],[-46.49584713699994,-0.87219597199995],[-46.55680034499998,-0.918634839999882],[-46.576287145,-0.980580672999984],[-46.634769847,-0.896117158999985],[-46.59612619499997,-0.84194233399991],[-46.6652931909999,-0.791213813999967],[-46.71596016999999,-0.843842700999936],[-46.809443305999935,-0.860981345999932],[-46.83387765099997,-0.825919776999982],[-46.83602071300001,-0.746712526999943],[-46.942247187,-0.807470853999931],[-46.97029140699993,-0.767479489999943],[-47.06337802799993,-0.792287366999972],[-47.2047653299999,-0.649972684],[-47.31637774099992,-0.592182532999935],[-47.40335684999996,-0.655292112999959],[-47.42131559199995,-0.584760518999921],[-47.474353620999935,-0.592273331999898],[-47.46998788499994,-0.693753734999945],[-47.50153836299999,-0.709361747999942],[-47.531528587,-0.61635661699993],[-47.586579414,-0.638250782999933],[-47.70387838599996,-0.534575982999961],[-47.75425445599996,-0.543170029999956],[-47.83057987199994,-0.609563583999915],[-47.86994319300001,-0.561225574999966],[-47.91734856999998,-0.623237847999967],[-47.96462102199996,-0.642075799999958],[-47.98334693299992,-0.692604004999936],[-48.05138842699998,-0.659469944999955],[-48.15840449800001,-0.774212758999987],[-48.177798364,-0.821012702999951],[-48.22949170000001,-0.827816064999936],[-48.268463390999926,-0.902927530999925],[-48.36580127599996,-0.918925488999953],[-48.47471612899998,-0.873902095999895],[-48.506061894999974,-0.810437957999937],[-48.470594454,-0.614052335999965],[-48.473725543999905,-0.526713985999955],[-48.441105869999944,-0.412209474999919],[-48.388251861,-0.352690738],[-48.3746329319999,-0.303069959999966],[-48.428806725999976,-0.227166937999939],[-48.503671020999946,-0.242507272999909],[-48.63845825699997,-0.232276582999944],[-48.743727378999964,-0.249922361999971],[-48.810078419999954,-0.214765693999972],[-48.939565375000015,-0.225761857999949],[-49.01688844999994,-0.160232962999949],[-49.13673838799994,-0.168240781999934],[-49.196167599,-0.131353089999969],[-49.25594635499994,-0.159823897999942],[-49.32856747999993,-0.157829388999936],[-49.378747768,-0.191023666000021],[-49.422189244999984,-0.168446939999939],[-49.43165642099993,-0.088199850999935],[-49.35893682799996,-0.025911793999938],[-49.39700901999997,0.062159081000104],[-49.58258282400003,0.089664762000069],[-49.63222757399991,0.074893383000102],[-49.69957838499994,0.1505051],[-49.63328995399998,0.241352277999987],[-49.533978526999896,0.289204672000082],[-49.48862986299993,0.334195241],[-49.50317513600002,0.371678658000043],[-49.58192337,0.418674009000014],[-49.618127003999945,0.392054315000081],[-49.724753709,0.377647306000064],[-49.80778668199994,0.332050425999988],[-49.889214800999966,0.322500864000069],[-49.921892663999955,0.357559093],[-49.99290893399994,0.338415402000031],[-50.16781888499999,0.340290841000041],[-50.17273763299991,0.397642979000103],[-50.077434392,0.463443329],[-50.036412975999966,0.534178401],[-50.037306963999946,0.601878904000088],[-50.072639937999966,0.635791997000048],[-50.133489809999986,0.619619570000069],[-50.21351002899996,0.655974905000036],[-50.22608573899998,0.696237153000062],[-50.328587699999986,0.674348542000075],[-50.436546896999985,0.600107025000035],[-50.47620917999993,0.481499849],[-50.55295259499994,0.312495482],[-50.66819749599995,0.185034472000062],[-50.78479694299995,0.112112046000092],[-50.92109325099996,0.076133569000042],[-50.97483257399997,0.041793231000078],[-51.06892589599995,-0.079125743],[-51.216362859,-0.118612786000014],[-51.302481612,-0.252642651999984],[-51.34778282599994,-0.299613339999958],[-51.36250528899994,-0.368107913999935],[-51.423669526999944,-0.436611183999922],[-51.45778850199997,-0.513234042],[-51.59553615799999,-0.650437826999948],[-51.68344859699998,-0.794029418999962],[-51.6955894659999,-0.92471898799996],[-51.685646869999964,-1.012862288999955],[-51.700426963999945,-1.063210867999906],[-51.778399377999946,-1.140412274999974],[-51.88201264599998,-1.166347013999896],[-52.055064267999924,-1.176949976999936],[-52.120262265,-1.146197957999959],[-52.33298792299996,-1.115891486999985],[-52.358155553999914,-1.062584449999946],[-52.416791242999956,-1.025611804999969],[-52.43867906499997,-0.943611565999944],[-52.401206351,-0.881911644999938],[-52.44432213199996,-0.834168954999953],[-52.511074623999946,-0.856659085999972],[-52.518237746999944,-0.775519231],[-52.49740759099996,-0.711283057999928],[-52.53517981299993,-0.574087620999961],[-52.64000900999994,-0.584906082999979],[-52.69543632999991,-0.496401734999949],[-52.68417162,-0.314313678],[-52.76043982399996,-0.237574421999973],[-52.836098862999954,-0.186149221999941],[-52.85154313299991,-0.150160790999948],[-52.932743659000025,-0.142307300999938],[-52.98338313899997,0.033381189000039],[-53.01496674600001,0.059692122000094],[-53.05212713999998,0.157338874000104],[-53.0942925159999,0.195306961000021],[-53.09412684899996,0.258957700000053],[-53.17531054200002,0.381717180000102],[-53.16976894399998,0.493734766000067],[-53.147322053999986,0.60033457200003],[-53.10574358899995,0.679461516000082],[-53.146937924,0.699786160000073],[-53.190272645999954,0.768383531000033],[-53.411494202999975,0.929344151000095],[-53.42232938699995,1.03373743600001],[-53.45915764299997,1.133680416000033],[-53.402072182999945,1.153977414000046],[-53.426073298999924,1.225909517000048],[-53.52332751399997,1.261338928000058],[-53.59521809999991,1.358154077],[-53.78372215199995,1.402853872000023],[-53.88775118800002,1.40778730000001],[-53.89599808899989,1.455125780000039],[-54.02027406099991,1.515763146000054],[-54.069159992999985,1.500969424000104],[-54.14366370299996,1.640612046000051],[-54.200883417999904,1.645579256000076],[-54.351691834999926,1.754072683000047],[-54.495944360999914,1.746942630000028],[-54.60191710299995,1.78457343300002],[-54.64363969199992,1.768600021000069],[-54.744779071999986,1.775800778000075],[-54.73845994600001,1.824835634000038],[-54.77019830899998,1.925695657000084],[-54.755999689999975,1.974206881000065],[-54.803804886999984,2.025822781000066],[-54.80625429199996,2.13892772300003],[-54.76311087599994,2.202319066],[-54.811420255,2.266377951000059],[-54.79616637399991,2.31796514100008],[-54.87469640399995,2.415325410000015],[-54.935421746999964,2.518585440000045],[-54.95430669599994,2.583692423000045],[-55.00380588899995,2.591027046000022],[-55.103086404999964,2.525735947000065],[-55.17286581699993,2.559438748000034],[-55.23480613999993,2.503475258000023],[-55.320255599999975,2.515463302000093],[-55.38539872699994,2.418454303],[-55.499784518999924,2.443330757000112],[-55.570675222,2.423609593000045],[-55.74703661099997,2.410537626000092],[-55.76670449599989,2.455329631],[-55.83889506699997,2.462268569000017],[-55.934678164999966,2.533540095000077],[-55.978313874999955,2.527421939000035],[-55.98992197999994,2.417345502],[-56.05067952399995,2.33507068100009],[-56.09384010599997,2.321258864000114],[-56.13253912999998,2.263749738000023],[-56.04295807799994,2.227871797000027],[-55.90212193199992,2.029403770000066],[-55.93520599499995,1.996590044000115],[-55.90392998599995,1.888112847000073],[-55.99903856799992,1.831363713999984],[-56.09873138999994,1.846612046000068],[-56.152701361999945,1.890786157000015],[-56.234538689,1.898694158000097],[-56.335013921,1.937183615999984],[-56.41189716799994,1.928347],[-56.43709692599998,1.951786728000066],[-56.57984313599995,1.90596065900003],[-56.62153642899998,1.945958301000097],[-56.673543218,1.912765796000073],[-56.716428794,1.926072101000059],[-56.80151756999996,1.87415509],[-56.893568250999955,1.899404659],[-56.919795062999974,1.930438006999985],[-57.00079115899996,1.907369782],[-57.064019234999925,1.95604233600001],[-57.08676531499998,2.026519274000051],[-57.25295792399996,1.948516133000084],[-57.27732002799996,1.983071518000074],[-57.34570927399993,1.980344837000061],[-57.36498866099994,1.926147687],[-57.433520764,1.90604825],[-57.45098813000002,1.806435274],[-57.497040260999924,1.773493122],[-57.53427051599991,1.708255218000012],[-57.65051503599993,1.68243600200006],[-57.71973910099996,1.722938567000071],[-57.792353517999935,1.726710251000036],[-57.81959831899998,1.683909392000018],[-57.98112795399996,1.65941024900004],[-57.978656715999946,1.572841250000096],[-58.00560026799994,1.516835488000048],[-58.06102596299995,1.525401756000058],[-58.12952470399992,1.498953837000045],[-58.16074335599996,1.560173809000034],[-58.23327324699996,1.547470669000042],[-58.33247670399999,1.590733379],[-58.38963973999995,1.535434098000046],[-58.38568980399998,1.470043879000066],[-58.50522200099989,1.464901510000018],[-58.50521703399993,1.403219189000055],[-58.47163611299992,1.374209752000105],[-58.49632722599998,1.268015326000111],[-58.710496902999964,1.289948661000068],[-58.71632971599993,1.241020834999986],[-58.82133228099999,1.171048779000067],[-58.89549808199998,1.228781424],[-58.895563769,0.592219265000033],[-58.895500267999985,0.000920342000072],[-58.86388394599999,-0.07802978499992],[-58.88103801399993,-0.196579359999888],[-58.86947930499994,-0.347483569999923],[-58.783479095999986,-0.388968039999909],[-58.72528236499994,-0.438319143999927],[-58.70901073399992,-0.545864285999947],[-58.7363255729999,-0.619351567999935],[-58.706518682999956,-0.679645564999959],[-58.43418876199992,-0.892182778999967],[-58.45197516899995,-0.924086802999966],[-58.410587568999986,-0.98222662300001],[-58.42837397499993,-1.024609427999984],[-58.363727228,-1.071119941999896],[-58.316720295999964,-1.147675086999961],[-58.257595152999926,-1.130771569999972],[-58.16304378799997,-1.230139340999919],[-58.05867080799995,-1.106539767],[-58.01733207099994,-1.103608486999939],[-57.968810362999896,-1.16257550299995],[-57.99871498100002,-1.331286457999923],[-57.95650891299992,-1.378304672999917],[-57.824723366999926,-1.437753903999948],[-57.79533181799998,-1.487236760999942],[-57.717687311999924,-1.503283038999967],[-57.68880883299998,-1.587005053999988],[-57.544074392,-1.611134347999915],[-57.47307535600001,-1.678880439999958],[-57.4434639209999,-1.66461829699994],[-57.35338358899995,-1.736807107999958],[-57.29225503199997,-1.708283569999978],[-57.17112178500001,-1.750873350999932],[-57.0792823579999,-1.802570767999931],[-57.02841518899994,-1.918023782999931],[-56.859044530999924,-2.015925977999942],[-56.74788357499995,-2.011502268999941],[-56.72138219799996,-2.059174440999954],[-56.769429692999935,-2.140672904999938],[-56.76095896699992,-2.174058191000015],[-56.67907275899992,-2.212564246999946],[-56.612913187999965,-2.210171271000014],[-56.527065318,-2.139195178999969],[-56.41388279499992,-2.175949603999925],[-56.36778501199997,-2.137076696999927],[-56.18670342199998,-2.042821329999938],[-56.09755803799993,-2.03713324499995],[-56.20376967799993,-2.183080194999981],[-56.38431574000002,-2.270475354999988],[-56.46448629,-2.431594809999957],[-56.40210718599994,-2.456516762999925],[-56.60976442099994,-2.896340701999961],[-56.88723901199994,-3.499046654999965],[-57.000489119999926,-3.759129586],[-57.35020081499995,-4.501781466999915],[-57.585573257999926,-5.000743090999968],[-57.77181454899997,-5.407094069999957],[-58.033639006999955,-5.9781378019999],[-58.26672285899994,-6.475560521999988],[-58.32705618299993,-6.500374037999954],[-58.34988662099995,-6.562401062999932],[-58.42730575499992,-6.616167480999962],[-58.478471186999954,-6.6996136409999],[-58.48175560999992,-6.781421650999917],[-58.434555931999924,-6.908806512999952],[-58.38024981099991,-6.970504040000023],[-58.33542211699998,-6.986372607999911],[-58.28825516699993,-7.061673977999892],[-58.2399204719999,-7.095510879999942],[-58.18099582400002,-7.181736708999917],[-58.170009915,-7.313223229999952],[-58.06136156699992,-7.395191152999967],[-57.952056176,-7.580144167999912],[-57.934387275999924,-7.656772447],[-57.896749021999945,-7.677884549999945],[-57.87964228999993,-7.781907446999945],[-57.83502345699995,-7.881408336999893],[-57.83186459899998,-7.961515910999903],[-57.77652864799993,-8.052175299999895],[-57.73252898499994,-8.0891632949999],[-57.71874956199998,-8.15122530599993],[-57.64166889599995,-8.21988153299996],[-57.680222472,-8.326940689999915],[-57.68655768999997,-8.407007846999957],[-57.63342204099999,-8.526810894999901],[-57.622586098999946,-8.645009004000013],[-57.592938920999984,-8.75647697199998],[-57.523002482,-8.749733697999904],[-57.417504258999955,-8.792608507],[-57.416215742999924,-8.858995121],[-57.31788829099999,-8.885712286999912],[-57.289478916999954,-8.915827554999964],[-57.20377417500002,-8.920819818999934],[-57.09460518599993,-9.017111416],[-57.039241594,-9.098290013999897],[-57.06013231099993,-9.181967294999946],[-56.995549344999944,-9.233842562999914],[-56.820108799999964,-9.246340380999971],[-56.77552144699993,-9.329527447999961],[-56.77232361899993,-9.390959299999988],[-56.67188268199992,-9.367396943999982],[-55.89221360799998,-9.432214658999936],[-55.37789562999997,-9.474291551],[-54.613454077,-9.53582622599992],[-54.10661549299995,-9.57192072199998],[-53.58844280299994,-9.6110503049999],[-52.92128604199996,-9.660874159999953],[-52.35955310199991,-9.700387593999924],[-51.488166575,-9.760580812999962]]]},"properties":{"CD_MUN":"1500107","NM_MUN":"Abaetetuba","SIGLA":"PA","AREA_KM2":1610.654,"auxiliary_":null,"auxiliar_1":null,"REGIAO_MAR":"PA","BASE_RC":null,"ALLCON_TOT":0}}
]}