{"type":"FeatureCollection", "features": [
{"type":"Feature","geometry":{"type":"Polygon","coordinates":[[[-53.429054319999935,-26.281459446999968],[-53.37607191399993,-26.24161401999997],[-53.304447197999956,-26.25844403],[-53.093227956999925,-26.392022132],[-52.99349068699996,-26.34768410399998],[-52.68018652199997,-26.352731071999948],[-52.595832175999945,-26.41606244499993],[-52.52422930599991,-26.399180188999928],[-52.22981180499994,-26.467043112999953],[-52.111632525999966,-26.474963365999983],[-52.008767537999944,-26.566560600999942],[-51.900291732000014,-26.579283590999978],[-51.73763583299993,-26.5729932589999],[-51.49542970799993,-26.587416215],[-51.435346004999985,-26.688178096999913],[-51.236140918999965,-26.624671728999928],[-51.22806084099995,-26.554576960999974],[-51.292876399,-26.434120706999984],[-51.24795121399998,-26.329866405999937],[-51.148403,-26.278774581999954],[-51.001074852999935,-26.230344358999922],[-50.97130742799989,-26.261335563999978],[-50.846873018999986,-26.266383147999903],[-50.70399393699995,-26.18853779299993],[-50.62576960699998,-26.062133892999974],[-50.460891280999945,-26.02634771299993],[-50.37168707399992,-26.07919170199994],[-50.255185051,-26.038421847999928],[-50.18315134700002,-26.07779397399993],[-50.01094001499997,-26.013328243999965],[-49.869439420999946,-26.033469716],[-49.824179894999986,-26.093927095999945],[-49.67283968999993,-26.18978594299991],[-49.549846063999965,-26.233373237999977],[-49.45236293099999,-26.16195787499992],[-49.300247258,-26.111285843999944],[-49.23708218799991,-26.03036945999998],[-49.167502139,-26.000701208999963],[-49.020160938999894,-26.01574738100002],[-48.96047839600001,-25.980799830999914],[-48.59527342099998,-25.975739656],[-48.531791172999945,-25.813911859999962],[-48.424970424,-25.63455797499993],[-48.31992624299996,-25.586562592999904],[-48.27691117499999,-25.514051209999934],[-48.21399974199993,-25.472975028999976],[-48.162296586,-25.374969992999986],[-48.08310915499991,-25.28199715999998],[-48.18252033599998,-25.204998797],[-48.158501976,-25.149906868],[-48.21605429100002,-25.076671558999983],[-48.35122777799994,-25.036489392999925],[-48.41186815799993,-24.98039962599995],[-48.474049300999965,-25.012552387999918],[-48.530221544999925,-25.10081974999997],[-48.60083133199994,-25.01050566599995],[-48.56737089999996,-24.972266872999924],[-48.55575397899996,-24.806203797999927],[-48.50189683299996,-24.745975735999934],[-48.616619715999946,-24.668673217999938],[-48.77712193299992,-24.69568792099995],[-48.84040088499992,-24.66497680699998],[-48.962202069999904,-24.67416858899997],[-49.01030569499991,-24.654371073999982],[-49.11159463699992,-24.68835230699998],[-49.185650879,-24.67275034999995],[-49.2781319549999,-24.69302152799996],[-49.312015434999985,-24.663532669999952],[-49.315989362999986,-24.55550887799994],[-49.279905464,-24.535925314999893],[-49.201111832,-24.345106568999917],[-49.28690029699993,-24.30259934399995],[-49.35067723099992,-24.220800878999924],[-49.33656625699997,-24.137581852999958],[-49.40870824999994,-24.106892437999917],[-49.60761992100002,-23.840622311999894],[-49.560068939,-23.81193071599995],[-49.549199189,-23.70401638899994],[-49.620958322,-23.611113666999962],[-49.62421705999997,-23.52330259499992],[-49.59541211499989,-23.36709144599999],[-49.67770799099995,-23.174942583999915],[-49.833658578,-23.065942941999893],[-49.91160219800001,-23.051118640999988],[-49.98616492499998,-22.89750476299993],[-50.185082124,-22.95400408899996],[-50.275569045999916,-22.931603236999955],[-50.34018660000001,-22.948072941999932],[-50.511019185999935,-22.94463884399992],[-50.66354613699994,-22.895669203999937],[-50.70983876999995,-22.95344219799992],[-50.80614622999999,-22.940299332999956],[-50.79781705699997,-22.888552351999948],[-50.895333389999934,-22.794300161999956],[-51.00554855799999,-22.79382142599996],[-51.22833595899989,-22.716017184999924],[-51.26519985600002,-22.667697404999974],[-51.45309608499994,-22.65575053399994],[-51.5595691579999,-22.697179343999938],[-51.615842201999946,-22.662593439],[-51.725867377,-22.661464846999966],[-51.77162057999995,-22.614126909999985],[-51.87366298999996,-22.628216230999918],[-51.940512627,-22.567342751],[-52.127602243999966,-22.519923031],[-52.156677981999984,-22.64471893199996],[-52.222577221999984,-22.67553535799994],[-52.30043558899997,-22.635444961999927],[-52.4330458389999,-22.60716648099997],[-52.49882355599997,-22.63422997199994],[-52.589344441999955,-22.566096591999916],[-52.69710537899989,-22.627006571999928],[-52.858362803,-22.608001008],[-52.97242498299994,-22.570484294999957],[-53.05579790199994,-22.632622733999916],[-53.10625966199993,-22.622600159999937],[-53.18536640199991,-22.718733736999983],[-53.329086417999974,-22.765210665999955],[-53.54682708899993,-22.890096269999972],[-53.607423502999936,-22.951333467999966],[-53.63658872899998,-23.125030774999956],[-53.72522090599993,-23.310433403999973],[-53.77596139999998,-23.37533795699992],[-53.98737853599995,-23.466614869999937],[-54.054927144,-23.73060250899993],[-54.101764987999985,-23.951963547999945],[-54.33422697599994,-24.116376321],[-54.32257294199998,-24.25165747599994],[-54.27744086299999,-24.291444700999918],[-54.262768394999945,-24.378134091999968],[-54.3265126269999,-24.465174694999945],[-54.31881754399994,-24.60693964],[-54.334336289999925,-24.701101192999943],[-54.389927780999976,-24.777283207999957],[-54.46309489599994,-25.05498644799996],[-54.424885820999975,-25.153265568999892],[-54.491234172999924,-25.277966263999886],[-54.619093145999926,-25.45069732099995],[-54.59351805599992,-25.59224623499997],[-54.552886695,-25.58815290899995],[-54.42529618,-25.65890491600001],[-54.38882305299997,-25.599945833999946],[-54.25790978199993,-25.593587378999914],[-54.19710958599994,-25.53505254399996],[-54.02874939499995,-25.56653442499993],[-53.86249231899997,-25.658608512999912],[-53.82186264999993,-25.799293611999964],[-53.84916697599992,-25.835129890999973],[-53.819008063,-25.976371657999984],[-53.73785913699997,-26.041242238999963],[-53.740598303999946,-26.117782629999965],[-53.64116912499998,-26.21553449099997],[-53.63680490799993,-26.25456166499994],[-53.495834712,-26.30279886399999],[-53.429054319999935,-26.281459446999968]]]},"properties":{"CD_MUN":"4100103","NM_MUN":"Abatiá","SIGLA":"PR","AREA_KM2":228.717,"auxiliary_":null,"auxiliar_1":null,"REGIAO_MAR":"PR","BASE_RC":null,"ALLCON_TOT":30}}
]}