{"type":"FeatureCollection", "features": [
{"type":"Feature","geometry":{"type":"Polygon","coordinates":[[[-60.0418282319999,0.252979112000013],[-60.037968645999946,0.263545517000047],[-58.89546481899998,0.263510276000062],[-58.89549794199997,1.227693838000071],[-58.91854937199998,1.316578461000034],[-59.04855476699994,1.322686028],[-59.253279998,1.388247822000061],[-59.33966768799996,1.518248711000098],[-59.37300356899995,1.506296172000035],[-59.483004771999965,1.626577625000039],[-59.533554109,1.716296464000017],[-59.69022250299993,1.75629858300001],[-59.746056598999985,1.851855499000038],[-59.74032505999995,2.180028612000079],[-59.72075417999997,2.236553330000071],[-59.89890416299996,2.362882339000052],[-59.897612227999915,2.482251680000083],[-59.988375613999985,2.679823455000054],[-59.98440123299994,2.928834412000064],[-59.907898456999945,3.113274954000062],[-59.91227293699996,3.195519859000079],[-59.806428546999975,3.353944894000044],[-59.841364383,3.425226690000066],[-59.805160991,3.50980284900006],[-59.86887866699996,3.558992054],[-59.668307076999945,3.70361204400011],[-59.664584191999936,3.782284108000091],[-59.595646681,3.795503190000055],[-59.56544766699993,3.916313089],[-59.51615887400001,3.946170905000059],[-59.65405059199995,4.069243693],[-59.623092798999906,4.129417195],[-59.73115278799998,4.181063328000029],[-59.73189602900001,4.286468797000026],[-59.676159864999896,4.346928120000051],[-59.73587526099992,4.423748827000068],[-59.975096115,4.488564007000079],[-60.16149611499994,4.517764007000075],[-60.12289611499996,4.604964007],[-60.025859752,4.705652471000072],[-60.017796114999925,4.83656400700005],[-59.971977738,5.074879048000049],[-60.09578260599994,5.140726822000055],[-60.132730069999965,5.224893784000031],[-60.212453524,5.271841077000019],[-60.32828613799996,5.20545399700007],[-60.449675508999974,5.200177465000024],[-60.69717718699998,5.228783738000104],[-60.64495963399993,5.058512740000012],[-60.58412419999996,4.955732021000117],[-60.72087944399993,4.777383889],[-60.89940416699992,4.718194167000028],[-60.947579,4.655541],[-60.933704,4.584959],[-60.997879721999944,4.515604722000027],[-61.12564055599991,4.505666944000048],[-61.26704204,4.537648757000085],[-61.35162296499993,4.418786706000013],[-61.44828950599994,4.439065902000067],[-61.521067497999944,4.38406749300006],[-61.56190137100001,4.251015007000042],[-61.75050987199999,4.255179362999989],[-61.81885057599993,4.167672820000092],[-61.99329432899995,4.174899417000105],[-62.14802148899993,4.079066973000103],[-62.43774064099991,4.182951960000061],[-62.542466683,4.109339416000104],[-62.53301784599998,4.047397558000071],[-62.736074256999984,4.039896672000012],[-62.786630762999906,3.929344587000067],[-62.73134946599994,3.709899807000063],[-62.81023829699991,3.732676090000048],[-62.986071951,3.609900091000057],[-63.07302308899995,3.685455863000037],[-63.123300161999936,3.8046204],[-63.20441491999997,3.811561087000065],[-63.20524784899996,3.948790240000072],[-63.39329716699994,3.980449490000062],[-63.450800548999915,3.858510829000075],[-63.51108074499996,3.847122149000043],[-63.68552272299992,4.009062848000013],[-63.700527616999935,3.944340563000054],[-63.85024750799994,3.949901168000061],[-63.96858367799993,3.878505126000093],[-64.03569645199998,3.93426118],[-64.10886425699991,4.085456561000051],[-64.17191393399995,4.128788995000079],[-64.43163723299998,4.134623827000041],[-64.56050439599991,4.10156680300004],[-64.62358436799997,4.134895417000045],[-64.68469858799992,4.239341280000048],[-64.78053028399995,4.28656454100004],[-64.81052731599989,4.174616635000064],[-64.732192202,4.120175665],[-64.67386670799995,4.004621635000078],[-64.58025139099989,3.928294858000072],[-64.47858257299998,3.783229975000019],[-64.28914039899995,3.699621976000103],[-64.19625088899991,3.578896074000099],[-64.14860179099995,3.439913292000035],[-64.12171692600002,3.278652452000088],[-64.21387659199998,3.090481691],[-64.14457777799997,3.025730278000033],[-64.01469323999997,2.812169947000015],[-63.986153590999905,2.648668703000062],[-64.04770295499998,2.518392080000034],[-63.93437361099991,2.45726055600008],[-63.83424120599994,2.492280879],[-63.75044896699997,2.441799225000047],[-63.60358152399989,2.457165076],[-63.52002568199994,2.421866601000069],[-63.371911778999944,2.426379648],[-63.359791172,2.197101555000053],[-63.2763514279999,2.154389691000027],[-63.14633944199991,2.173258556000093],[-63.119832302999974,2.096452488000047],[-63.02377614999994,2.014679362999985],[-62.838571475999956,2.016386356000091],[-62.72958383499996,1.960549351000068],[-62.70417908499992,1.873946797],[-62.72860678899994,1.69999999900007],[-62.80528233300002,1.591345664000116],[-62.730800502,1.499632021000025],[-62.63996476799997,1.438238306000045],[-62.521087891999926,1.083815878000074],[-62.44273541599991,0.958533913000039],[-62.484685620999976,0.87602027300008],[-62.46302607899993,0.77686878300009],[-62.53829053099997,0.675195542000075],[-62.53300861699992,0.508808359000085],[-62.446371344999925,0.379113798000077],[-62.45274362599994,0.207414178],[-62.40926436399994,0.075072759000022],[-62.325902798999984,-0.002913771999907],[-62.31979482899989,-0.096341225999957],[-62.241563958,-0.170467334999955],[-62.253388986999894,-0.270002055999946],[-62.18862313399997,-0.322319165999971],[-62.28041369699994,-0.450705732999928],[-62.31232172899992,-0.57593848499998],[-62.286717121999956,-0.632372981999971],[-62.37542926799995,-0.708326483999905],[-62.486627284999955,-0.681467307999966],[-62.501073155,-0.781466097],[-62.37606719099997,-0.836469324999953],[-62.31274227199998,-0.9303550079999],[-62.17190746299998,-1.005912381000016],[-62.099681538,-1.096743305999986],[-62.017460275,-1.141743980999941],[-61.8966239069999,-1.395355256999906],[-61.79800942799993,-1.380629962999933],[-61.604954677999956,-1.448131455999899],[-61.58217522499997,-1.353407253999933],[-61.62690314000001,-1.293970042999923],[-61.542864184999964,-1.062203851999897],[-61.58078245800002,-0.977976097999949],[-61.53563234899997,-0.754401249999908],[-61.45813443399996,-0.654726739999987],[-61.359527376999985,-0.596924368999971],[-61.23404525499991,-0.561939709999898],[-61.22309977399995,-0.499885408999972],[-61.079049426,-0.506139727999916],[-60.927669513999945,-0.605523915999889],[-60.806194219999924,-0.740085386999972],[-60.76090973499994,-0.863515336999981],[-60.663499839999986,-0.881201965999928],[-60.49782727999997,-0.780650945999959],[-60.346691686999975,-0.739609006],[-60.30535295099996,-0.666465475999942],[-60.379821312999944,-0.588874495999967],[-60.40009977100002,-0.517487881999976],[-60.346496231999964,-0.437940460999947],[-60.30496204099995,-0.260324081999968],[-60.20421719399992,-0.02992015699995],[-60.14001022099997,0.027103842000059],[-60.13360906899996,0.103477835000056],[-60.05908292,0.162996894000095],[-60.0418282319999,0.252979112000013]]]},"properties":{"CD_MUN":"1400027","NM_MUN":"Amajari","SIGLA":"RR","AREA_KM2":28473.45,"auxiliary_":null,"auxiliar_1":null,"REGIAO_MAR":"RR","BASE_RC":null,"ALLCON_TOT":0}}
]}