{"type":"FeatureCollection", "features": [
{"type":"Feature","geometry":{"type":"Polygon","coordinates":[[[-53.99496545100001,-29.58083915699993],[-53.859177289999955,-29.61063667899998],[-53.84094311199991,-29.5637419559999],[-53.77227262999995,-29.525732400999928],[-53.73954867799996,-29.493146684999928],[-53.68715460799997,-29.575897721999986],[-53.63039457199996,-29.601334934999954],[-53.65003664499996,-29.622821308999967],[-53.586084422999946,-29.694702371999924],[-53.546565986,-29.702710260999922],[-53.367880344999925,-29.634910317999953],[-53.35536939899994,-29.66821890899999],[-53.28234397099989,-29.689766336999988],[-53.266400869999956,-29.729488612999923],[-53.28963696899997,-29.78572605199995],[-53.196249076999905,-29.831027602999924],[-53.16131744199996,-29.81288557899996],[-53.1001578889999,-29.841083023999957],[-52.99921488199992,-29.808549490999923],[-52.96416127799992,-29.83406991399994],[-52.89294242299995,-29.84809807699996],[-52.85141715399996,-29.910527961999968],[-52.818361857999925,-29.9230491],[-52.75461019699998,-29.885558755],[-52.740966934,-29.804324182999906],[-52.66079201900002,-29.800614718999938],[-52.59693134899994,-29.785732557999957],[-52.50980980799993,-29.872867554999928],[-52.46897201199998,-29.885383513999976],[-52.39984778599995,-29.839984504999926],[-52.31414969299994,-29.83549975999994],[-52.3063645079999,-29.87248711799998],[-52.21272213399992,-29.84135756499994],[-52.186695669999956,-29.852681497999946],[-52.195414828999915,-29.913712652999948],[-52.03307787099993,-29.95726073299997],[-51.96610364399998,-29.93781026399992],[-51.86813373399996,-29.960041302],[-51.75003435099994,-29.95979267099994],[-51.72810093499997,-29.946134642],[-51.75028262099996,-29.888401116999987],[-51.71617864099993,-29.85805947499994],[-51.75833983599995,-29.81878817299993],[-51.75769560199994,-29.792065796999943],[-51.71874381699999,-29.74283963299996],[-51.72422569799997,-29.715742829],[-51.67951418699996,-29.655283146999935],[-51.64189057899995,-29.635771499999976],[-51.56590168599992,-29.736578068999954],[-51.58652819599993,-29.77601645799993],[-51.52212666699995,-29.78100192199996],[-51.49223505699993,-29.823189514999946],[-51.353573257999955,-29.843896642999965],[-51.36763185899993,-29.88921226399995],[-51.31032469999994,-29.93154909999994],[-51.24180813399992,-29.933826053999958],[-51.20090170099998,-29.97149286],[-51.12552765199993,-29.954284920999953],[-51.086475631999946,-29.970939618999957],[-51.01685940099998,-29.957812570999977],[-50.94872363399993,-29.96068016699992],[-50.92531184599995,-29.995619973999922],[-50.868708289,-30.015567984999926],[-50.82762205899993,-29.999826007999943],[-50.71785362699998,-29.9789340149999],[-50.70048793299995,-30.03399863799997],[-50.657218794999906,-30.041314116999963],[-50.45656829899993,-30.05171883699994],[-50.459533871,-30.016759695999937],[-50.39915082199997,-29.97172501399993],[-50.372476440999954,-29.85826873299994],[-50.27616765899998,-29.83478057099994],[-50.253563222999915,-29.801701947999923],[-50.255913924,-29.75711749799995],[-50.223343297,-29.72593662799993],[-50.185739007999985,-29.7440475989999],[-50.173212049,-29.79395811699993],[-50.11142467099995,-29.78612549799996],[-50.11115900899991,-29.833812239999936],[-50.063659634999986,-29.860048102999905],[-50.000453906,-29.740025364],[-49.90728872999998,-29.584646362999898],[-49.83274391699999,-29.48133824599998],[-49.71580401199997,-29.332401161999897],[-49.762338424,-29.300263156],[-49.81573178599998,-29.285871581],[-49.86952984299997,-29.224379686],[-49.96273414999994,-29.19885462199995],[-50.00993221999998,-29.225409539999937],[-50.1154826929999,-29.262280447999935],[-50.15185891999991,-29.243222570999947],[-50.14561579,-29.197823695999915],[-50.10776517099995,-29.211039128000017],[-50.017972651,-29.16283450799991],[-49.95615513499995,-29.08492497399996],[-49.965991120999945,-29.021746293],[-49.933656698999954,-28.96582163999991],[-49.96508649599997,-28.925527875999947],[-49.949595985000016,-28.897967192999964],[-49.96212027399995,-28.853548223999915],[-49.961332851,-28.772180407999905],[-49.8693777139999,-28.701015189999936],[-49.83917666199994,-28.666541771999974],[-49.778903928,-28.62948024599993],[-49.691391422999956,-28.621372564999938],[-49.746720107999934,-28.53539113199993],[-49.74826153799994,-28.493972534999976],[-49.83934334699997,-28.496487080999934],[-49.970772884,-28.440210695999966],[-50.02717695699996,-28.474274123999933],[-50.0971770849999,-28.484380352],[-50.14727806599996,-28.44952652699991],[-50.24241076399997,-28.432025671999973],[-50.27291334499992,-28.45707190400001],[-50.36839862199997,-28.42122839499993],[-50.428780565,-28.433541037999944],[-50.531593952000016,-28.407810637999965],[-50.665230632999965,-28.33792459699996],[-50.69536350699997,-28.270543156999985],[-50.75387610499995,-28.244617067999975],[-50.761195195999974,-28.195012064],[-50.79407608199997,-28.13864042499997],[-50.858991032999974,-28.139705536],[-50.88967319399995,-28.02291542799994],[-50.923238425,-28.011987778999945],[-50.92396815799997,-27.97165455],[-50.99362881699997,-27.946006924999942],[-51.05596623099997,-27.90367043299998],[-51.054821411999924,-27.867128682999954],[-51.13460645699998,-27.803657081],[-51.274612732,-27.74847558199994],[-51.310178789999945,-27.713123711999955],[-51.315106043999954,-27.67507006699997],[-51.36011277799996,-27.678794281],[-51.38128862999995,-27.625496531999936],[-51.436606203999986,-27.629849705999966],[-51.47528263699998,-27.60074086399996],[-51.50190848799998,-27.556137377000013],[-51.58737177099992,-27.56317668099998],[-51.63113173599997,-27.541463129],[-51.6197768549999,-27.502097115999966],[-51.699649838999946,-27.47906420999989],[-51.75155196099992,-27.488105811999972],[-51.843627016999974,-27.483135866999895],[-51.902545838,-27.491377840999988],[-51.935776898999926,-27.42874908999996],[-51.99644085899992,-27.41024135599993],[-51.99670825000002,-27.378228868999933],[-52.04730166899998,-27.346600619999926],[-52.110732281,-27.33724693299996],[-52.12632850099992,-27.302523454],[-52.228377669999944,-27.327411442999917],[-52.26799112699993,-27.283248641999926],[-52.299774540999984,-27.319075855999984],[-52.352054210999924,-27.28888670599995],[-52.37755473299998,-27.303855572],[-52.47981490799997,-27.235542764999963],[-52.4793030819999,-27.26593775299998],[-52.58274354999994,-27.24668155099993],[-52.617889441999935,-27.265705868999888],[-52.676399499999974,-27.245735938999935],[-52.68613649399995,-27.28130465899993],[-52.76300029999989,-27.24918752199997],[-52.76052124699994,-27.213195748999972],[-52.817250501999986,-27.202522171999952],[-52.859976907999965,-27.170427346999894],[-52.97094031700002,-27.217627128],[-52.98514455799996,-27.170488133999946],[-53.02615257799996,-27.15862248999997],[-53.048213503999904,-27.083650393999967],[-53.07829215099994,-27.11130993099996],[-53.07123991399989,-27.156969742999912],[-53.18210244099994,-27.189322408],[-53.23208570299995,-27.171111659999937],[-53.32258175799993,-27.21150493199996],[-53.292936912999984,-27.14080889199991],[-53.38104061,-27.094114655999903],[-53.406214637999945,-27.13654420099992],[-53.45536999899993,-27.156893872999945],[-53.51824902399997,-27.202177815999974],[-53.556243855999966,-27.172645800999952],[-53.618231940000015,-27.18733644199999],[-53.686219066000014,-27.16360146399991],[-53.751589504999956,-27.188052607],[-53.776011676999964,-27.147487366999954],[-53.81484664699993,-27.175889806999955],[-53.87891133100002,-27.127548227999974],[-53.897746914,-27.170331124999926],[-53.94658453199998,-27.151259280999938],[-53.96016559999996,-27.195336289999936],[-54.008017287,-27.198394643999947],[-54.02777683099995,-27.254853685999926],[-54.1010469349999,-27.303262957999905],[-54.19333962799995,-27.30846019899996],[-54.21443616599994,-27.38157810899994],[-54.267510469999905,-27.404290442999958],[-54.26780770699999,-27.431353747999907],[-54.357214441999986,-27.464942675999957],[-54.398758387,-27.411612998999914],[-54.472056602999984,-27.434459500999928],[-54.44950627999995,-27.475424522999923],[-54.500599058999924,-27.480353243999964],[-54.524923550000025,-27.50617157699994],[-54.57335122800002,-27.453610098999945],[-54.615792062,-27.532240960999985],[-54.68011597699995,-27.52664102499992],[-54.680856256,-27.574501410999964],[-54.74486071,-27.562641351999915],[-54.78455259199998,-27.578694333999962],[-54.81714415599994,-27.53555958999995],[-54.839707499999975,-27.60522831799991],[-54.903167035,-27.63638768999993],[-54.90663861199991,-27.729786940999958],[-54.949424177,-27.779284550999925],[-54.977662155999965,-27.77086004699992],[-55.02431288699994,-27.794199785999986],[-55.057912294999966,-27.76808582899998],[-55.082710592999916,-27.79685831799995],[-55.02469414799995,-27.835310983999904],[-55.12627616399996,-27.859818425999947],[-55.202682697999904,-27.857859195999936],[-55.266461737999975,-27.929789545999974],[-55.32728202599994,-27.926738015],[-55.33998942100002,-27.966526114999958],[-55.38718644999997,-27.986189608999958],[-55.36939500899997,-28.027260536],[-55.41396790799997,-28.05464891799995],[-55.447922541999986,-28.097382193999962],[-55.48787845299998,-28.07645506199995],[-55.56416423599997,-28.163505421999936],[-55.61073030599994,-28.117455427999936],[-55.634230876999894,-28.177838153000025],[-55.69258004499994,-28.218790284999926],[-55.77124605699996,-28.241454536999967],[-55.74306282399989,-28.28145465899997],[-55.669150493,-28.340760535999955],[-55.690737755000015,-28.41329565199994],[-55.71970348499999,-28.41867913899995],[-55.75656674299998,-28.36943141899996],[-55.87108916199998,-28.357262483999932],[-55.900385865999986,-28.39834605899997],[-55.884006044999985,-28.479163056999965],[-55.98821518199994,-28.498115178],[-56.02323007699994,-28.52276498],[-56.00237091699995,-28.578298664999977],[-56.119150942999966,-28.68124749000002],[-56.19415553899991,-28.775197951999907],[-56.260931113999945,-28.779006809999927],[-56.2997423689999,-28.808113314],[-56.30005407799993,-28.8955608119999],[-56.311550563999916,-28.933006185999908],[-56.23180026499998,-28.937522231999914],[-56.17870998499994,-28.900991720999926],[-56.16681454099998,-28.86485296599993],[-56.081581331999985,-28.85668164],[-56.09701574599992,-28.91976051099997],[-56.26874302499998,-29.09515366299994],[-56.179775012999954,-29.133521006999942],[-56.171116845999975,-29.160784378999928],[-56.050843538999935,-29.14995200299991],[-55.91235961999993,-29.15638721699999],[-55.80888414399993,-29.127654415999928],[-55.730942617,-29.123460542999936],[-55.627172220999924,-29.093348461999966],[-55.57656116199993,-29.09436123399992],[-55.53236094699996,-29.0719944969999],[-55.477096439999954,-29.170684976999937],[-55.48037406799999,-29.19855014799998],[-55.44329557499996,-29.22754383999996],[-55.420623775999914,-29.27051054299993],[-55.41645836599997,-29.32175423499995],[-55.45916519199993,-29.325257952999948],[-55.33323615599991,-29.51001595299992],[-55.36706780799997,-29.555413574999946],[-55.37812663799998,-29.61487244199997],[-55.326265972999984,-29.642214457999984],[-55.27526502399997,-29.617260099],[-55.243462114,-29.620311332999947],[-55.195888626999974,-29.665915909999953],[-55.191654216,-29.696745272999934],[-55.1261594769999,-29.69769473199998],[-55.12173941899994,-29.76696123699997],[-55.055559987000024,-29.767132749999945],[-55.04137691099997,-29.78465485199996],[-54.958085067999924,-29.77778788799995],[-54.88142920699996,-29.806812246999982],[-54.832120926999934,-29.8558906289999],[-54.79005968099992,-29.83011895199997],[-54.70506877399998,-29.82969112300001],[-54.67570223199998,-29.807920082999985],[-54.599861994,-29.82120425599991],[-54.49012308999991,-29.736729798999896],[-54.44094495,-29.747062928999988],[-54.340531139999925,-29.727393850999974],[-54.31052578699999,-29.737822592999983],[-54.25163359099996,-29.693362710000017],[-54.14071084599989,-29.69290674199995],[-54.075579916999956,-29.63862315599993],[-53.99761356999992,-29.63593100499994],[-53.99496545100001,-29.58083915699993]]]},"properties":{"CD_MUN":"4300059","NM_MUN":"Água Santa","SIGLA":"RS","AREA_KM2":291.503,"auxiliary_":null,"auxiliar_1":null,"REGIAO_MAR":"RS NORTE","BASE_RC":null,"ALLCON_TOT":0}}
]}