{"type":"FeatureCollection", "features": [
{"type":"Feature","geometry":{"type":"Polygon","coordinates":[[[-52.792876447999966,-27.204738193],[-52.76052124699994,-27.213195748999972],[-52.76300029999989,-27.24918752199997],[-52.73919906899992,-27.254352484000023],[-52.71378115099996,-27.237688616999968],[-52.70724235099992,-27.270783638999916],[-52.68613649399995,-27.28130465899993],[-52.676399499999974,-27.245735938999935],[-52.655315906999896,-27.241505278000012],[-52.64489154599998,-27.26166791299992],[-52.617889441999935,-27.265705868999888],[-52.58274354999994,-27.24668155099993],[-52.54217577099995,-27.243827797999977],[-52.53600505299991,-27.260366899999923],[-52.4793030819999,-27.26593775299998],[-52.47981490799997,-27.235542764999963],[-52.447830438999986,-27.218187880999935],[-52.43104256699997,-27.22651274699995],[-52.439085314999915,-27.26440486299998],[-52.41560885499992,-27.285258139999925],[-52.39392958400002,-27.283469084999957],[-52.37755473299998,-27.303855572],[-52.352054210999924,-27.28888670599995],[-52.299774540999984,-27.319075855999984],[-52.29129905299993,-27.305240348],[-52.30609166599997,-27.265722993999887],[-52.25454354099998,-27.256358983999952],[-52.241772544999975,-27.27606552799996],[-52.26799112699993,-27.283248641999926],[-52.228377669999944,-27.327411442999917],[-52.203137337000015,-27.323029852999937],[-52.180101572999966,-27.2766390809999],[-52.15930545899995,-27.281563566999942],[-52.16128920299995,-27.314287756999946],[-52.12632850099992,-27.302523454],[-52.105686676999966,-27.313350257],[-52.110732281,-27.33724693299996],[-52.09180229999994,-27.347253278000018],[-52.0720148849999,-27.338409633999973],[-52.04730166899998,-27.346600619999926],[-52.019851753999916,-27.33194614799995],[-52.02288963199992,-27.362154318999963],[-51.99670825000002,-27.378228868999933],[-51.975169195,-27.372432476999954],[-51.950629888999984,-27.39451035999997],[-52.00058999499994,-27.39148919399993],[-51.99644085899992,-27.41024135599993],[-51.96877873599989,-27.41065150499994],[-51.935776898999926,-27.42874908999996],[-51.950822152999905,-27.475325010999953],[-51.918384505999896,-27.458434430999965],[-51.900486719999975,-27.464060401999966],[-51.902545838,-27.491377840999988],[-51.894790348999926,-27.51702121999996],[-51.87376611399996,-27.51327705899996],[-51.880448043999934,-27.492379264999975],[-51.859042773999974,-27.474995465999953],[-51.843627016999974,-27.483135866999895],[-51.85535114499997,-27.51827088299997],[-51.821785807999916,-27.51278919699992],[-51.80178812599998,-27.493962565999972],[-51.75155196099992,-27.488105811999972],[-51.71731531099992,-27.51143565899993],[-51.699649838999946,-27.47906420999989],[-51.673247815,-27.48804566799997],[-51.677501848,-27.50489296399993],[-51.647432696999935,-27.516331883999946],[-51.646222592,-27.497309684999983],[-51.6197768549999,-27.502097115999966],[-51.63113173599997,-27.541463129],[-51.608328084999954,-27.541371498999965],[-51.579971224,-27.52361756899996],[-51.58737177099992,-27.56317668099998],[-51.57170928899994,-27.582624109999955],[-51.554876048,-27.563991722999916],[-51.50190848799998,-27.556137377000013],[-51.48334176799995,-27.563227576000017],[-51.47528263699998,-27.60074086399996],[-51.45768402099995,-27.607113633000026],[-51.436606203999986,-27.629849705999966],[-51.43701400099998,-27.65206674299995],[-51.419153503999944,-27.654638584999937],[-51.40529083099993,-27.631861018999935],[-51.38128862999995,-27.625496531999936],[-51.369832252,-27.640477736999948],[-51.37793446499998,-27.660023871],[-51.36011277799996,-27.678794281],[-51.315106043999954,-27.67507006699997],[-51.310178789999945,-27.713123711999955],[-51.27423459799998,-27.725845615999987],[-51.274612732,-27.74847558199994],[-51.24554744899996,-27.76144848899996],[-51.18776960199993,-27.777704764999953],[-51.160051348999964,-27.801469621999928],[-51.13460645699998,-27.803657081],[-51.12103963399994,-27.832574632999986],[-51.09827170399994,-27.82741761599997],[-51.076564273999935,-27.84184536999993],[-51.078593821,-27.861597745],[-51.054821411999924,-27.867128682999954],[-51.05596623099997,-27.90367043299998],[-51.019908449999924,-27.92248752399994],[-51.01895572099997,-27.957048034],[-50.99362881699997,-27.946006924999942],[-50.947043714999936,-27.96724247999999],[-50.92396815799997,-27.97165455],[-50.923238425,-28.011987778999945],[-50.88967319399995,-28.02291542799994],[-50.87542885799998,-28.05442333499993],[-50.89935985899993,-28.089655605999972],[-50.875918796999926,-28.095075427999973],[-50.858991032999974,-28.139705536],[-50.83675774699998,-28.119400021999986],[-50.81818378599998,-28.141270131999953],[-50.79407608199997,-28.13864042499997],[-50.782815956,-28.17598303999992],[-50.788822067999924,-28.198335046999965],[-50.761195195999974,-28.195012064],[-50.75387610499995,-28.244617067999975],[-50.69536350699997,-28.270543156999985],[-50.695223979999966,-28.288519454],[-50.66490768099989,-28.31279622699997],[-50.665230632999965,-28.33792459699996],[-50.62882249499998,-28.364020011999948],[-50.633290169999974,-28.37891603799992],[-50.613882479,-28.39360687599998],[-50.59317629999997,-28.381576644999974],[-50.56541425199994,-28.413223472],[-50.54423832999994,-28.427502120999968],[-50.531593952000016,-28.407810637999965],[-50.470440384000014,-28.414902212],[-50.428780565,-28.433541037999944],[-50.394457977999906,-28.433436065999963],[-50.36839862199997,-28.42122839499993],[-50.34044694099997,-28.440965772999917],[-50.301331546999975,-28.439270631999904],[-50.27291334499992,-28.45707190400001],[-50.24241076399997,-28.432025671999973],[-50.22264868099999,-28.463272125999914],[-50.19908634799998,-28.444833794999944],[-50.17849748699998,-28.451892269],[-50.16514364299997,-28.47089608399994],[-50.16262296799995,-28.495320859999893],[-50.13937834099995,-28.493294440999918],[-50.159151658999974,-28.464702899],[-50.14727806599996,-28.44952652699991],[-50.0971770849999,-28.484380352],[-50.02717695699996,-28.474274123999933],[-49.970772884,-28.440210695999966],[-49.92851377599996,-28.451223534999905],[-49.90041889899992,-28.464710945999947],[-49.86357291799994,-28.462845963999918],[-49.869017722999956,-28.48062632799998],[-49.83934334699997,-28.496487080999934],[-49.81726549999996,-28.469868785999942],[-49.79092625799996,-28.496420219],[-49.74826153799994,-28.493972534999976],[-49.72686786099995,-28.51893032399998],[-49.746720107999934,-28.53539113199993],[-49.725977627999924,-28.569503884999982],[-49.70796833599992,-28.582227197999956],[-49.691391422999956,-28.621372564999938],[-49.74429925999992,-28.62429071299998],[-49.75662937399996,-28.616038583999938],[-49.778903928,-28.62948024599993],[-49.79807062399992,-28.61766986],[-49.816616513,-28.63814426199994],[-49.810776102999924,-28.651904134999974],[-49.83917666199994,-28.666541771999974],[-49.83405750199996,-28.69329489200002],[-49.84245493299994,-28.70630026399997],[-49.8693777139999,-28.701015189999936],[-49.893262767999964,-28.722883464999924],[-49.907949023999905,-28.713774516999955],[-49.93467784699989,-28.72567649599992],[-49.92174371599997,-28.745542585999985],[-49.961332851,-28.772180407999905],[-49.95747331899995,-28.79877442500002],[-49.96212027399995,-28.853548223999915],[-49.94948858100001,-28.875714188999936],[-49.949595985000016,-28.897967192999964],[-49.96508649599997,-28.925527875999947],[-49.95424038899998,-28.961813103999887],[-49.933656698999954,-28.96582163999991],[-49.965991120999945,-29.021746293],[-49.95111191899994,-29.061400257999956],[-49.95615513499995,-29.08492497399996],[-49.9918017049999,-29.117251044999968],[-50.017972651,-29.16283450799991],[-50.03861348599996,-29.177438638999988],[-50.07532253299998,-29.188356248999945],[-50.10776517099995,-29.211039128000017],[-50.14561579,-29.197823695999915],[-50.14108241599999,-29.238305832],[-50.15185891999991,-29.243222570999947],[-50.140816017999974,-29.28650497099993],[-50.11252761,-29.30397278999989],[-50.1154826929999,-29.262280447999935],[-50.00993221999998,-29.225409539999937],[-49.996823482,-29.228281187999947],[-49.96273414999994,-29.19885462199995],[-49.86952984299997,-29.224379686],[-49.84353633599998,-29.25931099],[-49.81573178599998,-29.285871581],[-49.79256116399996,-29.286037999000015],[-49.762338424,-29.300263156],[-49.742097392,-29.298820336999896],[-49.730785903999944,-29.329061177999947],[-49.71042065599997,-29.317146802999936],[-49.597122809999945,-29.182553275999958],[-49.450022274999945,-29.02556602699994],[-49.405386311999976,-28.982207333999952],[-49.30605739399995,-28.89391031799994],[-49.24628988099997,-28.846789371999968],[-49.156318738999985,-28.781803773999982],[-49.07995208799997,-28.73344600599991],[-48.974578209999926,-28.67148007699992],[-48.86205883599992,-28.61666657499994],[-48.82784579400001,-28.606610229999916],[-48.78224769199992,-28.548711211],[-48.7614364999999,-28.535331565999975],[-48.746509894999974,-28.50511418099991],[-48.765498158999975,-28.485466711999905],[-48.765101793999946,-28.459928549999937],[-48.746119457,-28.427052189999955],[-48.73618444799998,-28.379013732999923],[-48.70465818899998,-28.338009654999986],[-48.709154123999916,-28.323425375999953],[-48.694792449,-28.28643226599997],[-48.675426713999954,-28.256495869999974],[-48.64776345999992,-28.234745025999928],[-48.661206635999946,-28.226684776999953],[-48.663181200999986,-28.184145045999962],[-48.642290793,-28.136533292999978],[-48.632025695000024,-28.0859298029999],[-48.60876877099997,-28.06213835799994],[-48.602717442999946,-28.03341700699994],[-48.627285793999974,-28.015215783999956],[-48.63209282099998,-27.99975998299994],[-48.621941401,-27.946220394999933],[-48.57530680199994,-27.89228034799992],[-48.59809854799997,-27.880274561999983],[-48.595790028999915,-27.850912808000018],[-48.542549784999984,-27.827654150999912],[-48.53426315199993,-27.795832977999936],[-48.51762766799992,-27.781520561999926],[-48.49779165199994,-27.794994074999977],[-48.478188602999964,-27.761876613999945],[-48.50753036599997,-27.74429001199993],[-48.50548977699997,-27.723972612999916],[-48.48104060199995,-27.68989121199997],[-48.46730398199998,-27.651186490999947],[-48.41773777500002,-27.58918630499997],[-48.42934712699993,-27.555167567999973],[-48.40635317699997,-27.50714523499994],[-48.373557,-27.471656080999963],[-48.370690844999956,-27.449927166999956],[-48.39559178799996,-27.430678165999964],[-48.41168183999997,-27.405066938],[-48.417196551999915,-27.380562705999942],[-48.483472298999985,-27.378282944999967],[-48.52627041099994,-27.408262036999943],[-48.53685670599994,-27.357441402999925],[-48.528076815999924,-27.34618889499997],[-48.539782566,-27.319586717999975],[-48.59348354299995,-27.3159618399999],[-48.61543706799998,-27.271860339999918],[-48.608288198,-27.221424077999913],[-48.57796553099993,-27.211441870999984],[-48.5422741,-27.18262593299997],[-48.514186107999905,-27.184201915999985],[-48.4817119219999,-27.15325770899991],[-48.50429883500002,-27.143558954999904],[-48.5241358289999,-27.122373654999933],[-48.553235135,-27.157491682999932],[-48.58708258199995,-27.14270622799996],[-48.61387058799995,-27.100467223999978],[-48.59180327300001,-27.080578242999977],[-48.595202473999976,-27.06911308899992],[-48.57066641799996,-27.009011214999887],[-48.588441136,-26.996727662999973],[-48.613730779999926,-27.005050092999973],[-48.63378680399998,-26.98366537499993],[-48.62456764699996,-26.928397383999915],[-48.64171815899995,-26.91877980199996],[-48.643186091,-26.90011033899996],[-48.63248073099992,-26.846149874999945],[-48.623581241999965,-26.82754152599994],[-48.60401868899997,-26.825956596999987],[-48.58762258799995,-26.791264930999915],[-48.62024564499993,-26.789350839999905],[-48.64845729299995,-26.76265753900001],[-48.67382612299995,-26.758675762999893],[-48.6817133279999,-26.724235142999895],[-48.67927824399995,-26.697921575999985],[-48.688099445,-26.671169973999973],[-48.670893587999956,-26.596411189999948],[-48.645479973,-26.535498403999966],[-48.60992876799994,-26.47170932299995],[-48.593545311999904,-26.453070897999943],[-48.59947665999995,-26.43238459099996],[-48.582981048999955,-26.38851395499998],[-48.56735247799995,-26.36350066899992],[-48.546497474999946,-26.310459026999986],[-48.50410327799992,-26.23727472799994],[-48.52475575799994,-26.209868535999945],[-48.53184799199994,-26.162836525999964],[-48.547121702,-26.171084128999986],[-48.58857622899998,-26.154994082999984],[-48.59797279899995,-26.129128543999926],[-48.60255301399994,-26.07173216099993],[-48.61040097799993,-26.050873753],[-48.60138344199997,-25.980805966999974],[-48.634062071999935,-25.97774748099996],[-48.64436962299996,-25.95584182099998],[-48.68203231599992,-25.983671317999914],[-48.96047839600001,-25.980799830999914],[-48.99425181999996,-26.00930544999992],[-49.020160938999894,-26.01574738100002],[-49.04301096899994,-26.00453333199996],[-49.054639125999984,-26.02095267699994],[-49.07376200899993,-26.001104031],[-49.091503529999976,-26.010128628],[-49.12558088299994,-25.99610505499991],[-49.138579098,-26.013489805999924],[-49.167502139,-26.000701208999963],[-49.22639720699992,-26.0299433779999],[-49.23708218799991,-26.03036945999998],[-49.26757272299993,-26.076883217999978],[-49.286576607999976,-26.078426622999963],[-49.300247258,-26.111285843999944],[-49.32170419999997,-26.109979940999985],[-49.38071067899996,-26.156661213999897],[-49.41769171899992,-26.155705736999977],[-49.43679098699995,-26.170533829999933],[-49.45236293099999,-26.16195787499992],[-49.48479718299998,-26.183604207999934],[-49.491212132999976,-26.21444588099996],[-49.52246365499999,-26.221285445],[-49.54191159299992,-26.21434701699995],[-49.549846063999965,-26.233373237999977],[-49.583008561,-26.229902341999946],[-49.603285403999934,-26.214677708999957],[-49.62211200899997,-26.21585203599995],[-49.65398571699994,-26.186854169999982],[-49.67283968999993,-26.18978594299991],[-49.7127653429999,-26.154680565999975],[-49.72753303799992,-26.17143603299997],[-49.748078286999956,-26.14036136899994],[-49.748568158,-26.124612221999897],[-49.779990094999974,-26.11853884899992],[-49.824179894999986,-26.093927095999945],[-49.82820927499995,-26.07517354],[-49.86381128499994,-26.054731906999926],[-49.869439420999946,-26.033469716],[-49.905650181999945,-26.02622986599995],[-49.93083903699997,-26.03020392899996],[-49.944298221999986,-26.009001818999934],[-49.969545973,-26.01757537099992],[-50.01094001499997,-26.013328243999965],[-50.03919024599998,-26.02762406199993],[-50.089169625999936,-26.041576875999937],[-50.10560777899997,-26.057410391999944],[-50.124236562999975,-26.050784854999932],[-50.14016318999996,-26.026583421999895],[-50.18315134700002,-26.07779397399993],[-50.19345427099992,-26.064946770999917],[-50.255185051,-26.038421847999928],[-50.298792219999925,-26.054735997999913],[-50.332012683999956,-26.085374766999934],[-50.321702552,-26.133949682999948],[-50.33389930299991,-26.13466647300001],[-50.36742886499994,-26.112407344999923],[-50.37168707399992,-26.07919170199994],[-50.408077350999946,-26.05852357199995],[-50.429538136999966,-26.062987370999977],[-50.460891280999945,-26.02634771299993],[-50.513303743999955,-26.026129671],[-50.55086876099992,-26.038262655],[-50.57023060999992,-26.001952829999965],[-50.59315483499997,-26.027149594000022],[-50.58628792999997,-26.047600808999917],[-50.56527856399999,-26.041274929999915],[-50.553528728999915,-26.05937809499995],[-50.59480108399994,-26.070395944999945],[-50.62576960699998,-26.062133892999974],[-50.65615786699997,-26.10081019699996],[-50.65018262799994,-26.13249960399996],[-50.67882136099995,-26.14835215699994],[-50.70399393699995,-26.18853779299993],[-50.72987253399994,-26.203382217999902],[-50.71561768799999,-26.244579670999947],[-50.74592958999997,-26.246772861999958],[-50.76265837499997,-26.222043541999938],[-50.799939229999964,-26.231286864999923],[-50.846873018999986,-26.266383147999903],[-50.87324432399997,-26.245891771999972],[-50.88196187799998,-26.279265757],[-50.90928652299997,-26.28368703899998],[-50.90949891199996,-26.249437534999984],[-50.93251285899997,-26.234491842999986],[-50.943564260999906,-26.243838535999906],[-50.934808177,-26.275588053],[-50.97130742799989,-26.261335563999978],[-50.97304268899993,-26.246196024999925],[-51.001074852999935,-26.230344358999922],[-51.056845681,-26.243901680999983],[-51.07737404999996,-26.23123731299991],[-51.10180814999998,-26.272673611],[-51.148403,-26.278774581999954],[-51.19233582299991,-26.301798570999914],[-51.20719777899991,-26.2963012499999],[-51.22727341,-26.323952175999977],[-51.24795121399998,-26.329866405999937],[-51.26002499599995,-26.364591225],[-51.25326235399996,-26.37634740399998],[-51.291695049999944,-26.404211923999966],[-51.292876399,-26.434120706999984],[-51.253196907999964,-26.462050984],[-51.27317435199991,-26.498304165999954],[-51.22806084099995,-26.554576960999974],[-51.227998046,-26.59573173299995],[-51.236140918999965,-26.624671728999928],[-51.25366654799991,-26.62732799399997],[-51.29448970699998,-26.655912149],[-51.347032508999945,-26.648593129999973],[-51.39112971699993,-26.663247439999935],[-51.40731763099994,-26.700619956999958],[-51.435346004999985,-26.688178096999913],[-51.454882992,-26.64065822499998],[-51.49542970799993,-26.587416215],[-51.51090549599992,-26.581061156999972],[-51.535607362999976,-26.591797878999976],[-51.596989783,-26.584060016999942],[-51.63247921999991,-26.587244413999898],[-51.65845093899996,-26.56541243999989],[-51.692686937,-26.58050724499997],[-51.73763583299993,-26.5729932589999],[-51.78393693199992,-26.58805185899992],[-51.82056154699996,-26.578600448999943],[-51.846387221,-26.594197559999934],[-51.87792262999997,-26.597581345999956],[-51.900291732000014,-26.579283590999978],[-51.92833189999996,-26.584368477999888],[-51.94803470899993,-26.569560216999975],[-52.008767537999944,-26.566560600999942],[-52.03431119299992,-26.53975975499995],[-52.0813539119999,-26.525111012999915],[-52.111632525999966,-26.474963365999983],[-52.12955150099995,-26.477205875999985],[-52.166694616,-26.464980565999916],[-52.18634301,-26.445116678999945],[-52.22981180499994,-26.467043112999953],[-52.26215265300002,-26.454457807999944],[-52.276964256999946,-26.46123652200002],[-52.30435556399995,-26.440697437999958],[-52.379622520999916,-26.438640748999966],[-52.40308939199993,-26.428227285999974],[-52.43330655899997,-26.44020330199993],[-52.463605600999955,-26.439603570999957],[-52.52422930599991,-26.399180188999928],[-52.55283056099992,-26.411570359999956],[-52.595832175999945,-26.41606244499993],[-52.62110270699998,-26.39550901699993],[-52.65977392499998,-26.373870770999964],[-52.68018652199997,-26.352731071999948],[-52.71731748099999,-26.35740835299997],[-52.73776319599996,-26.342184919999987],[-52.775391333999906,-26.347888495999925],[-52.84692853900001,-26.34440653399995],[-52.86633192899998,-26.358157322999944],[-52.95042029299994,-26.36228649399991],[-52.99349068699996,-26.34768410399998],[-53.04607367999996,-26.381198302999977],[-53.093227956999925,-26.392022132],[-53.127223885,-26.372256784999912],[-53.15093900099994,-26.34451897099993],[-53.18274749499993,-26.344505435999963],[-53.264399782999945,-26.28934471999994],[-53.268385149,-26.262410794999944],[-53.283569283999924,-26.245775200999923],[-53.304447197999956,-26.25844403],[-53.37607191399993,-26.24161401999997],[-53.399404119999986,-26.253807325999965],[-53.42402676299997,-26.279715739000018],[-53.47244580799996,-26.28970241699996],[-53.495834712,-26.30279886399999],[-53.557265037,-26.287083036999945],[-53.58227325199991,-26.272300725999962],[-53.58432957199996,-26.25907339599994],[-53.64166554499994,-26.260464965999972],[-53.64436157999998,-26.282019368999933],[-53.68585883899996,-26.335744324999908],[-53.68990665599995,-26.359229914999958],[-53.70732143599996,-26.395447127999958],[-53.687460277999946,-26.442133658999957],[-53.715751602,-26.47055704799991],[-53.700437010999934,-26.480089183999986],[-53.710963276999934,-26.504511316999988],[-53.730070347999984,-26.501815125999926],[-53.72139744399995,-26.561762682999976],[-53.73448613199996,-26.61393770299997],[-53.75744969099998,-26.644291207000016],[-53.72332898299989,-26.65602728299993],[-53.73172395999994,-26.679500295],[-53.73964301199996,-26.742388573],[-53.73687904599997,-26.76745718299994],[-53.71745910499996,-26.782334382999963],[-53.69764711100002,-26.812002128999936],[-53.68551290999994,-26.866805667999984],[-53.69432200399997,-26.889130902999945],[-53.673588131999956,-26.893165044999954],[-53.678580252999915,-26.91521452999993],[-53.70724195999996,-26.933330872999903],[-53.70143053299998,-26.953977004999942],[-53.741840892,-26.990779754999984],[-53.73283687699992,-27.007556314999945],[-53.74754274299997,-27.031517343],[-53.779911169999934,-27.02743797499997],[-53.79673048999997,-27.03947364299998],[-53.80700105699995,-27.110918998999942],[-53.799479985999916,-27.14675817899993],[-53.82867037399991,-27.14602302299994],[-53.83594540099993,-27.169081466999913],[-53.81484664699993,-27.175889806999955],[-53.776011676999964,-27.147487366999954],[-53.76506610099991,-27.152496312999972],[-53.751589504999956,-27.188052607],[-53.730889479,-27.18934237899996],[-53.686219066000014,-27.16360146399991],[-53.666402177999935,-27.162732808999976],[-53.651315885999935,-27.176566312999974],[-53.65098679799998,-27.21006502999993],[-53.63072581099992,-27.21337862099992],[-53.618231940000015,-27.18733644199999],[-53.59144179299992,-27.18747269799998],[-53.556243855999966,-27.172645800999952],[-53.51824902399997,-27.202177815999974],[-53.496405654999904,-27.204183629999932],[-53.489730544999965,-27.180429285999942],[-53.50810396599998,-27.15146763799995],[-53.503133022,-27.13475826799995],[-53.476339314999976,-27.138908338999954],[-53.45536999899993,-27.156893872999945],[-53.406214637999945,-27.13654420099992],[-53.38104061,-27.094114655999903],[-53.36498235799995,-27.094347884999927],[-53.34575119999993,-27.120988280999967],[-53.31730724599996,-27.118595516999967],[-53.292936912999984,-27.14080889199991],[-53.32258175799993,-27.21150493199996],[-53.23208570299995,-27.171111659999937],[-53.19721636099992,-27.192652722999945],[-53.18210244099994,-27.189322408],[-53.16950175399999,-27.14418568299989],[-53.150284709999895,-27.143782313],[-53.139594209999984,-27.17574686799994],[-53.080178802,-27.16431866399992],[-53.07123991399989,-27.156969742999912],[-53.07829215099994,-27.11130993099996],[-53.048213503999904,-27.083650393999967],[-53.02414654999998,-27.084613863999927],[-53.02033105299994,-27.10455043999996],[-53.04139386499999,-27.1249055179999],[-53.04419626599996,-27.14406200299996],[-53.02615257799996,-27.15862248999997],[-53.00596945399995,-27.137489692],[-52.99166362299996,-27.140966664],[-52.98514455799996,-27.170488133999946],[-53.001261782,-27.18676197399997],[-52.999977245999936,-27.20670014599996],[-52.97094031700002,-27.217627128],[-52.95669226099992,-27.163257845],[-52.93606693299992,-27.17803642699993],[-52.92931144299999,-27.204076351999937],[-52.899187889999965,-27.196878139999967],[-52.859976907999965,-27.170427346999894],[-52.842890617999956,-27.180488891999985],[-52.84567481299993,-27.207446124999954],[-52.792876447999966,-27.204738193]]]},"properties":{"CD_MUN":"4200051","NM_MUN":"Abdon Batista","SIGLA":"SC","AREA_KM2":237.517,"auxiliary_":null,"auxiliar_1":null,"REGIAO_MAR":"SC","BASE_RC":null,"ALLCON_TOT":0}}
]}