{"type":"FeatureCollection", "features": [
{"type":"Feature","geometry":{"type":"Polygon","coordinates":[[[-41.794958716999915,-15.106296680999929],[-41.356422744999946,-15.50028613499995],[-41.33120609799993,-15.744673362999926],[-41.21539641299991,-15.737165860999944],[-41.142530205999975,-15.772047001999976],[-41.07874787099998,-15.719913119999926],[-41.006059449999924,-15.713837348999924],[-40.96312511299997,-15.648400300999974],[-40.9025697069999,-15.691842132],[-40.700575210999915,-15.66730900099996],[-40.62603121499998,-15.718209658999935],[-40.561103468999896,-15.80361490599996],[-40.48412469399995,-15.775796551999974],[-40.377967839999954,-15.818421683999926],[-40.22944035699993,-15.808697399999936],[-40.159826183999954,-15.908464876],[-40.097358292,-15.90823867199994],[-40.004436507999955,-16.001838195999927],[-39.957601360999924,-15.992020367999924],[-39.85682889099992,-16.113824768],[-39.88339060099994,-16.19469300499997],[-39.96049585699996,-16.321882729000023],[-39.99006918899994,-16.312180174999966],[-40.045570085999955,-16.42203889199992],[-40.103302747999976,-16.437010341999923],[-40.170353097,-16.524799057999893],[-40.172852937999984,-16.577436767999885],[-40.2754900749999,-16.573417672999966],[-40.303001148999954,-16.70368759099997],[-40.33285810499995,-16.769547363],[-40.25082927199996,-16.831154649999966],[-40.28163705099993,-16.901183640999893],[-40.36487739799998,-16.8746222309999],[-40.417606892000016,-16.89926725199996],[-40.49232685599994,-16.88739871400001],[-40.571666311999905,-17.065881466999908],[-40.57915874599997,-17.148248256999974],[-40.55386116899992,-17.189030279999926],[-40.555081488,-17.28852458699995],[-40.60902514999995,-17.32696837099997],[-40.597506500999906,-17.42063326099995],[-40.52933732599994,-17.44486289299992],[-40.459226407999985,-17.569492440999976],[-40.41379215499995,-17.57416629999998],[-40.39681174,-17.62560529099991],[-40.334049023,-17.63214844999995],[-40.29551470199994,-17.699493596999947],[-40.21383728099998,-17.75243593299992],[-40.218075669999926,-17.795659047999965],[-40.17412729099991,-17.851561215999965],[-40.263547467999956,-17.922023348999936],[-40.22235060899996,-17.980417386999967],[-39.68894738300001,-18.320831529999957],[-39.49769121499999,-18.00647869899997],[-39.407100519,-17.922262354999905],[-39.279524823999985,-17.872715873999976],[-39.25308410399994,-17.820403919999936],[-39.138043703999976,-17.6932884889999],[-39.18429858499996,-17.614592237999958],[-39.19243654099997,-17.440828093999947],[-39.217629654,-17.33462205699997],[-39.21206189,-17.16126084],[-39.18201600399993,-17.11235530099998],[-39.14185416499995,-16.86872028199998],[-39.13970526699996,-16.753428089999964],[-39.10383847699991,-16.69809441099993],[-39.06211533299999,-16.435783023999893],[-39.006060750999985,-16.332755250999984],[-39.01106381399996,-16.24578577599994],[-38.94810669399995,-16.155666524999965],[-38.95204948999994,-16.09695268999994],[-38.85283929399998,-15.849354111],[-38.93485546199999,-15.665390301999924],[-38.951676628,-15.469114447999974],[-38.990751641999935,-15.288160685],[-38.99759045299992,-14.986716321999936],[-39.01801685199999,-14.923354264999986],[-39.02423059499995,-14.805007885999952],[-39.06218714399998,-14.746953112000014],[-39.06162642499994,-14.62498538099993],[-39.035094153999964,-14.531552021000014],[-39.00131745100001,-14.345939916999981],[-38.98112758799989,-14.298475411],[-38.990680376999904,-14.208417558999962],[-38.95456833999999,-14.076946766999985],[-38.92878591699997,-13.906834149999945],[-39.00033676399996,-13.775714225999955],[-38.98176466399993,-13.705254791999941],[-38.901387676999924,-13.60175156199995],[-38.932943556999895,-13.54596745899995],[-38.8923542859999,-13.460608897999968],[-38.90494658699996,-13.386362352999956],[-38.94624036999998,-13.398923296999907],[-38.96471666099998,-13.294884033999974],[-38.92918643899998,-13.218358031],[-38.76227688599993,-13.11893430499996],[-38.712618129999946,-13.061102318999893],[-38.643338710999956,-13.01531312199998],[-38.468747039999954,-13.014881674999987],[-38.38502670199998,-12.956007777999954],[-38.35353771299996,-12.957058847999967],[-38.243694004,-12.852476757999973],[-38.10440223499995,-12.687729003999912],[-38.001464042999906,-12.578011154999977],[-37.97301261699994,-12.521079405999966],[-37.769353530999986,-12.238366511999974],[-37.61010408899993,-11.955666267999963],[-37.52470612699998,-11.7662419779999],[-37.40632842799993,-11.536589824],[-37.312217897999936,-11.422991140999947],[-37.29968468399997,-11.363684443999897],[-37.25530926999998,-11.282484532999923],[-37.16610915099993,-11.18249836799988],[-37.035830484,-10.960212303999981],[-36.86750496399995,-10.758052227999979],[-36.78442589699992,-10.688229441999972],[-36.61270091699997,-10.588404721999964],[-36.38771116299992,-10.498630691999953],[-36.29402529299998,-10.352781466999925],[-36.276098793,-10.28027650199995],[-36.09254316899994,-10.098538609999927],[-36.026847383999986,-10.045564067999955],[-35.937930243,-9.902433881999926],[-35.81372607299997,-9.730833902000011],[-35.70834451099991,-9.665080730999929],[-35.650797115999936,-9.56854149599998],[-35.5014365399999,-9.422663423999964],[-35.45973085699991,-9.344075436999919],[-35.35411293399992,-9.255211802999916],[-35.29482196199993,-9.171333219999909],[-35.21671858599992,-9.008213369999982],[-35.1520192199999,-8.915696097999923],[-35.171231816999985,-8.890561262999928],[-35.25278213199991,-8.887233014999971],[-35.535177908999955,-8.819454778999933],[-35.632127759999946,-8.881278329999951],[-35.74839899199997,-8.917151743999927],[-35.825748200999925,-8.870343746999918],[-35.911417498999946,-8.86128908099991],[-36.005383915,-8.913000354999987],[-36.063935002999976,-8.915337348],[-36.128249,-8.957717180999989],[-36.127278573,-9.033669513999918],[-36.19850573199994,-9.046676743999935],[-36.26471955899994,-9.165862559999969],[-36.36570395699998,-9.22262731999993],[-36.43182995199991,-9.212130488999968],[-36.49865209599998,-9.264911997999956],[-36.57183956399994,-9.292582841999906],[-36.606553083999955,-9.340716084999965],[-36.76177253599999,-9.271456992999969],[-36.913692246999936,-9.296055646999921],[-36.95546464699994,-9.381251129],[-37.003364640999976,-9.352613538],[-37.090672548999954,-9.246362098],[-37.15986390399994,-9.238248608999964],[-37.247081593,-9.179018423999938],[-37.35863908399992,-9.053889107999922],[-37.416502458999915,-9.006564137999948],[-37.49875699299993,-8.969272874999987],[-37.59575,-8.968805555999957],[-37.65777777799998,-8.992666667],[-37.75536188999997,-8.84636368499999],[-37.825640161,-8.888567338999973],[-37.85309327199997,-9.000139771999969],[-37.937676649999936,-9.080115110999962],[-37.99365838899995,-9.155333098999971],[-38.09228733099996,-9.172724977999955],[-38.14390867099996,-9.21820469399993],[-38.15737778999992,-9.262619211999965],[-38.23759004599997,-9.329794523999944],[-38.31865874899993,-9.141001717999906],[-38.3261854629999,-9.080956264999926],[-38.289675765999945,-9.036334421999968],[-38.32354002499995,-8.990009184999934],[-38.40351580599998,-9.037233121999986],[-38.449099650999955,-9.02635884699988],[-38.51981109499995,-8.947582784],[-38.469797516,-8.864239752999978],[-38.512406702999975,-8.830585949999978],[-38.57042863099995,-8.830369085999976],[-38.607585714,-8.893264037999913],[-38.635376998999966,-8.98672925099989],[-38.68923262399992,-8.94739558599996],[-38.70654349799995,-8.862260616999915],[-38.79698945699996,-8.79346442199994],[-38.868104419999945,-8.783865384],[-38.95193320899992,-8.804668246999956],[-39.03354835199996,-8.736313340999988],[-39.20078102799992,-8.71098763],[-39.245492562999935,-8.684105867999978],[-39.247883294999944,-8.624998836000017],[-39.28642128999994,-8.563759797999957],[-39.416040799999955,-8.542127927999985],[-39.485696747999924,-8.596445828],[-39.59522629299991,-8.651205884],[-39.68883592199994,-8.660850399999962],[-39.673300375999894,-8.784903966999966],[-39.78879621299997,-8.819109593999972],[-39.892957721999984,-8.828793991999948],[-39.874428620999964,-8.936738523999974],[-39.968091037,-9.053197058999949],[-40.06556305499995,-9.06306519299994],[-40.129894919999934,-9.11030460599994],[-40.23898352799994,-9.05436534799998],[-40.273192198999936,-9.08242157999993],[-40.30953537099997,-9.27550666499993],[-40.35639711299998,-9.376994262999947],[-40.41814529099998,-9.352053270999914],[-40.467755118,-9.420568129999971],[-40.51072661699992,-9.407178859999963],[-40.55575851399997,-9.457938111999962],[-40.62316567199994,-9.482897442999914],[-40.72217859099993,-9.445948539999947],[-40.7674564659999,-9.452650075999944],[-40.863115078,-9.394096582999953],[-41.01662834299999,-9.383941408999927],[-41.11742041500001,-9.403590815],[-41.143538405999905,-9.495927915999989],[-41.21268546299996,-9.62215314699991],[-41.24722215699991,-9.647091397999894],[-41.40021548899996,-9.695047882999983],[-41.513207949999945,-9.666174637999934],[-41.63715367,-9.715302715999972],[-41.684419041999924,-9.76842368099998],[-41.839568039,-9.73215911499997],[-41.99236500899996,-9.666457536999893],[-42.04113112399998,-9.670108505],[-42.08057545799992,-9.733599995],[-42.074686319,-9.803283463999932],[-42.119157934999954,-9.888093564],[-42.19947027999994,-9.972110269999988],[-42.242387423999986,-10.047460775999948],[-42.35502950999994,-10.032236684999916],[-42.39315871799995,-10.051761774999921],[-42.435469167999976,-10.130306048],[-42.40402192499994,-10.189997648],[-42.40464669599994,-10.253079334999935],[-42.45876694099994,-10.310797206999975],[-42.464486343999944,-10.382194428999956],[-42.56999934199996,-10.470351279999921],[-42.587197436999894,-10.545104190999908],[-42.66130917499994,-10.588018500999983],[-42.703069183,-10.714680265999963],[-42.780671152999986,-10.817462787999919],[-42.86264602399996,-10.81050934199995],[-42.98828414399997,-10.908378785],[-43.05131881800001,-11.005773028999908],[-43.09522857399994,-11.026165244999984],[-43.14901630499996,-11.163865327999964],[-43.19872531999992,-11.23814447699992],[-43.17257927799993,-11.316372769999958],[-43.22300150199993,-11.372224095000014],[-43.30408197599997,-11.581601788999905],[-43.353345423999926,-11.588991003999958],[-43.38220231499996,-11.689400274000015],[-43.34830685199994,-11.735095975],[-43.34919914999997,-11.798330150999945],[-43.315363214999905,-11.875152288999988],[-43.352720752999936,-11.904419658999963],[-43.34909802299995,-12.016361401999962],[-43.299022665999956,-12.0559409869999],[-43.28219382399993,-12.135685598999899],[-43.22630365399995,-12.192301823],[-43.26343028899996,-12.220902249999952],[-43.286478819,-12.331037056999925],[-43.25275006099993,-12.380087823999961],[-43.25799901399991,-12.430880306999956],[-43.206883433,-12.543331253999987],[-43.18758438099996,-12.620048748999988],[-43.201291699,-12.673927971999941],[-43.254017538,-12.703708932999955],[-43.332990851999945,-12.79325684],[-43.345659861999955,-12.854794410999979],[-43.39495201899998,-12.873149623],[-43.40614576099996,-12.997895195999973],[-43.454149253999944,-13.03983159399996],[-43.46310847099996,-13.133283949999939],[-43.59107629399991,-13.146649962999977],[-43.646516683999984,-13.18488303199997],[-43.70606799799994,-13.187841878999915],[-43.705012165999975,-13.289556632999986],[-43.62914803799997,-13.268223985],[-43.44043234299992,-13.25600317199994],[-43.4632987749999,-13.332477797],[-43.43132873599995,-13.446983181999936],[-43.46052325100002,-13.562178886999963],[-43.50949222099995,-13.575575355999945],[-43.556756795,-13.64450703699994],[-43.54835409099992,-13.712217604999974],[-43.59261288699995,-13.763275598999911],[-43.61429022999996,-13.837455394],[-43.62699513199992,-13.960133906999914],[-43.65308225099992,-14.002971106999915],[-43.697261954999895,-14.20973252299996],[-43.82025781999996,-14.391874499000021],[-43.87483363,-14.524547110999961],[-43.874626522,-14.63676544399993],[-43.84686767799996,-14.672105030999969],[-43.61500008999998,-14.759892582999932],[-43.58629994899996,-14.75005676799995],[-43.51116285799998,-14.796574542000016],[-43.42420404800002,-14.720094949999982],[-43.24505489299996,-14.656511086999977],[-43.17495456699991,-14.651054804999983],[-43.09151584899997,-14.683322267999941],[-42.952688161999944,-14.70840228099993],[-42.79552536299997,-14.837341995],[-42.755137768999965,-14.846421426999932],[-42.620712657999974,-14.943695173],[-42.443598133999956,-15.020646114999945],[-42.44293921399997,-15.0613197549999],[-42.37185711799995,-15.073629557999944],[-42.261986021999945,-15.124421123999952],[-42.15535861599992,-15.097850840999936],[-42.09606827399998,-15.182442104999936],[-41.994691597,-15.15887450899994],[-41.95343434999998,-15.17566449799995],[-41.872533721999986,-15.116451973999965],[-41.794958716999915,-15.106296680999929]]]},"properties":{"CD_MUN":"2700102","NM_MUN":"Água Branca","SIGLA":"AL","AREA_KM2":468.229,"auxiliary_":null,"auxiliar_1":null,"REGIAO_MAR":"SEALBA","BASE_RC":null,"ALLCON_TOT":0}}
]}