{"type":"FeatureCollection", "features": [
{"type":"Feature","geometry":{"type":"MultiPolygon","coordinates":[[[[-50.83066540199994,-22.862173271999943],[-50.80614622999999,-22.940299332999956],[-50.70983876999995,-22.95344219799992],[-50.66354613699994,-22.895669203999937],[-50.511019185999935,-22.94463884399992],[-50.34018660000001,-22.948072941999932],[-50.275569045999916,-22.931603236999955],[-50.185082124,-22.95400408899996],[-49.98616492499998,-22.89750476299993],[-49.91160219800001,-23.051118640999988],[-49.833658578,-23.065942941999893],[-49.67770799099995,-23.174942583999915],[-49.59541211499989,-23.36709144599999],[-49.62421705999997,-23.52330259499992],[-49.620958322,-23.611113666999962],[-49.549199189,-23.70401638899994],[-49.560068939,-23.81193071599995],[-49.60761992100002,-23.840622311999894],[-49.55701045999998,-23.921263526999915],[-49.40870824999994,-24.106892437999917],[-49.33656625699997,-24.137581852999958],[-49.35067723099992,-24.220800878999924],[-49.28690029699993,-24.30259934399995],[-49.201111832,-24.345106568999917],[-49.279905464,-24.535925314999893],[-49.315989362999986,-24.55550887799994],[-49.312015434999985,-24.663532669999952],[-49.2781319549999,-24.69302152799996],[-49.185650879,-24.67275034999995],[-49.11159463699992,-24.68835230699998],[-49.01030569499991,-24.654371073999982],[-48.962202069999904,-24.67416858899997],[-48.84040088499992,-24.66497680699998],[-48.77712193299992,-24.69568792099995],[-48.616619715999946,-24.668673217999938],[-48.50189683299996,-24.745975735999934],[-48.55575397899996,-24.806203797999927],[-48.56737089999996,-24.972266872999924],[-48.60083133199994,-25.01050566599995],[-48.530221544999925,-25.10081974999997],[-48.474049300999965,-25.012552387999918],[-48.41186815799993,-24.98039962599995],[-48.35122777799994,-25.036489392999925],[-48.21605429100002,-25.076671558999983],[-48.158501976,-25.149906868],[-48.18252033599998,-25.204998797],[-48.11299959900001,-25.250870526],[-48.02353743499996,-25.230931711999958],[-47.92376062399992,-25.160517491999954],[-47.90237805499997,-25.06567055899996],[-47.84292227000002,-24.97660495699995],[-47.731515986,-24.88062871899995],[-47.561029258999916,-24.757909499999954],[-47.24500935000002,-24.57397020399995],[-47.14466306400002,-24.49229989499996],[-47.003632747,-24.40895733599998],[-47.00246804999992,-24.33737904599994],[-46.9205484349999,-24.26736839999993],[-46.63509142399997,-24.104478922999974],[-46.455001544999966,-24.023910593999943],[-46.38379682199993,-23.971841367],[-46.197756877999936,-23.994776252999962],[-46.12839741699998,-23.844086341999983],[-45.89832037299992,-23.76535288999998],[-45.80771135399992,-23.75910722299995],[-45.55514892799996,-23.79501430699996],[-45.50242530199996,-23.841199838999984],[-45.39627584899996,-23.80812627399994],[-45.42718827299998,-23.709331209999952],[-45.40661089399995,-23.623862164999977],[-45.311412264,-23.57566531099998],[-45.244224985,-23.59372861199992],[-45.17388518800002,-23.496323193999977],[-45.07148877399995,-23.49721915999995],[-45.053874528999955,-23.41671035799996],[-44.977086643,-23.400290570999935],[-44.905663435999905,-23.33401709099997],[-44.78243035099993,-23.377482809999925],[-44.78742138499997,-23.29910688499993],[-44.88932055099994,-23.22659492],[-44.824416157,-23.162687259999934],[-44.791898181999926,-22.981875897999927],[-44.74350208199997,-22.947003652],[-44.555174010000016,-22.888050342999975],[-44.48437474999995,-22.84635699399994],[-44.381195878999975,-22.858351334],[-44.26760000599998,-22.829018784999953],[-44.25758099099994,-22.76695888499992],[-44.173860836999985,-22.70210796699997],[-44.18427629299996,-22.637299137999953],[-44.38239777799994,-22.573494187999952],[-44.405825757999935,-22.599098332999965],[-44.64363892799998,-22.599606352999988],[-44.644427612999955,-22.555598615999948],[-44.71169879399996,-22.51404984499997],[-44.74144567699991,-22.424827631999964],[-44.794710802999944,-22.408864795999914],[-44.96984841099991,-22.47194463899996],[-45.054928890999975,-22.470503961999952],[-45.16451526799995,-22.537928714999964],[-45.41052109199992,-22.651671024999906],[-45.48880049099992,-22.628785222999923],[-45.56596527699998,-22.656522749999972],[-45.68107834399992,-22.636335684],[-45.74280673799997,-22.65916686199999],[-45.71181884799992,-22.771515890999936],[-45.76695935699996,-22.840812269],[-45.909035,-22.82960499899996],[-46.008524,-22.889497998999943],[-46.14125198799998,-22.868146002999943],[-46.279025716000014,-22.878347613],[-46.345224236,-22.90467920399989],[-46.37681108099995,-22.827819462000022],[-46.334541461999926,-22.760300075],[-46.45272307799992,-22.727581895999958],[-46.39305887099995,-22.66297405899996],[-46.45331815399995,-22.522497117999905],[-46.54214693599991,-22.494356001999947],[-46.554813950000025,-22.446649974999975],[-46.631607354,-22.43583570399995],[-46.71453687,-22.315584169999934],[-46.67080084899997,-22.184260558999966],[-46.613041482999954,-22.150252526999967],[-46.68538901999996,-22.037422128999893],[-46.642825449999954,-21.976620813],[-46.69097054699993,-21.83696384900001],[-46.62603031199996,-21.766226462],[-46.621594723999955,-21.675542992999972],[-46.56463134,-21.678679389999953],[-46.50077666699996,-21.549761130999965],[-46.519052712,-21.44895315599996],[-46.60188993,-21.44396078099989],[-46.64873033699994,-21.391721343],[-46.81730936400001,-21.36643857199992],[-46.893305569999924,-21.41561413299998],[-47.012970414999984,-21.41910701699997],[-47.05228174399993,-21.246518713999905],[-47.123647821,-21.16790940699996],[-47.15702985099998,-21.018824736999928],[-47.14373893599994,-20.982385671999957],[-47.24004425699999,-20.885281697],[-47.16924077100001,-20.703430845999957],[-47.09745644999998,-20.64387682699996],[-47.154517380999934,-20.519553191999904],[-47.291011293999944,-20.450549889999934],[-47.29820813599998,-20.348435714999944],[-47.239102029,-20.24356809399995],[-47.26178041999997,-20.159924877999966],[-47.408133496999945,-20.08019628199996],[-47.46332203999996,-19.965789005999977],[-47.583824617999966,-19.99666463199997],[-47.639656072999976,-20.047219412999926],[-47.733681691999955,-19.987928204999914],[-47.859750731999924,-19.99293974799997],[-47.875077302,-20.09837268999993],[-47.931524817,-20.110434848999912],[-47.97596931699994,-20.035372666999915],[-48.020163,-20.124029000999908],[-48.105487412999906,-20.146355956000015],[-48.17860597699994,-20.09618021599989],[-48.20777146499992,-20.03937002199999],[-48.315412862,-20.113801091],[-48.49111613199996,-20.13812321599998],[-48.593247428999945,-20.135811745999952],[-48.63771183599994,-20.165347437000012],[-48.73134107099999,-20.149381771],[-48.822126733999944,-20.1615471449999],[-48.88707533899998,-20.275275438999927],[-48.86703918599997,-20.39834930499996],[-48.89986253699991,-20.441336232999916],[-48.96303031699995,-20.40312151599993],[-48.97202319799991,-20.207790346999985],[-49.06747975499998,-20.154743511999982],[-49.12241114899995,-20.273545039999927],[-49.225294014999946,-20.305343064999946],[-49.299246428999965,-20.167076078999955],[-49.297537781999985,-19.960545406999906],[-49.35648649,-19.986717257999906],[-49.453809955999986,-19.978059750999897],[-49.514004928,-19.91431150599997],[-49.63440530099998,-19.93193211399996],[-49.78245623500001,-19.924463096999965],[-49.888336930999984,-19.945304915999937],[-50.047239195,-19.91538963599991],[-50.09724333899996,-19.875478953999934],[-50.35275894099993,-19.864602431],[-50.46932357799997,-19.779888807],[-50.577948759,-19.816374352],[-50.658104733999934,-19.90714730099997],[-50.78360150399989,-19.93722948599995],[-50.96912936399997,-20.036445197999928],[-51.06916308599995,-20.25004948399994],[-51.13241433299997,-20.29553150799993],[-51.295684541,-20.32848210099992],[-51.342705350999935,-20.354660119999988],[-51.5002222749999,-20.56821630799993],[-51.59414814999998,-20.643847678999947],[-51.63489922799995,-20.754848353999886],[-51.623587256999954,-20.944432888999884],[-51.713695715999926,-20.971458013999964],[-51.78967094799997,-21.10211951499995],[-51.87898479399992,-21.14813774299998],[-51.84851446699998,-21.26663839],[-51.86876212399991,-21.353530223999915],[-51.92868183299996,-21.45581609699999],[-52.00036760599993,-21.51662647899993],[-52.05706663599996,-21.503609715999925],[-52.10229339799996,-21.554840577999954],[-52.04952035199996,-21.643089111999956],[-52.1037890769999,-21.746053806999974],[-52.161261817999915,-21.770773715999923],[-52.18935373899997,-21.844324933999957],[-52.319019392999984,-21.972131911999924],[-52.37721795899992,-22.106678218999907],[-52.48771425699996,-22.21720604299998],[-52.58693922699999,-22.25675048599994],[-52.798330857999986,-22.378273404],[-52.854761225999894,-22.4391123789999],[-52.998579148,-22.493181287999917],[-53.10786230699993,-22.595511541999933],[-53.05579790199994,-22.632622733999916],[-52.97242498299994,-22.570484294999957],[-52.858362803,-22.608001008],[-52.815439665,-22.597043165999917],[-52.69710537899989,-22.627006571999928],[-52.589344441999955,-22.566096591999916],[-52.49882355599997,-22.63422997199994],[-52.4330458389999,-22.60716648099997],[-52.30043558899997,-22.635444961999927],[-52.222577221999984,-22.67553535799994],[-52.156677981999984,-22.64471893199996],[-52.127602243999966,-22.519923031],[-51.940512627,-22.567342751],[-51.87366298999996,-22.628216230999918],[-51.77162057999995,-22.614126909999985],[-51.725867377,-22.661464846999966],[-51.615842201999946,-22.662593439],[-51.5595691579999,-22.697179343999938],[-51.45309608499994,-22.65575053399994],[-51.26519985600002,-22.667697404999974],[-51.22833595899989,-22.716017184999924],[-51.00554855799999,-22.79382142599996],[-50.895333389999934,-22.794300161999956],[-50.83066540199994,-22.862173271999943]]],[[[-45.32622608799991,-23.72286756099996],[-45.365731114,-23.809005972999984],[-45.460392144999965,-23.890238105999963],[-45.40787246699997,-23.938500429999955],[-45.30295901999992,-23.908885478999906],[-45.23268895599994,-23.784971240999973],[-45.32622608799991,-23.72286756099996]]]]},"properties":{"CD_MUN":"3500105","NM_MUN":"Adamantina","SIGLA":"SP","AREA_KM2":411.987,"auxiliary_":null,"auxiliar_1":null,"REGIAO_MAR":"SP","BASE_RC":null,"ALLCON_TOT":8}}
]}