{"type":"FeatureCollection", "features": [
{"type":"Feature","geometry":{"type":"Polygon","coordinates":[[[-48.870470134999984,-12.803492327999919],[-48.6005347,-13.058853531],[-48.57591928399991,-13.124159785999954],[-48.47702137399993,-13.177995063],[-48.46194148299993,-13.27519315499993],[-48.38484396699993,-13.264249853999974],[-48.180248982,-13.151996360999938],[-48.156247788,-13.307912617999893],[-48.032928946999945,-13.274390163999925],[-47.79822817399994,-13.328984050999946],[-47.67974837199997,-13.468174782999895],[-47.62405713000001,-13.376060742999982],[-47.66684621899994,-13.208353243],[-47.64632056999993,-13.12045273799992],[-47.417199909999944,-13.270832604999914],[-47.379722734999966,-13.230602537999978],[-47.28143291199995,-13.264703814999965],[-47.224956544999955,-13.193497393999962],[-47.01064995099992,-13.141015407999888],[-46.750610974999965,-12.96915500699992],[-46.45464987,-12.971152609999912],[-46.41798475899998,-12.822436732999929],[-46.365728659999945,-12.863522794999902],[-46.37085584099997,-12.987749530999935],[-46.30481353199995,-12.978464057999926],[-46.310505451,-12.79554189199997],[-46.268080457999986,-12.716156811999966],[-46.30705575300002,-12.63669918899991],[-46.27578463,-12.594430558999967],[-46.27046857499996,-12.431619425999916],[-46.370316817999964,-12.347538087],[-46.34914631499997,-12.29912325399992],[-46.39245620199991,-12.170621059999984],[-46.38951850699994,-12.047485826999935],[-46.30678354199997,-11.913747122999983],[-46.38048123399995,-11.86700420499994],[-46.37363699799996,-11.768152905],[-46.30775084099998,-11.686566745999958],[-46.341127871,-11.610199378999972],[-46.24397942699991,-11.605365326999948],[-46.2504812779999,-11.536688991999942],[-46.35037294399994,-11.506228990999965],[-46.43931794299993,-11.521045654999948],[-46.5236662739999,-11.463630652999921],[-46.552202936999905,-11.262798985999964],[-46.34155793099996,-10.93901231999995],[-46.26726626499995,-10.934802322999957],[-46.260537040999964,-10.812037365],[-46.15034625999989,-10.691553989999889],[-46.127612926,-10.620600656999954],[-46.06076518799995,-10.600178508999889],[-45.82021125599997,-10.456053996000012],[-45.793743318999894,-10.267672352999977],[-45.86707087099999,-10.254106436],[-45.97111491899996,-10.358939314999969],[-46.02820679099999,-10.277103296999943],[-46.02827816499994,-10.17686964799994],[-46.16330344199994,-10.213632626999978],[-46.20200981100002,-10.174009091999956],[-46.32477882299996,-10.18318858599999],[-46.445200391999926,-10.077387270999925],[-46.47731007299997,-9.989846684999968],[-46.47289925099997,-9.877440286999981],[-46.51286719899998,-9.797503439999975],[-46.64439361199994,-9.740333254999953],[-46.58314544699992,-9.585560323],[-46.57325558299991,-9.47776165799997],[-46.665975706999966,-9.391918603999958],[-46.75867433099993,-9.38121750699997],[-46.81875165299997,-9.303437734999918],[-46.81961352399996,-9.211618535999975],[-46.861117022000016,-9.146422799999918],[-47.05772741699993,-9.052954453999948],[-46.99292192999992,-8.878889431999912],[-46.91814678499996,-8.85699504699998],[-46.88694928399998,-8.686489758999958],[-46.902255773,-8.58627550299996],[-46.84603098299995,-8.533578620999958],[-46.77689069099992,-8.368431856999923],[-46.63319466599997,-8.318314401999913],[-46.54399948699998,-8.317435941999971],[-46.50772046799993,-8.269636501],[-46.515241111999934,-8.171375876],[-46.465749145999986,-8.072733139],[-46.50121184499991,-7.973213242999986],[-46.60514970599998,-7.896745048999918],[-46.88325737599996,-7.964248546999961],[-46.96347602500001,-8.039085814],[-47.04579518799996,-8.052764367999963],[-47.180579383999905,-7.859509603999957],[-47.317162625999934,-7.704351304999921],[-47.42432786499997,-7.530356879999953],[-47.56084097299997,-7.449832132999976],[-47.47820242299998,-7.336753689999984],[-47.542897742000015,-7.265383555999936],[-47.65065584499998,-7.302258541999915],[-47.745129125999966,-7.162504783999921],[-47.660374873999984,-7.15136806199995],[-47.54829352699998,-7.018893611999975],[-47.507039187999936,-6.872010107999902],[-47.498644070999966,-6.671231559999988],[-47.37864385599996,-6.272758322999969],[-47.42320395499996,-6.160186108999937],[-47.44781165699995,-5.996073502999941],[-47.43106335199993,-5.869210648000021],[-47.49309424099996,-5.710038436999959],[-47.47370452499997,-5.661979650999932],[-47.500120459,-5.525604845],[-47.744313744999914,-5.38013244499998],[-47.82754094399994,-5.386588161999981],[-47.872923550999964,-5.272358116],[-48.00120632799995,-5.234253101999947],[-48.07737612299994,-5.273429210999986],[-48.176796742,-5.259715289999939],[-48.36390981499996,-5.168380514999932],[-48.51946023799993,-5.192135489999977],[-48.606131708,-5.336500755999971],[-48.59673339899999,-5.422544371999969],[-48.51390248199998,-5.429819624999915],[-48.39351038299996,-5.394212592999956],[-48.27868911699993,-5.54042327699996],[-48.138151993999955,-5.602690142999975],[-48.175983124,-5.712295749999946],[-48.27571002799991,-5.726513364999924],[-48.29196984199992,-5.836837416000016],[-48.230125335999944,-5.922518408999942],[-48.334716312999966,-6.004274753999944],[-48.28804732,-6.097563684],[-48.40827049199998,-6.15340224599997],[-48.436131987999985,-6.20137159899997],[-48.41712259599993,-6.298586625999967],[-48.60718501099994,-6.448011071999957],[-48.66454908199992,-6.567674152999956],[-48.65196044199999,-6.639951240999906],[-48.76909815799994,-6.730701561999958],[-49.018883518999985,-6.784210543],[-49.20952811299994,-6.925420568999883],[-49.18528417599994,-7.235171785999981],[-49.23393700699991,-7.328908591999959],[-49.37799741,-7.496445757999979],[-49.381577385,-7.569102906999934],[-49.335147342,-7.668678115],[-49.16074007299997,-7.791368960999954],[-49.16277691799992,-7.900531240999928],[-49.21585399399994,-8.194211697999929],[-49.28332405199997,-8.37955720899993],[-49.34940941900001,-8.418376483999932],[-49.40988815999995,-8.580001947999936],[-49.59241132799994,-8.839491233999972],[-49.68435828399997,-8.856474922999933],[-49.84258965199999,-9.027325947999962],[-49.905419886999894,-9.169744793999932],[-50.037784898999966,-9.289405381999902],[-50.10533763599991,-9.475410491999945],[-50.089562276,-9.54569293899997],[-50.19906653299994,-9.761743180999947],[-50.3026455039999,-10.035411317999952],[-50.39825808599991,-10.155469745999977],[-50.38195272199994,-10.212114993999908],[-50.47372544499994,-10.404905493999959],[-50.482620474999976,-10.490038607999939],[-50.60289775,-10.658233979999974],[-50.57058773299998,-10.752504128999938],[-50.61219838499993,-10.810321464999948],[-50.63261929199997,-10.931861499],[-50.60945742599998,-11.067445653999961],[-50.664481443999975,-11.151598890999956],[-50.67132656299995,-11.286741354999972],[-50.728511103999914,-11.382565940999942],[-50.738935239999904,-11.544511594999971],[-50.65692589400001,-11.600858319999894],[-50.66370211999997,-11.677527273999964],[-50.721591475,-11.731712636999934],[-50.686304518999954,-11.85899541799996],[-50.63928820799994,-11.884566500999902],[-50.68223801600002,-11.990887565999984],[-50.681377293999944,-12.216949710999945],[-50.623573665,-12.455283798000014],[-50.70648878499996,-12.609701005000016],[-50.622961849,-12.734638545999886],[-50.625359464999974,-12.8000194859999],[-50.496807597000014,-12.845855327999942],[-50.478896329999955,-12.71259942199988],[-50.305458097,-12.49236947699993],[-50.20579286099995,-12.445206966999898],[-50.31077838299993,-12.791606178999935],[-50.18517797399993,-12.893638209999967],[-49.97782615599996,-12.940586792999973],[-49.36831590699999,-13.272301371999937],[-49.336128151999965,-13.063222498],[-49.22364016499998,-12.876855589999945],[-49.14451579899996,-12.81804728399992],[-49.07343810499995,-12.855077145999925],[-48.975617545999945,-12.956874391999982],[-48.870470134999984,-12.803492327999919]]]},"properties":{"CD_MUN":"1700251","NM_MUN":"Abreulândia","SIGLA":"TO","AREA_KM2":1906.295,"auxiliary_":null,"auxiliar_1":null,"REGIAO_MAR":"TO","BASE_RC":null,"ALLCON_TOT":2}}
]}